{
"type": "FeatureCollection",
"name": "bairros_2025",
"crs": { "type": "name", "properties": { "name": "urn:ogc:def:crs:OGC:1.3:CRS84" } },
"features": [
{ "type": "Feature", "properties": { "id": "112", "Name": "AEROLÂNDIA", "description": null, "timestamp": null, "begin": null, "end": null, "altitudeMode": null, "tessellate": -1, "extrude": 0, "visibility": -1, "drawOrder": null, "icon": null, "bairro": "AEROLÂNDIA", "regional": "SER VI", "area_ha": "11.049", "novas_regionais": "VIII", "territorios": "26" }, "geometry": { "type": "Point", "coordinates": [ -38.513521392872903, -3.774817938623093, 0.0 ] } },
{ "type": "Feature", "properties": { "id": "52", "Name": "AEROPORTO", "description": null, "timestamp": null, "begin": null, "end": null, "altitudeMode": null, "tessellate": -1, "extrude": 0, "visibility": -1, "drawOrder": null, "icon": null, "bairro": "AEROPORTO", "regional": "SER IV", "area_ha": "62.327", "novas_regionais": "V", "territorios": "18" }, "geometry": { "type": "Point", "coordinates": [ -38.529953523750613, -3.773563089634576, 0.0 ] } },
{ "type": "Feature", "properties": { "id": "32", "Name": "ALDEOTA", "description": null, "timestamp": null, "begin": null, "end": null, "altitudeMode": null, "tessellate": -1, "extrude": 0, "visibility": -1, "drawOrder": null, "icon": null, "bairro": "ALDEOTA", "regional": "SER II", "area_ha": "38.783", "novas_regionais": "III", "territorios": "7" }, "geometry": { "type": "Point", "coordinates": [ -38.502486250394298, -3.737648616498144, 0.0 ] } },
{ "type": "Feature", "properties": { "id": "88", "Name": "ALTO DA BALANÇA", "description": null, "timestamp": null, "begin": null, "end": null, "altitudeMode": null, "tessellate": -1, "extrude": 0, "visibility": -1, "drawOrder": null, "icon": null, "bairro": "ALTO DA BALANÇA", "regional": "SER VI", "area_ha": "9.037", "novas_regionais": "VIII", "territorios": "26" }, "geometry": { "type": "Point", "coordinates": [ -38.513362765729681, -3.7654147860083, 0.0 ] } },
{ "type": "Feature", "properties": { "id": "37", "Name": "AMADEU FURTADO", "description": null, "timestamp": null, "begin": null, "end": null, "altitudeMode": null, "tessellate": -1, "extrude": 0, "visibility": -1, "drawOrder": null, "icon": null, "bairro": "AMADEU FURTADO", "regional": "SER III", "area_ha": "9.349", "novas_regionais": "IV", "territorios": "14" }, "geometry": { "type": "Point", "coordinates": [ -38.559140608933383, -3.743806771549136, 0.0 ] } },
{ "type": "Feature", "properties": { "id": "96", "Name": "ANCURI", "description": null, "timestamp": null, "begin": null, "end": null, "altitudeMode": null, "tessellate": -1, "extrude": 0, "visibility": -1, "drawOrder": null, "icon": null, "bairro": "ANCURI", "regional": "SER VI", "area_ha": "21.81", "novas_regionais": "IX", "territorios": "33" }, "geometry": { "type": "Point", "coordinates": [ -38.506015025997783, -3.864201345827472, 0.0 ] } },
{ "type": "Feature", "properties": { "id": "46", "Name": "ANTÔNIO BEZERRA", "description": null, "timestamp": null, "begin": null, "end": null, "altitudeMode": null, "tessellate": -1, "extrude": 0, "visibility": -1, "drawOrder": null, "icon": null, "bairro": "ANTÔNIO BEZERRA", "regional": "SER III", "area_ha": "21.969", "novas_regionais": "IV", "territorios": "11" }, "geometry": { "type": "Point", "coordinates": [ -38.591327592086749, -3.741013505654699, 0.0 ] } },
{ "type": "Feature", "properties": { "id": "71", "Name": "ARACAPÉ", "description": null, "timestamp": null, "begin": null, "end": null, "altitudeMode": null, "tessellate": -1, "extrude": 0, "visibility": -1, "drawOrder": null, "icon": null, "bairro": "ARACAPÉ", "regional": "SER V", "area_ha": "21.794", "novas_regionais": "X", "territorios": "34" }, "geometry": { "type": "Point", "coordinates": [ -38.587247274597253, -3.830416413367066, 0.0 ] } },
{ "type": "Feature", "properties": { "id": "40", "Name": "AUTRAN NUNES", "description": null, "timestamp": null, "begin": null, "end": null, "altitudeMode": null, "tessellate": -1, "extrude": 0, "visibility": -1, "drawOrder": null, "icon": null, "bairro": "AUTRAN NUNES", "regional": "SER III", "area_ha": "9.751", "novas_regionais": "XI", "territorios": "37" }, "geometry": { "type": "Point", "coordinates": [ -38.595684951918869, -3.753818290509912, 0.0 ] } },
{ "type": "Feature", "properties": { "id": "5", "Name": "BARRA DO CEARÁ", "description": null, "timestamp": null, "begin": null, "end": null, "altitudeMode": null, "tessellate": -1, "extrude": 0, "visibility": -1, "drawOrder": null, "icon": null, "bairro": "BARRA DO CEARÁ", "regional": "SER I", "area_ha": "42.822", "novas_regionais": "II", "territorios": "3" }, "geometry": { "type": "Point", "coordinates": [ -38.581256068485651, -3.704405303001209, 0.0 ] } },
{ "type": "Feature", "properties": { "id": "90", "Name": "BARROSO", "description": null, "timestamp": null, "begin": null, "end": null, "altitudeMode": null, "tessellate": -1, "extrude": 0, "visibility": -1, "drawOrder": null, "icon": null, "bairro": "BARROSO", "regional": "SER VI", "area_ha": "34.42", "novas_regionais": "IX", "territorios": "31" }, "geometry": { "type": "Point", "coordinates": [ -38.512485897816518, -3.821687954708416, 0.0 ] } },
{ "type": "Feature", "properties": { "id": "36", "Name": "BELA VISTA", "description": null, "timestamp": null, "begin": null, "end": null, "altitudeMode": null, "tessellate": -1, "extrude": 0, "visibility": -1, "drawOrder": null, "icon": null, "bairro": "BELA VISTA", "regional": "SER III", "area_ha": "9.822", "novas_regionais": "XI", "territorios": "36" }, "geometry": { "type": "Point", "coordinates": [ -38.560895180570043, -3.752417643934244, 0.0 ] } },
{ "type": "Feature", "properties": { "id": "59", "Name": "BENFICA", "description": null, "timestamp": null, "begin": null, "end": null, "altitudeMode": null, "tessellate": -1, "extrude": 0, "visibility": -1, "drawOrder": null, "icon": null, "bairro": "BENFICA", "regional": "SER IV", "area_ha": "14.588", "novas_regionais": "V", "territorios": "15" }, "geometry": { "type": "Point", "coordinates": [ -38.538293566751364, -3.741756612453158, 0.0 ] } },
{ "type": "Feature", "properties": { "id": "93", "Name": "BOA VISTA-CASTELÃO", "description": null, "timestamp": null, "begin": null, "end": null, "altitudeMode": null, "tessellate": -1, "extrude": 0, "visibility": -1, "drawOrder": null, "icon": null, "bairro": "BOA VISTA/CASTELÃO", "regional": "SER VI", "area_ha": "29.575", "novas_regionais": "VI", "territorios": "20" }, "geometry": { "type": "Point", "coordinates": [ -38.521206412394783, -3.800080738444531, 0.0 ] } },
{ "type": "Feature", "properties": { "id": "55", "Name": "BOM FUTURO", "description": null, "timestamp": null, "begin": null, "end": null, "altitudeMode": null, "tessellate": -1, "extrude": 0, "visibility": -1, "drawOrder": null, "icon": null, "bairro": "BOM FUTURO", "regional": "SER IV", "area_ha": "3.839", "novas_regionais": "V", "territorios": "16" }, "geometry": { "type": "Point", "coordinates": [ -38.546224876514508, -3.757879015479851, 0.0 ] } },
{ "type": "Feature", "properties": { "id": "68", "Name": "BOM JARDIM", "description": null, "timestamp": null, "begin": null, "end": null, "altitudeMode": null, "tessellate": -1, "extrude": 0, "visibility": -1, "drawOrder": null, "icon": null, "bairro": "BOM JARDIM", "regional": "SER V", "area_ha": "24.419", "novas_regionais": "XII", "territorios": "39" }, "geometry": { "type": "Point", "coordinates": [ -38.601823530464522, -3.794596395768434, 0.0 ] } },
{ "type": "Feature", "properties": { "id": "43", "Name": "BONSUCESSO", "description": null, "timestamp": null, "begin": null, "end": null, "altitudeMode": null, "tessellate": -1, "extrude": 0, "visibility": -1, "drawOrder": null, "icon": null, "bairro": "BONSUCESSO", "regional": "SER III", "area_ha": "25.332", "novas_regionais": "XII", "territorios": "39" }, "geometry": { "type": "Point", "coordinates": [ -38.587611672065613, -3.780519025148155, 0.0 ] } },
{ "type": "Feature", "properties": { "id": "29", "Name": "CAIS DO PORTO", "description": null, "timestamp": null, "begin": null, "end": null, "altitudeMode": null, "tessellate": -1, "extrude": 0, "visibility": -1, "drawOrder": null, "icon": null, "bairro": "CAIS DO PORTO", "regional": "SER II", "area_ha": "27.335", "novas_regionais": "III", "territorios": "9" }, "geometry": { "type": "Point", "coordinates": [ -38.470370593121963, -3.714740364891362, 0.0 ] } },
{ "type": "Feature", "properties": { "id": "89", "Name": "CAJAZEIRAS", "description": null, "timestamp": null, "begin": null, "end": null, "altitudeMode": null, "tessellate": -1, "extrude": 0, "visibility": -1, "drawOrder": null, "icon": null, "bairro": "CAJAZEIRAS", "regional": "SER VI", "area_ha": "34.111", "novas_regionais": "IX", "territorios": "31" }, "geometry": { "type": "Point", "coordinates": [ -38.508570283454361, -3.803526493448135, 0.0 ] } },
{ "type": "Feature", "properties": { "id": "94", "Name": "CAMBEBA", "description": null, "timestamp": null, "begin": null, "end": null, "altitudeMode": null, "tessellate": -1, "extrude": 0, "visibility": -1, "drawOrder": null, "icon": null, "bairro": "CAMBEBA", "regional": "SER VI", "area_ha": "27.382", "novas_regionais": "VIII", "territorios": "28" }, "geometry": { "type": "Point", "coordinates": [ -38.4850771289926, -3.80662593693976, 0.0 ] } },
{ "type": "Feature", "properties": { "id": "74", "Name": "CANINDEZINHO", "description": null, "timestamp": null, "begin": null, "end": null, "altitudeMode": null, "tessellate": -1, "extrude": 0, "visibility": -1, "drawOrder": null, "icon": null, "bairro": "CANINDEZINHO", "regional": "SER V", "area_ha": "37.143", "novas_regionais": "X", "territorios": "34" }, "geometry": { "type": "Point", "coordinates": [ -38.603355211964832, -3.812687930599747, 0.0 ] } },
{ "type": "Feature", "properties": { "id": "13", "Name": "CARLITO PAMPLONA", "description": null, "timestamp": null, "begin": null, "end": null, "altitudeMode": null, "tessellate": -1, "extrude": 0, "visibility": -1, "drawOrder": null, "icon": null, "bairro": "CARLITO PAMPLONA", "regional": "SER I", "area_ha": "13.535", "novas_regionais": "II", "territorios": "5" }, "geometry": { "type": "Point", "coordinates": [ -38.554789024110413, -3.71702190754794, 0.0 ] } },
{ "type": "Feature", "properties": { "id": "107", "Name": "CENTRO", "description": null, "timestamp": null, "begin": null, "end": null, "altitudeMode": null, "tessellate": -1, "extrude": 0, "visibility": -1, "drawOrder": null, "icon": null, "bairro": "CENTRO", "regional": "SERCE", "area_ha": "48.933", "novas_regionais": "I", "territorios": "1" }, "geometry": { "type": "Point", "coordinates": [ -38.527206495358641, -3.727635403535038, 0.0 ] } },
{ "type": "Feature", "properties": { "id": "18", "Name": "CIDADE 2000", "description": null, "timestamp": null, "begin": null, "end": null, "altitudeMode": null, "tessellate": -1, "extrude": 0, "visibility": -1, "drawOrder": null, "icon": null, "bairro": "CIDADE 2000", "regional": "SER II", "area_ha": "4.983", "novas_regionais": "VII", "territorios": "23" }, "geometry": { "type": "Point", "coordinates": [ -38.471882493183372, -3.751162429808411, 0.0 ] } },
{ "type": "Feature", "properties": { "id": "105", "Name": "CIDADE DOS FUNCIONÁRIOS", "description": null, "timestamp": null, "begin": null, "end": null, "altitudeMode": null, "tessellate": -1, "extrude": 0, "visibility": -1, "drawOrder": null, "icon": null, "bairro": "CIDADE DOS FUNCIONÁRIOS", "regional": "SER VI", "area_ha": "27.889", "novas_regionais": "VIII", "territorios": "27" }, "geometry": { "type": "Point", "coordinates": [ -38.49937553562664, -3.794056010539008, 0.0 ] } },
{ "type": "Feature", "properties": { "id": "83", "Name": "COAÇU", "description": null, "timestamp": null, "begin": null, "end": null, "altitudeMode": null, "tessellate": -1, "extrude": 0, "visibility": -1, "drawOrder": null, "icon": null, "bairro": "COAÇU", "regional": "SER VI", "area_ha": "17.118", "novas_regionais": "VIII", "territorios": "30" }, "geometry": { "type": "Point", "coordinates": [ -38.476346654231527, -3.844847759408792, 0.0 ] } },
{ "type": "Feature", "properties": { "id": "17", "Name": "COCÓ", "description": null, "timestamp": null, "begin": null, "end": null, "altitudeMode": null, "tessellate": -1, "extrude": 0, "visibility": -1, "drawOrder": null, "icon": null, "bairro": "COCÓ", "regional": "SER II", "area_ha": "32.733", "novas_regionais": "VII", "territorios": "23" }, "geometry": { "type": "Point", "coordinates": [ -38.480096842439771, -3.749432037759389, 0.0 ] } },
{ "type": "Feature", "properties": { "id": "113", "Name": "CONJUNTO CEARÁ I", "description": null, "timestamp": null, "begin": null, "end": null, "altitudeMode": null, "tessellate": -1, "extrude": 0, "visibility": -1, "drawOrder": null, "icon": null, "bairro": "CONJUNTO CEARÁ I", "regional": "SER V", "area_ha": "15.973", "novas_regionais": "XI", "territorios": "38" }, "geometry": { "type": "Point", "coordinates": [ -38.606201927349112, -3.764725956913355, 0.0 ] } },
{ "type": "Feature", "properties": { "id": "110", "Name": "CONJUNTO CEARÁ II", "description": null, "timestamp": null, "begin": null, "end": null, "altitudeMode": null, "tessellate": -1, "extrude": 0, "visibility": -1, "drawOrder": null, "icon": null, "bairro": "CONJUNTO CEARÁ II", "regional": "SER V", "area_ha": "18.254", "novas_regionais": "XI", "territorios": "38" }, "geometry": { "type": "Point", "coordinates": [ -38.610934611915191, -3.771829404461541, 0.0 ] } },
{ "type": "Feature", "properties": { "id": "77", "Name": "CONJUNTO ESPERANÇA", "description": null, "timestamp": null, "begin": null, "end": null, "altitudeMode": null, "tessellate": -1, "extrude": 0, "visibility": -1, "drawOrder": null, "icon": null, "bairro": "CONJUNTO ESPERANÇA", "regional": "SER V", "area_ha": "9.781", "novas_regionais": "X", "territorios": "34" }, "geometry": { "type": "Point", "coordinates": [ -38.591346936869712, -3.814277654344793, 0.0 ] } },
{ "type": "Feature", "properties": { "id": "103", "Name": "CONJUNTO PALMEIRAS", "description": null, "timestamp": null, "begin": null, "end": null, "altitudeMode": null, "tessellate": -1, "extrude": 0, "visibility": -1, "drawOrder": null, "icon": null, "bairro": "CONJUNTO PALMEIRAS", "regional": "SER VI", "area_ha": "54.959", "novas_regionais": "IX", "territorios": "32" }, "geometry": { "type": "Point", "coordinates": [ -38.530582631980813, -3.849777209203608, 0.0 ] } },
{ "type": "Feature", "properties": { "id": "54", "Name": "COUTO FERNANDES", "description": null, "timestamp": null, "begin": null, "end": null, "altitudeMode": null, "tessellate": -1, "extrude": 0, "visibility": -1, "drawOrder": null, "icon": null, "bairro": "COUTO FERNANDES", "regional": "SER IV", "area_ha": "3.214", "novas_regionais": "XI", "territorios": "36" }, "geometry": { "type": "Point", "coordinates": [ -38.560146551446977, -3.760089010465443, 0.0 ] } },
{ "type": "Feature", "properties": { "id": "11", "Name": "CRISTO REDENTOR", "description": null, "timestamp": null, "begin": null, "end": null, "altitudeMode": null, "tessellate": -1, "extrude": 0, "visibility": -1, "drawOrder": null, "icon": null, "bairro": "CRISTO REDENTOR", "regional": "SER I", "area_ha": "11.892", "novas_regionais": "II", "territorios": "4" }, "geometry": { "type": "Point", "coordinates": [ -38.565027251142013, -3.707672267747666, 0.0 ] } },
{ "type": "Feature", "properties": { "id": "101", "Name": "CURIÓ", "description": null, "timestamp": null, "begin": null, "end": null, "altitudeMode": null, "tessellate": -1, "extrude": 0, "visibility": -1, "drawOrder": null, "icon": null, "bairro": "CURIÓ", "regional": "SER VI", "area_ha": "6.443", "novas_regionais": "VIII", "territorios": "29" }, "geometry": { "type": "Point", "coordinates": [ -38.477341368403522, -3.822699734537232, 0.0 ] } },
{ "type": "Feature", "properties": { "id": "114", "Name": "DAMAS", "description": null, "timestamp": null, "begin": null, "end": null, "altitudeMode": null, "tessellate": -1, "extrude": 0, "visibility": -1, "drawOrder": null, "icon": null, "bairro": "DAMAS", "regional": "SER IV", "area_ha": "8.974", "novas_regionais": "V", "territorios": "16" }, "geometry": { "type": "Point", "coordinates": [ -38.548877872273209, -3.752226028248991, 0.0 ] } },
{ "type": "Feature", "properties": { "id": "31", "Name": "DE LOURDES", "description": null, "timestamp": null, "begin": null, "end": null, "altitudeMode": null, "tessellate": -1, "extrude": 0, "visibility": -1, "drawOrder": null, "icon": null, "bairro": "DE LOURDES", "regional": "SER II", "area_ha": "13.661", "novas_regionais": "III", "territorios": "8" }, "geometry": { "type": "Point", "coordinates": [ -38.463029532872561, -3.740823660220383, 0.0 ] } },
{ "type": "Feature", "properties": { "id": "49", "Name": "DEMÓCRITO ROCHA", "description": null, "timestamp": null, "begin": null, "end": null, "altitudeMode": null, "tessellate": -1, "extrude": 0, "visibility": -1, "drawOrder": null, "icon": null, "bairro": "DEMÓCRITO ROCHA", "regional": "SER IV", "area_ha": "8.036", "novas_regionais": "XI", "territorios": "36" }, "geometry": { "type": "Point", "coordinates": [ -38.565396835612063, -3.762035635352866, 0.0 ] } },
{ "type": "Feature", "properties": { "id": "92", "Name": "DIAS MACÊDO", "description": null, "timestamp": null, "begin": null, "end": null, "altitudeMode": null, "tessellate": -1, "extrude": 0, "visibility": -1, "drawOrder": null, "icon": null, "bairro": "DIAS MACÊDO", "regional": "SER VI", "area_ha": "17.335", "novas_regionais": "VI", "territorios": "20" }, "geometry": { "type": "Point", "coordinates": [ -38.522060557034841, -3.788197930899316, 0.0 ] } },
{ "type": "Feature", "properties": { "id": "25", "Name": "DIONÍSIO TORRES", "description": null, "timestamp": null, "begin": null, "end": null, "altitudeMode": null, "tessellate": -1, "extrude": 0, "visibility": -1, "drawOrder": null, "icon": null, "bairro": "DIONÍSIO TORRES", "regional": "SER II", "area_ha": "17.237", "novas_regionais": "III", "territorios": "10" }, "geometry": { "type": "Point", "coordinates": [ -38.503287747223823, -3.748025612769528, 0.0 ] } },
{ "type": "Feature", "properties": { "id": "41", "Name": "DOM LUSTOSA", "description": null, "timestamp": null, "begin": null, "end": null, "altitudeMode": null, "tessellate": -1, "extrude": 0, "visibility": -1, "drawOrder": null, "icon": null, "bairro": "DOM LUSTOSA", "regional": "SER III", "area_ha": "11.98", "novas_regionais": "XI", "territorios": "37" }, "geometry": { "type": "Point", "coordinates": [ -38.587875326959413, -3.753216379116971, 0.0 ] } },
{ "type": "Feature", "properties": { "id": "87", "Name": "EDSON QUEIROZ", "description": null, "timestamp": null, "begin": null, "end": null, "altitudeMode": null, "tessellate": -1, "extrude": 0, "visibility": -1, "drawOrder": null, "icon": null, "bairro": "EDSON QUEIROZ", "regional": "SER VI", "area_ha": "138.482", "novas_regionais": "VII", "territorios": "25" }, "geometry": { "type": "Point", "coordinates": [ -38.462418357559883, -3.776915329740023, 0.0 ] } },
{ "type": "Feature", "properties": { "id": "14", "Name": "ELLERY", "description": null, "timestamp": null, "begin": null, "end": null, "altitudeMode": null, "tessellate": -1, "extrude": 0, "visibility": -1, "drawOrder": null, "icon": null, "bairro": "ELLERY", "regional": "SER I", "area_ha": "4.627", "novas_regionais": "IV", "territorios": "13" }, "geometry": { "type": "Point", "coordinates": [ -38.563346583103836, -3.72335579233367, 0.0 ] } },
{ "type": "Feature", "properties": { "id": "22", "Name": "ENGENHEIRO LUCIANO CAVALCANTE", "description": null, "timestamp": null, "begin": null, "end": null, "altitudeMode": null, "tessellate": -1, "extrude": 0, "visibility": -1, "drawOrder": null, "icon": null, "bairro": "ENGENHEIRO LUCIANO CAVALCANTE", "regional": "SER II", "area_ha": "38.702", "novas_regionais": "VII", "territorios": "24" }, "geometry": { "type": "Point", "coordinates": [ -38.489720109878448, -3.776960132620016, 0.0 ] } },
{ "type": "Feature", "properties": { "id": "108", "Name": "FARIAS BRITO", "description": null, "timestamp": null, "begin": null, "end": null, "altitudeMode": null, "tessellate": -1, "extrude": 0, "visibility": -1, "drawOrder": null, "icon": null, "bairro": "FARIAS BRITO", "regional": "SER I", "area_ha": "9.307", "novas_regionais": "IV", "territorios": "13" }, "geometry": { "type": "Point", "coordinates": [ -38.542390722631168, -3.732456023883039, 0.0 ] } },
{ "type": "Feature", "properties": { "id": "9", "Name": "FLORESTA", "description": null, "timestamp": null, "begin": null, "end": null, "altitudeMode": null, "tessellate": -1, "extrude": 0, "visibility": -1, "drawOrder": null, "icon": null, "bairro": "FLORESTA", "regional": "SER I", "area_ha": "17.154", "novas_regionais": "II", "territorios": "6" }, "geometry": { "type": "Point", "coordinates": [ -38.576425761253773, -3.720842169995557, 0.0 ] } },
{ "type": "Feature", "properties": { "id": "109", "Name": "FÁTIMA", "description": null, "timestamp": null, "begin": null, "end": null, "altitudeMode": null, "tessellate": -1, "extrude": 0, "visibility": -1, "drawOrder": null, "icon": null, "bairro": "FÁTIMA", "regional": "SER IV", "area_ha": "28.631", "novas_regionais": "V", "territorios": "15" }, "geometry": { "type": "Point", "coordinates": [ -38.528384894197757, -3.751112040484537, 0.0 ] } },
{ "type": "Feature", "properties": { "id": "60", "Name": "GRANJA LISBOA", "description": null, "timestamp": null, "begin": null, "end": null, "altitudeMode": null, "tessellate": -1, "extrude": 0, "visibility": -1, "drawOrder": null, "icon": null, "bairro": "GRANJA LISBOA", "regional": "SER V", "area_ha": "52.08", "novas_regionais": "XII", "territorios": "39" }, "geometry": { "type": "Point", "coordinates": [ -38.618995954309028, -3.787500465528132, 0.0 ] } },
{ "type": "Feature", "properties": { "id": "66", "Name": "GRANJA PORTUGAL", "description": null, "timestamp": null, "begin": null, "end": null, "altitudeMode": null, "tessellate": -1, "extrude": 0, "visibility": -1, "drawOrder": null, "icon": null, "bairro": "GRANJA PORTUGAL", "regional": "SER V", "area_ha": "25.241", "novas_regionais": "XII", "territorios": "39" }, "geometry": { "type": "Point", "coordinates": [ -38.599794116091992, -3.782208161078764, 0.0 ] } },
{ "type": "Feature", "properties": { "id": "99", "Name": "GUAJERU", "description": null, "timestamp": null, "begin": null, "end": null, "altitudeMode": null, "tessellate": -1, "extrude": 0, "visibility": -1, "drawOrder": null, "icon": null, "bairro": "GUAJERU", "regional": "SER VI", "area_ha": "10.74", "novas_regionais": "VIII", "territorios": "29" }, "geometry": { "type": "Point", "coordinates": [ -38.479118452851779, -3.832127557960713, 0.0 ] } },
{ "type": "Feature", "properties": { "id": "24", "Name": "GUARARAPES", "description": null, "timestamp": null, "begin": null, "end": null, "altitudeMode": null, "tessellate": -1, "extrude": 0, "visibility": -1, "drawOrder": null, "icon": null, "bairro": "GUARARAPES", "regional": "SER II", "area_ha": "13.644", "novas_regionais": "VII", "territorios": "24" }, "geometry": { "type": "Point", "coordinates": [ -38.488627831693108, -3.763375268397962, 0.0 ] } },
{ "type": "Feature", "properties": { "id": "34", "Name": "HENRIQUE JORGE", "description": null, "timestamp": null, "begin": null, "end": null, "altitudeMode": null, "tessellate": -1, "extrude": 0, "visibility": -1, "drawOrder": null, "icon": null, "bairro": "HENRIQUE JORGE", "regional": "SER III", "area_ha": "19.464", "novas_regionais": "XI", "territorios": "37" }, "geometry": { "type": "Point", "coordinates": [ -38.585283868717802, -3.762379537425542, 0.0 ] } },
{ "type": "Feature", "properties": { "id": "57", "Name": "ITAOCA", "description": null, "timestamp": null, "begin": null, "end": null, "altitudeMode": null, "tessellate": -1, "extrude": 0, "visibility": -1, "drawOrder": null, "icon": null, "bairro": "ITAOCA", "regional": "SER IV", "area_ha": "7.413", "novas_regionais": "V", "territorios": "17" }, "geometry": { "type": "Point", "coordinates": [ -38.555875664049871, -3.772353160109048, 0.0 ] } },
{ "type": "Feature", "properties": { "id": "119", "Name": "ITAPERI", "description": null, "timestamp": null, "begin": null, "end": null, "altitudeMode": null, "tessellate": -1, "extrude": 0, "visibility": -1, "drawOrder": null, "icon": null, "bairro": "ITAPERI", "regional": "SER IV", "area_ha": "25.487", "novas_regionais": "VI", "territorios": "19" }, "geometry": { "type": "Point", "coordinates": [ -38.550629431169106, -3.789056922447672, 0.0 ] } },
{ "type": "Feature", "properties": { "id": "1", "Name": "JACARECANGA", "description": null, "timestamp": null, "begin": null, "end": null, "altitudeMode": null, "tessellate": -1, "extrude": 0, "visibility": -1, "drawOrder": null, "icon": null, "bairro": "JACARECANGA", "regional": "SER I", "area_ha": "12.628", "novas_regionais": "II", "territorios": "5" }, "geometry": { "type": "Point", "coordinates": [ -38.545121400671761, -3.72023955628739, 0.0 ] } },
{ "type": "Feature", "properties": { "id": "102", "Name": "JANGURUSSU", "description": null, "timestamp": null, "begin": null, "end": null, "altitudeMode": null, "tessellate": -1, "extrude": 0, "visibility": -1, "drawOrder": null, "icon": null, "bairro": "JANGURUSSU", "regional": "SER VI", "area_ha": "80.106", "novas_regionais": "IX", "territorios": "32" }, "geometry": { "type": "Point", "coordinates": [ -38.514286980748821, -3.843735355534246, 0.0 ] } },
{ "type": "Feature", "properties": { "id": "56", "Name": "JARDIM AMÉRICA", "description": null, "timestamp": null, "begin": null, "end": null, "altitudeMode": null, "tessellate": -1, "extrude": 0, "visibility": -1, "drawOrder": null, "icon": null, "bairro": "JARDIM AMÉRICA", "regional": "SER IV", "area_ha": "7.717", "novas_regionais": "V", "territorios": "16" }, "geometry": { "type": "Point", "coordinates": [ -38.541546303262919, -3.752610250361337, 0.0 ] } },
{ "type": "Feature", "properties": { "id": "63", "Name": "JARDIM CEARENSE", "description": null, "timestamp": null, "begin": null, "end": null, "altitudeMode": null, "tessellate": -1, "extrude": 0, "visibility": -1, "drawOrder": null, "icon": null, "bairro": "JARDIM CEARENSE", "regional": "SER V", "area_ha": "8.59", "novas_regionais": "X", "territorios": "35" }, "geometry": { "type": "Point", "coordinates": [ -38.566404462917532, -3.800956446991396, 0.0 ] } },
{ "type": "Feature", "properties": { "id": "86", "Name": "JARDIM DAS OLIVEIRAS", "description": null, "timestamp": null, "begin": null, "end": null, "altitudeMode": null, "tessellate": -1, "extrude": 0, "visibility": -1, "drawOrder": null, "icon": null, "bairro": "JARDIM DAS OLIVEIRAS", "regional": "SER VI", "area_ha": "23.889", "novas_regionais": "VIII", "territorios": "27" }, "geometry": { "type": "Point", "coordinates": [ -38.503666640403438, -3.781485387479429, 0.0 ] } },
{ "type": "Feature", "properties": { "id": "7", "Name": "JARDIM GUANABARA", "description": null, "timestamp": null, "begin": null, "end": null, "altitudeMode": null, "tessellate": -1, "extrude": 0, "visibility": -1, "drawOrder": null, "icon": null, "bairro": "JARDIM GUANABARA", "regional": "SER I", "area_ha": "7.34", "novas_regionais": "II", "territorios": "2" }, "geometry": { "type": "Point", "coordinates": [ -38.590267922568671, -3.723879388652818, 0.0 ] } },
{ "type": "Feature", "properties": { "id": "8", "Name": "JARDIM IRACEMA", "description": null, "timestamp": null, "begin": null, "end": null, "altitudeMode": null, "tessellate": -1, "extrude": 0, "visibility": -1, "drawOrder": null, "icon": null, "bairro": "JARDIM IRACEMA", "regional": "SER I", "area_ha": "11.029", "novas_regionais": "II", "territorios": "6" }, "geometry": { "type": "Point", "coordinates": [ -38.583815004766237, -3.721357345794015, 0.0 ] } },
{ "type": "Feature", "properties": { "id": "33", "Name": "JOAQUIM TÁVORA", "description": null, "timestamp": null, "begin": null, "end": null, "altitudeMode": null, "tessellate": -1, "extrude": 0, "visibility": -1, "drawOrder": null, "icon": null, "bairro": "JOAQUIM TÁVORA", "regional": "SER II", "area_ha": "19.646", "novas_regionais": "III", "territorios": "10" }, "geometry": { "type": "Point", "coordinates": [ -38.516717734416787, -3.745424928715414, 0.0 ] } },
{ "type": "Feature", "properties": { "id": "58", "Name": "JOSÉ BONIFÁCIO", "description": null, "timestamp": null, "begin": null, "end": null, "altitudeMode": null, "tessellate": -1, "extrude": 0, "visibility": -1, "drawOrder": null, "icon": null, "bairro": "JOSÉ BONIFÁCIO", "regional": "SER IV", "area_ha": "8.89", "novas_regionais": "V", "territorios": "15" }, "geometry": { "type": "Point", "coordinates": [ -38.528564500078652, -3.739451514068532, 0.0 ] } },
{ "type": "Feature", "properties": { "id": "9529", "Name": "JOSÉ DE ALENCAR", "description": null, "timestamp": null, "begin": null, "end": null, "altitudeMode": null, "tessellate": -1, "extrude": 0, "visibility": -1, "drawOrder": null, "icon": null, "bairro": "JOSÉ DE ALENCAR", "regional": "SER VI", "area_ha": "31.145", "novas_regionais": "VIII", "territorios": "29" }, "geometry": { "type": "Point", "coordinates": [ -38.472581099234773, -3.809996565807207, 0.0 ] } },
{ "type": "Feature", "properties": { "id": "35", "Name": "JOÃO XXIII", "description": null, "timestamp": null, "begin": null, "end": null, "altitudeMode": null, "tessellate": -1, "extrude": 0, "visibility": -1, "drawOrder": null, "icon": null, "bairro": "JOÃO XXIII", "regional": "SER III", "area_ha": "11.77", "novas_regionais": "XI", "territorios": "37" }, "geometry": { "type": "Point", "coordinates": [ -38.587457697236779, -3.770298983122453, 0.0 ] } },
{ "type": "Feature", "properties": { "id": "44", "Name": "JÓQUEI CLUBE", "description": null, "timestamp": null, "begin": null, "end": null, "altitudeMode": null, "tessellate": -1, "extrude": 0, "visibility": -1, "drawOrder": null, "icon": null, "bairro": "JÓQUEI CLUBE", "regional": "SER III", "area_ha": "17.01", "novas_regionais": "XI", "territorios": "37" }, "geometry": { "type": "Point", "coordinates": [ -38.57478173787468, -3.76762555525245, 0.0 ] } },
{ "type": "Feature", "properties": { "id": "82", "Name": "LAGOA REDONDA", "description": null, "timestamp": null, "begin": null, "end": null, "altitudeMode": null, "tessellate": -1, "extrude": 0, "visibility": -1, "drawOrder": null, "icon": null, "bairro": "LAGOA REDONDA", "regional": "SER VI", "area_ha": "115.081", "novas_regionais": "VIII", "territorios": "29" }, "geometry": { "type": "Point", "coordinates": [ -38.45957026742758, -3.825390444943116, 0.0 ] } },
{ "type": "Feature", "properties": { "id": "65", "Name": "MANOEL SÁTIRO", "description": null, "timestamp": null, "begin": null, "end": null, "altitudeMode": null, "tessellate": -1, "extrude": 0, "visibility": -1, "drawOrder": null, "icon": null, "bairro": "MANOEL SÁTIRO", "regional": "SER V", "area_ha": "14.316", "novas_regionais": "X", "territorios": "35" }, "geometry": { "type": "Point", "coordinates": [ -38.58005449135819, -3.798060819582997, 0.0 ] } },
{ "type": "Feature", "properties": { "id": "19", "Name": "MANUEL DIAS BRANCO", "description": null, "timestamp": null, "begin": null, "end": null, "altitudeMode": null, "tessellate": -1, "extrude": 0, "visibility": -1, "drawOrder": null, "icon": null, "bairro": "MANUEL DIAS BRANCO", "regional": "SER II", "area_ha": "44.546", "novas_regionais": "VII", "territorios": "23" }, "geometry": { "type": "Point", "coordinates": [ -38.459368800730147, -3.759502676484349, 0.0 ] } },
{ "type": "Feature", "properties": { "id": "118", "Name": "MARAPONGA", "description": null, "timestamp": null, "begin": null, "end": null, "altitudeMode": null, "tessellate": -1, "extrude": 0, "visibility": -1, "drawOrder": null, "icon": null, "bairro": "MARAPONGA", "regional": "SER V", "area_ha": "16.987", "novas_regionais": "X", "territorios": "35" }, "geometry": { "type": "Point", "coordinates": [ -38.569033590678593, -3.794659438727203, 0.0 ] } },
{ "type": "Feature", "properties": { "id": "16", "Name": "MEIRELES", "description": null, "timestamp": null, "begin": null, "end": null, "altitudeMode": null, "tessellate": -1, "extrude": 0, "visibility": -1, "drawOrder": null, "icon": null, "bairro": "MEIRELES", "regional": "SER II", "area_ha": "26.522", "novas_regionais": "III", "territorios": "7" }, "geometry": { "type": "Point", "coordinates": [ -38.500363055428707, -3.727830537087591, 0.0 ] } },
{ "type": "Feature", "properties": { "id": "100", "Name": "MESSEJANA", "description": null, "timestamp": null, "begin": null, "end": null, "altitudeMode": null, "tessellate": -1, "extrude": 0, "visibility": -1, "drawOrder": null, "icon": null, "bairro": "MESSEJANA", "regional": "SER VI", "area_ha": "60.538", "novas_regionais": "VIII", "territorios": "28" }, "geometry": { "type": "Point", "coordinates": [ -38.493328869121072, -3.826694169860273, 0.0 ] } },
{ "type": "Feature", "properties": { "id": "62", "Name": "MONDUBIM", "description": null, "timestamp": null, "begin": null, "end": null, "altitudeMode": null, "tessellate": -1, "extrude": 0, "visibility": -1, "drawOrder": null, "icon": null, "bairro": "MONDUBIM", "regional": "SER V", "area_ha": "71.299", "novas_regionais": "X", "territorios": "35" }, "geometry": { "type": "Point", "coordinates": [ -38.56926144299414, -3.816549584153395, 0.0 ] } },
{ "type": "Feature", "properties": { "id": "3", "Name": "MONTE CASTELO", "description": null, "timestamp": null, "begin": null, "end": null, "altitudeMode": null, "tessellate": -1, "extrude": 0, "visibility": -1, "drawOrder": null, "icon": null, "bairro": "MONTE CASTELO", "regional": "SER I", "area_ha": "7.776", "novas_regionais": "IV", "territorios": "13" }, "geometry": { "type": "Point", "coordinates": [ -38.553253226207687, -3.724743710106013, 0.0 ] } },
{ "type": "Feature", "properties": { "id": "50", "Name": "MONTESE", "description": null, "timestamp": null, "begin": null, "end": null, "altitudeMode": null, "tessellate": -1, "extrude": 0, "visibility": -1, "drawOrder": null, "icon": null, "bairro": "MONTESE", "regional": "SER IV", "area_ha": "19.115", "novas_regionais": "V", "territorios": "16" }, "geometry": { "type": "Point", "coordinates": [ -38.550617780218197, -3.764733110626193, 0.0 ] } },
{ "type": "Feature", "properties": { "id": "4", "Name": "MOURA BRASIL", "description": null, "timestamp": null, "begin": null, "end": null, "altitudeMode": null, "tessellate": -1, "extrude": 0, "visibility": -1, "drawOrder": null, "icon": null, "bairro": "MOURA BRASIL", "regional": "SER I", "area_ha": "4.243", "novas_regionais": "I", "territorios": "1" }, "geometry": { "type": "Point", "coordinates": [ -38.534666114143633, -3.718647515837652, 0.0 ] } },
{ "type": "Feature", "properties": { "id": "26", "Name": "MUCURIPE", "description": null, "timestamp": null, "begin": null, "end": null, "altitudeMode": null, "tessellate": -1, "extrude": 0, "visibility": -1, "drawOrder": null, "icon": null, "bairro": "MUCURIPE", "regional": "SER II", "area_ha": "8.712", "novas_regionais": "III", "territorios": "9" }, "geometry": { "type": "Point", "coordinates": [ -38.484453276153019, -3.725979870725427, 0.0 ] } },
{ "type": "Feature", "properties": { "id": "76", "Name": "NOVO MONDUBIM", "description": null, "timestamp": null, "begin": null, "end": null, "altitudeMode": null, "tessellate": -1, "extrude": 0, "visibility": -1, "drawOrder": null, "icon": null, "bairro": "NOVO MONDUBIM", "regional": "SER V", "area_ha": "17.545", "novas_regionais": "X", "territorios": "34" }, "geometry": { "type": "Point", "coordinates": [ -38.584955510507811, -3.807673862607939, 0.0 ] } },
{ "type": "Feature", "properties": { "id": "39", "Name": "OLAVO OLIVEIRA", "description": null, "timestamp": null, "begin": null, "end": null, "altitudeMode": null, "tessellate": -1, "extrude": 0, "visibility": -1, "drawOrder": null, "icon": null, "bairro": "OLAVO OLIVEIRA", "regional": "SER III", "area_ha": "7.117", "novas_regionais": "IV", "territorios": "11" }, "geometry": { "type": "Point", "coordinates": [ -38.590245554231053, -3.73001749511062, 0.0 ] } },
{ "type": "Feature", "properties": { "id": "48", "Name": "PADRE ANDRADE", "description": null, "timestamp": null, "begin": null, "end": null, "altitudeMode": null, "tessellate": -1, "extrude": 0, "visibility": -1, "drawOrder": null, "icon": null, "bairro": "PADRE ANDRADE", "regional": "SER III", "area_ha": "12.64", "novas_regionais": "IV", "territorios": "12" }, "geometry": { "type": "Point", "coordinates": [ -38.580480484145873, -3.736046113973481, 0.0 ] } },
{ "type": "Feature", "properties": { "id": "53", "Name": "PAN-AMERICANO", "description": null, "timestamp": null, "begin": null, "end": null, "altitudeMode": null, "tessellate": -1, "extrude": 0, "visibility": -1, "drawOrder": null, "icon": null, "bairro": "PANAMERICANO", "regional": "SER IV", "area_ha": "5.522", "novas_regionais": "XI", "territorios": "36" }, "geometry": { "type": "Point", "coordinates": [ -38.565196382151107, -3.7558116434667, 0.0 ] } },
{ "type": "Feature", "properties": { "id": "28", "Name": "PAPICU", "description": null, "timestamp": null, "begin": null, "end": null, "altitudeMode": null, "tessellate": -1, "extrude": 0, "visibility": -1, "drawOrder": null, "icon": null, "bairro": "PAPICU", "regional": "SER II", "area_ha": "21.053", "novas_regionais": "III", "territorios": "8" }, "geometry": { "type": "Point", "coordinates": [ -38.475368348843148, -3.739575557193677, 0.0 ] } },
{ "type": "Feature", "properties": { "id": "111", "Name": "PARANGABA", "description": null, "timestamp": null, "begin": null, "end": null, "altitudeMode": null, "tessellate": -1, "extrude": 0, "visibility": -1, "drawOrder": null, "icon": null, "bairro": "PARANGABA", "regional": "SER IV", "area_ha": "40.467", "novas_regionais": "V", "territorios": "17" }, "geometry": { "type": "Point", "coordinates": [ -38.566482765184382, -3.777509783219025, 0.0 ] } },
{ "type": "Feature", "properties": { "id": "120", "Name": "PARQUE ARAXÁ", "description": null, "timestamp": null, "begin": null, "end": null, "altitudeMode": null, "tessellate": -1, "extrude": 0, "visibility": -1, "drawOrder": null, "icon": null, "bairro": "PARQUE ARAXÁ", "regional": "SER III", "area_ha": "4.772", "novas_regionais": "IV", "territorios": "14" }, "geometry": { "type": "Point", "coordinates": [ -38.547824900914442, -3.735603939398006, 0.0 ] } },
{ "type": "Feature", "properties": { "id": "106", "Name": "PARQUE DOIS IRMÃOS", "description": null, "timestamp": null, "begin": null, "end": null, "altitudeMode": null, "tessellate": -1, "extrude": 0, "visibility": -1, "drawOrder": null, "icon": null, "bairro": "PARQUE DOIS IRMÃOS", "regional": "SER VI", "area_ha": "43.792", "novas_regionais": "VI", "territorios": "20" }, "geometry": { "type": "Point", "coordinates": [ -38.548067923640971, -3.811078489990953, 0.0 ] } },
{ "type": "Feature", "properties": { "id": "78", "Name": "PARQUE GENIBAÚ", "description": null, "timestamp": null, "begin": null, "end": null, "altitudeMode": null, "tessellate": -1, "extrude": 0, "visibility": -1, "drawOrder": null, "icon": null, "bairro": "GENIBAÚ", "regional": "SER V", "area_ha": "21.58", "novas_regionais": "XI", "territorios": "38" }, "geometry": { "type": "Point", "coordinates": [ -38.601353324951027, -3.758090624616914, 0.0 ] } },
{ "type": "Feature", "properties": { "id": "104", "Name": "PARQUE IRACEMA", "description": null, "timestamp": null, "begin": null, "end": null, "altitudeMode": null, "tessellate": -1, "extrude": 0, "visibility": -1, "drawOrder": null, "icon": null, "bairro": "PARQUE IRACEMA", "regional": "SER VI", "area_ha": "15.681", "novas_regionais": "VIII", "territorios": "28" }, "geometry": { "type": "Point", "coordinates": [ -38.496331390678947, -3.806133584456394, 0.0 ] } },
{ "type": "Feature", "properties": { "id": "80", "Name": "PARQUE MANIBURA", "description": null, "timestamp": null, "begin": null, "end": null, "altitudeMode": null, "tessellate": -1, "extrude": 0, "visibility": -1, "drawOrder": null, "icon": null, "bairro": "PARQUE MANIBURA", "regional": "SER VI", "area_ha": "12.686", "novas_regionais": "VIII", "territorios": "27" }, "geometry": { "type": "Point", "coordinates": [ -38.48608505215882, -3.791669466476455, 0.0 ] } },
{ "type": "Feature", "properties": { "id": "72", "Name": "PARQUE PRESIDENTE VARGAS", "description": null, "timestamp": null, "begin": null, "end": null, "altitudeMode": null, "tessellate": -1, "extrude": 0, "visibility": -1, "drawOrder": null, "icon": null, "bairro": "PARQUE PRESIDENTE VARGAS", "regional": "SER V", "area_ha": "15.449", "novas_regionais": "X", "territorios": "34" }, "geometry": { "type": "Point", "coordinates": [ -38.599712036657209, -3.82608687054527, 0.0 ] } },
{ "type": "Feature", "properties": { "id": "97", "Name": "PARQUE SANTA MARIA", "description": null, "timestamp": null, "begin": null, "end": null, "altitudeMode": null, "tessellate": -1, "extrude": 0, "visibility": -1, "drawOrder": null, "icon": null, "bairro": "PARQUE SANTA MARIA", "regional": "SER VI", "area_ha": "19.696", "novas_regionais": "IX", "territorios": "33" }, "geometry": { "type": "Point", "coordinates": [ -38.499512620960417, -3.850933391534392, 0.0 ] } },
{ "type": "Feature", "properties": { "id": "73", "Name": "PARQUE SANTA ROSA", "description": null, "timestamp": null, "begin": null, "end": null, "altitudeMode": null, "tessellate": -1, "extrude": 0, "visibility": -1, "drawOrder": null, "icon": null, "bairro": "PARQUE SANTA ROSA", "regional": "SER V", "area_ha": "10.019", "novas_regionais": "X", "territorios": "34" }, "geometry": { "type": "Point", "coordinates": [ -38.594674294665808, -3.819787913386353, 0.0 ] } },
{ "type": "Feature", "properties": { "id": "67", "Name": "PARQUE SÃO JOSÉ", "description": null, "timestamp": null, "begin": null, "end": null, "altitudeMode": null, "tessellate": -1, "extrude": 0, "visibility": -1, "drawOrder": null, "icon": null, "bairro": "PARQUE SÃO JOSÉ", "regional": "SER V", "area_ha": "5.965", "novas_regionais": "X", "territorios": "34" }, "geometry": { "type": "Point", "coordinates": [ -38.58867347862499, -3.796990689516401, 0.0 ] } },
{ "type": "Feature", "properties": { "id": "38", "Name": "PARQUELÂNDIA", "description": null, "timestamp": null, "begin": null, "end": null, "altitudeMode": null, "tessellate": -1, "extrude": 0, "visibility": -1, "drawOrder": null, "icon": null, "bairro": "PARQUELÂNDIA", "regional": "SER III", "area_ha": "12.368", "novas_regionais": "IV", "territorios": "14" }, "geometry": { "type": "Point", "coordinates": [ -38.559582909168093, -3.737400743470813, 0.0 ] } },
{ "type": "Feature", "properties": { "id": "117", "Name": "PARREÃO", "description": null, "timestamp": null, "begin": null, "end": null, "altitudeMode": null, "tessellate": -1, "extrude": 0, "visibility": -1, "drawOrder": null, "icon": null, "bairro": "PARREÃO", "regional": "SER IV", "area_ha": "10.17", "novas_regionais": "V", "territorios": "18" }, "geometry": { "type": "Point", "coordinates": [ -38.537678595343422, -3.759645516253331, 0.0 ] } },
{ "type": "Feature", "properties": { "id": "79", "Name": "PASSARÉ", "description": null, "timestamp": null, "begin": null, "end": null, "altitudeMode": null, "tessellate": -1, "extrude": 0, "visibility": -1, "drawOrder": null, "icon": null, "bairro": "PASSARÉ", "regional": "SER VI", "area_ha": "71.853", "novas_regionais": "VI", "territorios": "20" }, "geometry": { "type": "Point", "coordinates": [ -38.53202233309019, -3.813095852640852, 0.0 ] } },
{ "type": "Feature", "properties": { "id": "85", "Name": "PAUPINA", "description": null, "timestamp": null, "begin": null, "end": null, "altitudeMode": null, "tessellate": -1, "extrude": 0, "visibility": -1, "drawOrder": null, "icon": null, "bairro": "PAUPINA", "regional": "SER VI", "area_ha": "54.139", "novas_regionais": "VIII", "territorios": "30" }, "geometry": { "type": "Point", "coordinates": [ -38.492143341671998, -3.860463858206724, 0.0 ] } },
{ "type": "Feature", "properties": { "id": "121", "Name": "PEDRAS", "description": null, "timestamp": null, "begin": null, "end": null, "altitudeMode": null, "tessellate": -1, "extrude": 0, "visibility": -1, "drawOrder": null, "icon": null, "bairro": "PEDRAS", "regional": "SER VI", "area_ha": "71.272", "novas_regionais": "IX", "territorios": "33" }, "geometry": { "type": "Point", "coordinates": [ -38.514180853526732, -3.87843774381939, 0.0 ] } },
{ "type": "Feature", "properties": { "id": "42", "Name": "PICI", "description": null, "timestamp": null, "begin": null, "end": null, "altitudeMode": null, "tessellate": -1, "extrude": 0, "visibility": -1, "drawOrder": null, "icon": null, "bairro": "PICI", "regional": "SER III", "area_ha": "37.403", "novas_regionais": "XI", "territorios": "36" }, "geometry": { "type": "Point", "coordinates": [ -38.57473558337454, -3.748214275955694, 0.0 ] } },
{ "type": "Feature", "properties": { "id": "12", "Name": "PIRAMBU", "description": null, "timestamp": null, "begin": null, "end": null, "altitudeMode": null, "tessellate": -1, "extrude": 0, "visibility": -1, "drawOrder": null, "icon": null, "bairro": "PIRAMBU", "regional": "SER I", "area_ha": "5.665", "novas_regionais": "II", "territorios": "4" }, "geometry": { "type": "Point", "coordinates": [ -38.553468606993647, -3.710235580786124, 0.0 ] } },
{ "type": "Feature", "properties": { "id": "70", "Name": "PLANALTO AYRTON SENNA", "description": null, "timestamp": null, "begin": null, "end": null, "altitudeMode": null, "tessellate": -1, "extrude": 0, "visibility": -1, "drawOrder": null, "icon": null, "bairro": "PLANALTO AYRTON SENNA", "regional": "SER V", "area_ha": "33.852", "novas_regionais": "VI", "territorios": "21" }, "geometry": { "type": "Point", "coordinates": [ -38.572885701043383, -3.834307621053683, 0.0 ] } },
{ "type": "Feature", "properties": { "id": "15", "Name": "PRAIA DE IRACEMA", "description": null, "timestamp": null, "begin": null, "end": null, "altitudeMode": null, "tessellate": -1, "extrude": 0, "visibility": -1, "drawOrder": null, "icon": null, "bairro": "PRAIA DE IRACEMA", "regional": "SER II", "area_ha": "5.336", "novas_regionais": "I", "territorios": "1" }, "geometry": { "type": "Point", "coordinates": [ -38.515634685916758, -3.720809098341082, 0.0 ] } },
{ "type": "Feature", "properties": { "id": "20", "Name": "PRAIA DO FUTURO I", "description": null, "timestamp": null, "begin": null, "end": null, "altitudeMode": null, "tessellate": -1, "extrude": 0, "visibility": -1, "drawOrder": null, "icon": null, "bairro": "PRAIA DO FUTURO I", "regional": "SER II", "area_ha": "17.332", "novas_regionais": "VII", "territorios": "22" }, "geometry": { "type": "Point", "coordinates": [ -38.455811976190617, -3.740022155063631, 0.0 ] } },
{ "type": "Feature", "properties": { "id": "21", "Name": "PRAIA DO FUTURO II", "description": null, "timestamp": null, "begin": null, "end": null, "altitudeMode": null, "tessellate": -1, "extrude": 0, "visibility": -1, "drawOrder": null, "icon": null, "bairro": "PRAIA DO FUTURO II", "regional": "SER II", "area_ha": "31.656", "novas_regionais": "VII", "territorios": "22" }, "geometry": { "type": "Point", "coordinates": [ -38.444719692314457, -3.762385408308632, 0.0 ] } },
{ "type": "Feature", "properties": { "id": "69", "Name": "PREFEITO JOSÉ WALTER", "description": null, "timestamp": null, "begin": null, "end": null, "altitudeMode": null, "tessellate": -1, "extrude": 0, "visibility": -1, "drawOrder": null, "icon": null, "bairro": "PREFEITO JOSÉ WALTER", "regional": "SER V", "area_ha": "84.45", "novas_regionais": "VI", "territorios": "21" }, "geometry": { "type": "Point", "coordinates": [ -38.548227770154561, -3.836334116011531, 0.0 ] } },
{ "type": "Feature", "properties": { "id": "45", "Name": "PRESIDENTE KENNEDY", "description": null, "timestamp": null, "begin": null, "end": null, "altitudeMode": null, "tessellate": -1, "extrude": 0, "visibility": -1, "drawOrder": null, "icon": null, "bairro": "PRESIDENTE KENNEDY", "regional": "SER III", "area_ha": "17.16", "novas_regionais": "IV", "territorios": "12" }, "geometry": { "type": "Point", "coordinates": [ -38.570216305823678, -3.730568071341502, 0.0 ] } },
{ "type": "Feature", "properties": { "id": "47", "Name": "QUINTINO CUNHA", "description": null, "timestamp": null, "begin": null, "end": null, "altitudeMode": null, "tessellate": -1, "extrude": 0, "visibility": -1, "drawOrder": null, "icon": null, "bairro": "QUINTINO CUNHA", "regional": "SER III", "area_ha": "21.346", "novas_regionais": "IV", "territorios": "11" }, "geometry": { "type": "Point", "coordinates": [ -38.601758639753207, -3.72922238960876, 0.0 ] } },
{ "type": "Feature", "properties": { "id": "61", "Name": "RACHEL DE QUEIROZ", "description": null, "timestamp": null, "begin": null, "end": null, "altitudeMode": null, "tessellate": -1, "extrude": 0, "visibility": -1, "drawOrder": null, "icon": null, "bairro": "DENDÊ", "regional": "SER IV", "area_ha": "19.688", "novas_regionais": "VI", "territorios": "19" }, "geometry": { "type": "Point", "coordinates": [ -38.556772771657151, -3.797792895932057, 0.0 ] } },
{ "type": "Feature", "properties": { "id": "116", "Name": "RODOLFO TEÓFILO", "description": null, "timestamp": null, "begin": null, "end": null, "altitudeMode": null, "tessellate": -1, "extrude": 0, "visibility": -1, "drawOrder": null, "icon": null, "bairro": "RODOLFO TEÓFILO", "regional": "SER III", "area_ha": "17.04", "novas_regionais": "IV", "territorios": "14" }, "geometry": { "type": "Point", "coordinates": [ -38.550973955731443, -3.745354690636342, 0.0 ] } },
{ "type": "Feature", "properties": { "id": "81", "Name": "SABIAGUABA", "description": null, "timestamp": null, "begin": null, "end": null, "altitudeMode": null, "tessellate": -1, "extrude": 0, "visibility": -1, "drawOrder": null, "icon": null, "bairro": "SABIAGUABA", "regional": "SER VI", "area_ha": "101.124", "novas_regionais": "VII", "territorios": "26" }, "geometry": { "type": "Point", "coordinates": [ -38.428594735477702, -3.799922367227883, 0.0 ] } },
{ "type": "Feature", "properties": { "id": "23", "Name": "SALINAS", "description": null, "timestamp": null, "begin": null, "end": null, "altitudeMode": null, "tessellate": -1, "extrude": 0, "visibility": -1, "drawOrder": null, "icon": null, "bairro": "SALINAS", "regional": "SER II", "area_ha": "25.464", "novas_regionais": "VII", "territorios": "24" }, "geometry": { "type": "Point", "coordinates": [ -38.500041599795061, -3.763950918097919, 0.0 ] } },
{ "type": "Feature", "properties": { "id": "98", "Name": "SAPIRANGA-COITÉ", "description": null, "timestamp": null, "begin": null, "end": null, "altitudeMode": null, "tessellate": -1, "extrude": 0, "visibility": -1, "drawOrder": null, "icon": null, "bairro": "SAPIRANGA / COITÉ", "regional": "SER VI", "area_ha": "47.72", "novas_regionais": "VII", "territorios": "25" }, "geometry": { "type": "Point", "coordinates": [ -38.465784996065082, -3.796972303470558, 0.0 ] } },
{ "type": "Feature", "properties": { "id": "91", "Name": "SERRINHA", "description": null, "timestamp": null, "begin": null, "end": null, "altitudeMode": null, "tessellate": -1, "extrude": 0, "visibility": -1, "drawOrder": null, "icon": null, "bairro": "SERRINHA", "regional": "SER IV", "area_ha": "29.496", "novas_regionais": "VI", "territorios": "19" }, "geometry": { "type": "Point", "coordinates": [ -38.540754569032821, -3.785351680382597, 0.0 ] } },
{ "type": "Feature", "properties": { "id": "75", "Name": "SIQUEIRA", "description": null, "timestamp": null, "begin": null, "end": null, "altitudeMode": null, "tessellate": -1, "extrude": 0, "visibility": -1, "drawOrder": null, "icon": null, "bairro": "SIQUEIRA", "regional": "SER V", "area_ha": "63.567", "novas_regionais": "XII", "territorios": "39" }, "geometry": { "type": "Point", "coordinates": [ -38.619833893780523, -3.805284850083205, 0.0 ] } },
{ "type": "Feature", "properties": { "id": "84", "Name": "SÃO BENTO", "description": null, "timestamp": null, "begin": null, "end": null, "altitudeMode": null, "tessellate": -1, "extrude": 0, "visibility": -1, "drawOrder": null, "icon": null, "bairro": "SÃO BENTO", "regional": "SER VI", "area_ha": "21.933", "novas_regionais": "VIII", "territorios": "30" }, "geometry": { "type": "Point", "coordinates": [ -38.48241954259629, -3.856481944696886, 0.0 ] } },
{ "type": "Feature", "properties": { "id": "2", "Name": "SÃO GERARDO", "description": null, "timestamp": null, "begin": null, "end": null, "altitudeMode": null, "tessellate": -1, "extrude": 0, "visibility": -1, "drawOrder": null, "icon": null, "bairro": "SÃO GERARDO", "regional": "SER I", "area_ha": "14.755", "novas_regionais": "IV", "territorios": "13" }, "geometry": { "type": "Point", "coordinates": [ -38.557518005118972, -3.730281893172089, 0.0 ] } },
{ "type": "Feature", "properties": { "id": "115", "Name": "TAUAPE", "description": null, "timestamp": null, "begin": null, "end": null, "altitudeMode": null, "tessellate": -1, "extrude": 0, "visibility": -1, "drawOrder": null, "icon": null, "bairro": "TAUAPE", "regional": "SER II", "area_ha": "24.928", "novas_regionais": "III", "territorios": "10" }, "geometry": { "type": "Point", "coordinates": [ -38.50792936499883, -3.756437462263094, 0.0 ] } },
{ "type": "Feature", "properties": { "id": "27", "Name": "VARJOTA", "description": null, "timestamp": null, "begin": null, "end": null, "altitudeMode": null, "tessellate": -1, "extrude": 0, "visibility": -1, "drawOrder": null, "icon": null, "bairro": "VARJOTA", "regional": "SER II", "area_ha": "5.32", "novas_regionais": "III", "territorios": "8" }, "geometry": { "type": "Point", "coordinates": [ -38.486282463266271, -3.733671864348465, 0.0 ] } },
{ "type": "Feature", "properties": { "id": "30", "Name": "VICENTE PINZÓN", "description": null, "timestamp": null, "begin": null, "end": null, "altitudeMode": null, "tessellate": -1, "extrude": 0, "visibility": -1, "drawOrder": null, "icon": null, "bairro": "VICENTE PINZÓN", "regional": "SER II", "area_ha": "31.339", "novas_regionais": "III", "territorios": "9" }, "geometry": { "type": "Point", "coordinates": [ -38.469549758894154, -3.728084425617348, 0.0 ] } },
{ "type": "Feature", "properties": { "id": "64", "Name": "VILA PERI", "description": null, "timestamp": null, "begin": null, "end": null, "altitudeMode": null, "tessellate": -1, "extrude": 0, "visibility": -1, "drawOrder": null, "icon": null, "bairro": "VILA PERI", "regional": "SER IV", "area_ha": "14.892", "novas_regionais": "V", "territorios": "17" }, "geometry": { "type": "Point", "coordinates": [ -38.580867189543987, -3.788350300962522, 0.0 ] } },
{ "type": "Feature", "properties": { "id": "51", "Name": "VILA UNIÃO", "description": null, "timestamp": null, "begin": null, "end": null, "altitudeMode": null, "tessellate": -1, "extrude": 0, "visibility": -1, "drawOrder": null, "icon": null, "bairro": "VILA UNIÃO", "regional": "SER IV", "area_ha": "14.001", "novas_regionais": "V", "territorios": "18" }, "geometry": { "type": "Point", "coordinates": [ -38.535835755723269, -3.767065990080869, 0.0 ] } },
{ "type": "Feature", "properties": { "id": "6", "Name": "VILA VELHA", "description": null, "timestamp": null, "begin": null, "end": null, "altitudeMode": null, "tessellate": -1, "extrude": 0, "visibility": -1, "drawOrder": null, "icon": null, "bairro": "VILA VELHA", "regional": "SER I", "area_ha": "71.488", "novas_regionais": "II", "territorios": "2" }, "geometry": { "type": "Point", "coordinates": [ -38.604447927925527, -3.712440212014392, 0.0 ] } },
{ "type": "Feature", "properties": { "id": "10", "Name": "ÁLVARO WEYNE", "description": null, "timestamp": null, "begin": null, "end": null, "altitudeMode": null, "tessellate": -1, "extrude": 0, "visibility": -1, "drawOrder": null, "icon": null, "bairro": "ÁLVARO WEYNE", "regional": "SER I", "area_ha": "14.218", "novas_regionais": "II", "territorios": "6" }, "geometry": { "type": "Point", "coordinates": [ -38.566635894436942, -3.715897442074985, 0.0 ] } }
]
}
