{
  "type": "FeatureCollection",
  "features": [
    {
      "type": "Feature",
      "properties": {
        "faction": "COMANDO VERMELHO",
        "n_points": 61
      },
      "geometry": {
        "type": "Polygon",
        "coordinates": [
          [
            [
              -38.506127687720884,
              -3.8642306056993534
            ],
            [
              -38.59970128622432,
              -3.82609228179
            ],
            [
              -38.61991321611341,
              -3.8052489005280385
            ],
            [
              -38.61897265287767,
              -3.787494937644722
            ],
            [
              -38.604459061859295,
              -3.7124688547885887
            ],
            [
              -38.58124206882749,
              -3.704544271008265
            ],
            [
              -38.56503781381557,
              -3.7076990645350643
            ],
            [
              -38.55349784565874,
              -3.7102365239896686
            ],
            [
              -38.48447755523055,
              -3.72597120414471
            ],
            [
              -38.42861025776214,
              -3.7997102514891985
            ],
            [
              -38.4386679129587,
              -3.8208350661635433
            ],
            [
              -38.49219370287419,
              -3.86053725861436
            ],
            [
              -38.506127687720884,
              -3.8642306056993534
            ]
          ]
        ]
      }
    },
    {
      "type": "Feature",
      "properties": {
        "faction": "CONTESTED",
        "n_points": 13
      },
      "geometry": {
        "type": "Polygon",
        "coordinates": [
          [
            [
              -38.514218762294895,
              -3.878489003637993
            ],
            [
              -38.603375389338495,
              -3.812635257496074
            ],
            [
              -38.560890876321075,
              -3.7523888400697376
            ],
            [
              -38.527232502992945,
              -3.7276815796803877
            ],
            [
              -38.4862606238684,
              -3.7336406073594812
            ],
            [
              -38.48228718432613,
              -3.856408398617356
            ],
            [
              -38.514218762294895,
              -3.878489003637993
            ]
          ]
        ]
      }
    },
    {
      "type": "Feature",
      "properties": {
        "faction": "PRIMEIRO COMANDO DA CAPITAL",
        "n_points": 1
      },
      "geometry": {
        "type": "Point",
        "coordinates": [
          -38.502478286143486,
          -3.7376415435037886
        ]
      }
    },
    {
      "type": "Feature",
      "properties": {
        "faction": "SEM_CONTROLE",
        "n_points": 45
      },
      "geometry": {
        "type": "Polygon",
        "coordinates": [
          [
            [
              -38.499535258707006,
              -3.850923991846356
            ],
            [
              -38.53056148977917,
              -3.8498123572861482
            ],
            [
              -38.54824578788061,
              -3.8363505365465698
            ],
            [
              -38.5886718481852,
              -3.7969721021621616
            ],
            [
              -38.5956876159437,
              -3.7537877299285047
            ],
            [
              -38.59024285098493,
              -3.73005890046356
            ],
            [
              -38.57642058887708,
              -3.7208372080175782
            ],
            [
              -38.47061036659603,
              -3.714817851310944
            ],
            [
              -38.455891552975956,
              -3.740042671379704
            ],
            [
              -38.44481402618642,
              -3.7624974463135037
            ],
            [
              -38.424781535316285,
              -3.822971810269248
            ],
            [
              -38.499535258707006,
              -3.850923991846356
            ]
          ]
        ]
      }
    },
    {
      "type": "Feature",
      "properties": {
        "faction": "MASSA",
        "n_points": 1
      },
      "geometry": {
        "type": "Point",
        "coordinates": [
          -38.557517621963434,
          -3.7302911115484765
        ]
      }
    }
  ]
}