{
"type": "FeatureCollection",
"name": "nodes_with_faction_assigned",
"crs": { "type": "name", "properties": { "name": "urn:ogc:def:crs:OGC:1.3:CRS84" } },
"features": [
{ "type": "Feature", "properties": { "bairro": "AEROLÂNDIA", "bairro_norm": "aerolandia", "faction": "COMANDO VERMELHO" }, "geometry": { "type": "Point", "coordinates": [ -38.513576525227414, -3.774887855214006 ] } },
{ "type": "Feature", "properties": { "bairro": "AEROPORTO", "bairro_norm": "aeroporto", "faction": "PRIMEIRO COMANDO DA CAPITAL" }, "geometry": { "type": "Point", "coordinates": [ -38.529936807608756, -3.773575296717491 ] } },
{ "type": "Feature", "properties": { "bairro": "ALDEOTA", "bairro_norm": "aldeota", "faction": "N/A" }, "geometry": { "type": "Point", "coordinates": [ -38.502478286143486, -3.737641543503789 ] } },
{ "type": "Feature", "properties": { "bairro": "ALTO DA BALANÇA", "bairro_norm": "alto da balanca", "faction": "COMANDO VERMELHO" }, "geometry": { "type": "Point", "coordinates": [ -38.513451321965917, -3.765405918981216 ] } },
{ "type": "Feature", "properties": { "bairro": "AMADEU FURTADO", "bairro_norm": "amadeu furtado", "faction": "N/A" }, "geometry": { "type": "Point", "coordinates": [ -38.559106462770259, -3.743806219557524 ] } },
{ "type": "Feature", "properties": { "bairro": "ANCURI", "bairro_norm": "ancuri", "faction": "MASSA" }, "geometry": { "type": "Point", "coordinates": [ -38.506127687720884, -3.864230605699353 ] } },
{ "type": "Feature", "properties": { "bairro": "ANTÔNIO BEZERRA", "bairro_norm": "antonio bezerra", "faction": "N/A" }, "geometry": { "type": "Point", "coordinates": [ -38.591321777313993, -3.741003038895218 ] } },
{ "type": "Feature", "properties": { "bairro": "AUTRAN NUNES", "bairro_norm": "autran nunes", "faction": "N/A" }, "geometry": { "type": "Point", "coordinates": [ -38.595687615943703, -3.753787729928505 ] } },
{ "type": "Feature", "properties": { "bairro": "BARRA DO CEARÁ", "bairro_norm": "barra do ceara", "faction": "N/A" }, "geometry": { "type": "Point", "coordinates": [ -38.581242068827493, -3.704544271008265 ] } },
{ "type": "Feature", "properties": { "bairro": "BARROSO", "bairro_norm": "barroso", "faction": "TERCEIRO COMANDO PURO" }, "geometry": { "type": "Point", "coordinates": [ -38.512549305574986, -3.821714132043447 ] } },
{ "type": "Feature", "properties": { "bairro": "BELA VISTA", "bairro_norm": "bela vista", "faction": "TERCEIRO COMANDO PURO" }, "geometry": { "type": "Point", "coordinates": [ -38.560890876321075, -3.752388840069738 ] } },
{ "type": "Feature", "properties": { "bairro": "BENFICA", "bairro_norm": "benfica", "faction": "N/A" }, "geometry": { "type": "Point", "coordinates": [ -38.538260257652084, -3.74174489800221 ] } },
{ "type": "Feature", "properties": { "bairro": "BOA VISTA/CASTELÃO", "bairro_norm": "boa vistacastelao", "faction": "N/A" }, "geometry": { "type": "Point", "coordinates": [ -38.521201449901369, -3.800159358546688 ] } },
{ "type": "Feature", "properties": { "bairro": "BOM FUTURO", "bairro_norm": "bom futuro", "faction": "N/A" }, "geometry": { "type": "Point", "coordinates": [ -38.546225874230174, -3.757878084373618 ] } },
{ "type": "Feature", "properties": { "bairro": "BOM JARDIM", "bairro_norm": "bom jardim", "faction": "COMANDO VERMELHO" }, "geometry": { "type": "Point", "coordinates": [ -38.601858680766888, -3.794562919580254 ] } },
{ "type": "Feature", "properties": { "bairro": "BONSUCESSO", "bairro_norm": "bonsucesso", "faction": "N/A" }, "geometry": { "type": "Point", "coordinates": [ -38.587596431275415, -3.780481654109352 ] } },
{ "type": "Feature", "properties": { "bairro": "CAIS DO PORTO", "bairro_norm": "cais do porto", "faction": "N/A" }, "geometry": { "type": "Point", "coordinates": [ -38.470610366596027, -3.714817851310944 ] } },
{ "type": "Feature", "properties": { "bairro": "CAJAZEIRAS", "bairro_norm": "cajazeiras", "faction": "COMANDO VERMELHO" }, "geometry": { "type": "Point", "coordinates": [ -38.508604205410066, -3.803618529032106 ] } },
{ "type": "Feature", "properties": { "bairro": "CAMBEBA", "bairro_norm": "cambeba", "faction": "N/A" }, "geometry": { "type": "Point", "coordinates": [ -38.485130449591828, -3.806603399935698 ] } },
{ "type": "Feature", "properties": { "bairro": "CANINDEZINHO", "bairro_norm": "canindezinho", "faction": "COMANDO VERMELHO" }, "geometry": { "type": "Point", "coordinates": [ -38.603375389338495, -3.812635257496074 ] } },
{ "type": "Feature", "properties": { "bairro": "CARLITO PAMPLONA", "bairro_norm": "carlito pamplona", "faction": "COMANDO VERMELHO" }, "geometry": { "type": "Point", "coordinates": [ -38.554769689373764, -3.717002628702548 ] } },
{ "type": "Feature", "properties": { "bairro": "CENTRO", "bairro_norm": "centro", "faction": "PRIMEIRO COMANDO DA CAPITAL" }, "geometry": { "type": "Point", "coordinates": [ -38.527232502992945, -3.727681579680388 ] } },
{ "type": "Feature", "properties": { "bairro": "CIDADE 2000", "bairro_norm": "cidade 2000", "faction": "COMANDO VERMELHO" }, "geometry": { "type": "Point", "coordinates": [ -38.471896350707361, -3.75115782512672 ] } },
{ "type": "Feature", "properties": { "bairro": "CIDADE DOS FUNCIONÁRIOS", "bairro_norm": "cidade dos funcionarios", "faction": "N/A" }, "geometry": { "type": "Point", "coordinates": [ -38.499449929816961, -3.794053727731027 ] } },
{ "type": "Feature", "properties": { "bairro": "COAÇU", "bairro_norm": "coacu", "faction": "TERCEIRO COMANDO PURO" }, "geometry": { "type": "Point", "coordinates": [ -38.476360307448537, -3.844690907326812 ] } },
{ "type": "Feature", "properties": { "bairro": "CONJUNTO CEARÁ I", "bairro_norm": "conjunto ceara i", "faction": "COMANDO VERMELHO" }, "geometry": { "type": "Point", "coordinates": [ -38.606221954091126, -3.76466935821195 ] } },
{ "type": "Feature", "properties": { "bairro": "CONJUNTO CEARÁ II", "bairro_norm": "conjunto ceara ii", "faction": "COMANDO VERMELHO" }, "geometry": { "type": "Point", "coordinates": [ -38.610893912157032, -3.771768719270383 ] } },
{ "type": "Feature", "properties": { "bairro": "CONJUNTO ESPERANÇA", "bairro_norm": "conjunto esperanca", "faction": "TERCEIRO COMANDO PURO" }, "geometry": { "type": "Point", "coordinates": [ -38.591345242066495, -3.814275490947594 ] } },
{ "type": "Feature", "properties": { "bairro": "CONJUNTO PALMEIRAS", "bairro_norm": "conjunto palmeiras", "faction": "N/A" }, "geometry": { "type": "Point", "coordinates": [ -38.530561489779167, -3.849812357286148 ] } },
{ "type": "Feature", "properties": { "bairro": "COUTO FERNANDES", "bairro_norm": "couto fernandes", "faction": "N/A" }, "geometry": { "type": "Point", "coordinates": [ -38.560178593053109, -3.760057342770987 ] } },
{ "type": "Feature", "properties": { "bairro": "CRISTO REDENTOR", "bairro_norm": "cristo redentor", "faction": "N/A" }, "geometry": { "type": "Point", "coordinates": [ -38.565037813815572, -3.707699064535064 ] } },
{ "type": "Feature", "properties": { "bairro": "CURIÓ", "bairro_norm": "curio", "faction": "N/A" }, "geometry": { "type": "Point", "coordinates": [ -38.47734520450804, -3.82269982926167 ] } },
{ "type": "Feature", "properties": { "bairro": "DAMAS", "bairro_norm": "damas", "faction": "N/A" }, "geometry": { "type": "Point", "coordinates": [ -38.548829601382941, -3.752284510026457 ] } },
{ "type": "Feature", "properties": { "bairro": "DE LOURDES", "bairro_norm": "de lourdes", "faction": "N/A" }, "geometry": { "type": "Point", "coordinates": [ -38.463038700550229, -3.740796049891702 ] } },
{ "type": "Feature", "properties": { "bairro": "DEMÓCRITO ROCHA", "bairro_norm": "democrito rocha", "faction": "N/A" }, "geometry": { "type": "Point", "coordinates": [ -38.56538313731226, -3.762045381781357 ] } },
{ "type": "Feature", "properties": { "bairro": "RACHEL DE QUEIROZ", "bairro_norm": "rachel de queiroz", "faction": "N/A" }, "geometry": { "type": "Point", "coordinates": [ -38.556787587334554, -3.797771956495684 ] } },
{ "type": "Feature", "properties": { "bairro": "DIAS MACÊDO", "bairro_norm": "dias macedo", "faction": "COMANDO VERMELHO" }, "geometry": { "type": "Point", "coordinates": [ -38.522086536349505, -3.788243124984987 ] } },
{ "type": "Feature", "properties": { "bairro": "DIONÍSIO TORRES", "bairro_norm": "dionisio torres", "faction": "N/A" }, "geometry": { "type": "Point", "coordinates": [ -38.503277164933323, -3.748018763612539 ] } },
{ "type": "Feature", "properties": { "bairro": "DOM LUSTOSA", "bairro_norm": "dom lustosa", "faction": "N/A" }, "geometry": { "type": "Point", "coordinates": [ -38.587880274600082, -3.753248557377755 ] } },
{ "type": "Feature", "properties": { "bairro": "EDSON QUEIROZ", "bairro_norm": "edson queiroz", "faction": "N/A" }, "geometry": { "type": "Point", "coordinates": [ -38.462592873532287, -3.776896931226908 ] } },
{ "type": "Feature", "properties": { "bairro": "ENGENHEIRO LUCIANO CAVALCANTE", "bairro_norm": "engenheiro luciano cavalcante", "faction": "N/A" }, "geometry": { "type": "Point", "coordinates": [ -38.489777786899133, -3.776980949609723 ] } },
{ "type": "Feature", "properties": { "bairro": "FARIAS BRITO", "bairro_norm": "farias brito", "faction": "N/A" }, "geometry": { "type": "Point", "coordinates": [ -38.542388951645314, -3.732463659883755 ] } },
{ "type": "Feature", "properties": { "bairro": "FLORESTA", "bairro_norm": "floresta", "faction": "N/A" }, "geometry": { "type": "Point", "coordinates": [ -38.576420588877077, -3.720837208017578 ] } },
{ "type": "Feature", "properties": { "bairro": "FÁTIMA", "bairro_norm": "fatima", "faction": "N/A" }, "geometry": { "type": "Point", "coordinates": [ -38.528365572382619, -3.751107175057224 ] } },
{ "type": "Feature", "properties": { "bairro": "GENIBAÚ", "bairro_norm": "genibau", "faction": "N/A" }, "geometry": { "type": "Point", "coordinates": [ -38.601328085335524, -3.758106881947724 ] } },
{ "type": "Feature", "properties": { "bairro": "GRANJA LISBOA", "bairro_norm": "granja lisboa", "faction": "N/A" }, "geometry": { "type": "Point", "coordinates": [ -38.618972652877673, -3.787494937644722 ] } },
{ "type": "Feature", "properties": { "bairro": "GRANJA PORTUGAL", "bairro_norm": "granja portugal", "faction": "COMANDO VERMELHO" }, "geometry": { "type": "Point", "coordinates": [ -38.599780754176862, -3.782206419426221 ] } },
{ "type": "Feature", "properties": { "bairro": "GUAJERU", "bairro_norm": "guajeru", "faction": "N/A" }, "geometry": { "type": "Point", "coordinates": [ -38.479134747079677, -3.83213521679451 ] } },
{ "type": "Feature", "properties": { "bairro": "HENRIQUE JORGE", "bairro_norm": "henrique jorge", "faction": "N/A" }, "geometry": { "type": "Point", "coordinates": [ -38.585280773448467, -3.762376034520257 ] } },
{ "type": "Feature", "properties": { "bairro": "ITAOCA", "bairro_norm": "itaoca", "faction": "COMANDO VERMELHO" }, "geometry": { "type": "Point", "coordinates": [ -38.555871548865838, -3.772354736016186 ] } },
{ "type": "Feature", "properties": { "bairro": "ITAPERI", "bairro_norm": "itaperi", "faction": "COMANDO VERMELHO" }, "geometry": { "type": "Point", "coordinates": [ -38.550687498735783, -3.789046315041916 ] } },
{ "type": "Feature", "properties": { "bairro": "JACARECANGA", "bairro_norm": "jacarecanga", "faction": "N/A" }, "geometry": { "type": "Point", "coordinates": [ -38.545119636039651, -3.720288273592631 ] } },
{ "type": "Feature", "properties": { "bairro": "JANGURUSSU", "bairro_norm": "jangurussu", "faction": "N/A" }, "geometry": { "type": "Point", "coordinates": [ -38.514313176793621, -3.843761217677179 ] } },
{ "type": "Feature", "properties": { "bairro": "JARDIM AMÉRICA", "bairro_norm": "jardim america", "faction": "N/A" }, "geometry": { "type": "Point", "coordinates": [ -38.54154285553183, -3.752614057019455 ] } },
{ "type": "Feature", "properties": { "bairro": "JARDIM CEARENSE", "bairro_norm": "jardim cearense", "faction": "N/A" }, "geometry": { "type": "Point", "coordinates": [ -38.566423522656727, -3.800941589794156 ] } },
{ "type": "Feature", "properties": { "bairro": "JARDIM GUANABARA", "bairro_norm": "jardim guanabara", "faction": "COMANDO VERMELHO" }, "geometry": { "type": "Point", "coordinates": [ -38.590265331006172, -3.723908906730365 ] } },
{ "type": "Feature", "properties": { "bairro": "JARDIM IRACEMA", "bairro_norm": "jardim iracema", "faction": "COMANDO VERMELHO" }, "geometry": { "type": "Point", "coordinates": [ -38.583806105642637, -3.721363617442506 ] } },
{ "type": "Feature", "properties": { "bairro": "JARDIM DAS OLIVEIRAS", "bairro_norm": "jardim das oliveiras", "faction": "COMANDO VERMELHO" }, "geometry": { "type": "Point", "coordinates": [ -38.503708941059124, -3.781545472120535 ] } },
{ "type": "Feature", "properties": { "bairro": "JOÃO XXIII", "bairro_norm": "joao xxiii", "faction": "N/A" }, "geometry": { "type": "Point", "coordinates": [ -38.587459545723526, -3.77028600190861 ] } },
{ "type": "Feature", "properties": { "bairro": "JOAQUIM TÁVORA", "bairro_norm": "joaquim tavora", "faction": "N/A" }, "geometry": { "type": "Point", "coordinates": [ -38.516724257999591, -3.745429708271719 ] } },
{ "type": "Feature", "properties": { "bairro": "JOSÉ BONIFÁCIO", "bairro_norm": "jose bonifacio", "faction": "N/A" }, "geometry": { "type": "Point", "coordinates": [ -38.528558185464405, -3.739454759159266 ] } },
{ "type": "Feature", "properties": { "bairro": "JOSÉ DE ALENCAR", "bairro_norm": "jose de alencar", "faction": "COMANDO VERMELHO" }, "geometry": { "type": "Point", "coordinates": [ -38.472622397216441, -3.81000826696912 ] } },
{ "type": "Feature", "properties": { "bairro": "JÓQUEI CLUBE", "bairro_norm": "joquei clube", "faction": "N/A" }, "geometry": { "type": "Point", "coordinates": [ -38.574802215608706, -3.767638870974591 ] } },
{ "type": "Feature", "properties": { "bairro": "LAGOA REDONDA", "bairro_norm": "lagoa redonda", "faction": "N/A" }, "geometry": { "type": "Point", "coordinates": [ -38.459555011560873, -3.825348916147547 ] } },
{ "type": "Feature", "properties": { "bairro": "MANOEL SÁTIRO", "bairro_norm": "manoel satiro", "faction": "N/A" }, "geometry": { "type": "Point", "coordinates": [ -38.580049906868169, -3.798055151383405 ] } },
{ "type": "Feature", "properties": { "bairro": "MANUEL DIAS BRANCO", "bairro_norm": "manuel dias branco", "faction": "N/A" }, "geometry": { "type": "Point", "coordinates": [ -38.459432949161325, -3.759460440534051 ] } },
{ "type": "Feature", "properties": { "bairro": "MARAPONGA", "bairro_norm": "maraponga", "faction": "N/A" }, "geometry": { "type": "Point", "coordinates": [ -38.569002765389982, -3.794626427003571 ] } },
{ "type": "Feature", "properties": { "bairro": "MEIRELES", "bairro_norm": "meireles", "faction": "N/A" }, "geometry": { "type": "Point", "coordinates": [ -38.50049293155444, -3.727547101786215 ] } },
{ "type": "Feature", "properties": { "bairro": "MESSEJANA", "bairro_norm": "messejana", "faction": "N/A" }, "geometry": { "type": "Point", "coordinates": [ -38.493391259954635, -3.826706352723204 ] } },
{ "type": "Feature", "properties": { "bairro": "MONDUBIM", "bairro_norm": "mondubim", "faction": "N/A" }, "geometry": { "type": "Point", "coordinates": [ -38.569289515914598, -3.816543297157986 ] } },
{ "type": "Feature", "properties": { "bairro": "MONTE CASTELO", "bairro_norm": "monte castelo", "faction": "N/A" }, "geometry": { "type": "Point", "coordinates": [ -38.553267089947155, -3.724743645376237 ] } },
{ "type": "Feature", "properties": { "bairro": "MONTESE", "bairro_norm": "montese", "faction": "N/A" }, "geometry": { "type": "Point", "coordinates": [ -38.550617338777307, -3.764732062863718 ] } },
{ "type": "Feature", "properties": { "bairro": "MOURA BRASIL", "bairro_norm": "moura brasil", "faction": "N/A" }, "geometry": { "type": "Point", "coordinates": [ -38.534692543354012, -3.718661088675376 ] } },
{ "type": "Feature", "properties": { "bairro": "MUCURIPE", "bairro_norm": "mucuripe", "faction": "N/A" }, "geometry": { "type": "Point", "coordinates": [ -38.484477555230548, -3.72597120414471 ] } },
{ "type": "Feature", "properties": { "bairro": "NOVO MONDUBIM", "bairro_norm": "novo mondubim", "faction": "TERCEIRO COMANDO PURO" }, "geometry": { "type": "Point", "coordinates": [ -38.584917016594794, -3.807668161341097 ] } },
{ "type": "Feature", "properties": { "bairro": "OLAVO OLIVEIRA", "bairro_norm": "olavo oliveira", "faction": "N/A" }, "geometry": { "type": "Point", "coordinates": [ -38.590242850984929, -3.73005890046356 ] } },
{ "type": "Feature", "properties": { "bairro": "PADRE ANDRADE", "bairro_norm": "padre andrade", "faction": "COMANDO VERMELHO" }, "geometry": { "type": "Point", "coordinates": [ -38.58047998790974, -3.736053782738495 ] } },
{ "type": "Feature", "properties": { "bairro": "PANAMERICANO", "bairro_norm": "panamericano", "faction": "N/A" }, "geometry": { "type": "Point", "coordinates": [ -38.565220554601666, -3.755775341841636 ] } },
{ "type": "Feature", "properties": { "bairro": "PAPICU", "bairro_norm": "papicu", "faction": "N/A" }, "geometry": { "type": "Point", "coordinates": [ -38.475381470972714, -3.739545749160944 ] } },
{ "type": "Feature", "properties": { "bairro": "PARANGABA", "bairro_norm": "parangaba", "faction": "N/A" }, "geometry": { "type": "Point", "coordinates": [ -38.566478383032518, -3.777489379351991 ] } },
{ "type": "Feature", "properties": { "bairro": "PARQUE ARAXÁ", "bairro_norm": "parque araxa", "faction": "COMANDO VERMELHO" }, "geometry": { "type": "Point", "coordinates": [ -38.547823412123904, -3.735611953318338 ] } },
{ "type": "Feature", "properties": { "bairro": "PARQUE IRACEMA", "bairro_norm": "parque iracema", "faction": "COMANDO VERMELHO" }, "geometry": { "type": "Point", "coordinates": [ -38.496394654409904, -3.80613121392823 ] } },
{ "type": "Feature", "properties": { "bairro": "PARQUE MANIBURA", "bairro_norm": "parque manibura", "faction": "N/A" }, "geometry": { "type": "Point", "coordinates": [ -38.48611006316365, -3.791667044614335 ] } },
{ "type": "Feature", "properties": { "bairro": "PARQUE PRESIDENTE VARGAS", "bairro_norm": "parque presidente vargas", "faction": "TERCEIRO COMANDO PURO" }, "geometry": { "type": "Point", "coordinates": [ -38.599701286224317, -3.82609228179 ] } },
{ "type": "Feature", "properties": { "bairro": "PARQUE SANTA MARIA", "bairro_norm": "parque santa maria", "faction": "N/A" }, "geometry": { "type": "Point", "coordinates": [ -38.499535258707006, -3.850923991846356 ] } },
{ "type": "Feature", "properties": { "bairro": "PARQUE SANTA ROSA", "bairro_norm": "parque santa rosa", "faction": "N/A" }, "geometry": { "type": "Point", "coordinates": [ -38.594662045250047, -3.81978122371756 ] } },
{ "type": "Feature", "properties": { "bairro": "PARQUE SĂO JOSÉ", "bairro_norm": "parque sao jose", "faction": "TERCEIRO COMANDO PURO" }, "geometry": { "type": "Point", "coordinates": [ -38.5886718481852, -3.796972102162162 ] } },
{ "type": "Feature", "properties": { "bairro": "PARQUE DOIS IRMĂOS", "bairro_norm": "parque dois irmaos", "faction": "N/A" }, "geometry": { "type": "Point", "coordinates": [ -38.548101418173516, -3.811087298722591 ] } },
{ "type": "Feature", "properties": { "bairro": "PARQUELÂNDIA", "bairro_norm": "parquelandia", "faction": "N/A" }, "geometry": { "type": "Point", "coordinates": [ -38.559552632128351, -3.737405650811437 ] } },
{ "type": "Feature", "properties": { "bairro": "PARREÃO", "bairro_norm": "parreao", "faction": "N/A" }, "geometry": { "type": "Point", "coordinates": [ -38.537623667622512, -3.75963013286997 ] } },
{ "type": "Feature", "properties": { "bairro": "PASSARÉ", "bairro_norm": "passare", "faction": "N/A" }, "geometry": { "type": "Point", "coordinates": [ -38.532046273179226, -3.813112920322427 ] } },
{ "type": "Feature", "properties": { "bairro": "GUARARAPES", "bairro_norm": "guararapes", "faction": "N/A" }, "geometry": { "type": "Point", "coordinates": [ -38.48867322069011, -3.7633928740599 ] } },
{ "type": "Feature", "properties": { "bairro": "PAUPINA", "bairro_norm": "paupina", "faction": "N/A" }, "geometry": { "type": "Point", "coordinates": [ -38.492193702874189, -3.86053725861436 ] } },
{ "type": "Feature", "properties": { "bairro": "PEDRAS", "bairro_norm": "pedras", "faction": "COMANDO VERMELHO" }, "geometry": { "type": "Point", "coordinates": [ -38.514218762294895, -3.878489003637993 ] } },
{ "type": "Feature", "properties": { "bairro": "PICI", "bairro_norm": "pici", "faction": "N/A" }, "geometry": { "type": "Point", "coordinates": [ -38.574732607684155, -3.74818132061414 ] } },
{ "type": "Feature", "properties": { "bairro": "PIRAMBU", "bairro_norm": "pirambu", "faction": "N/A" }, "geometry": { "type": "Point", "coordinates": [ -38.55349784565874, -3.710236523989669 ] } },
{ "type": "Feature", "properties": { "bairro": "PLANALTO AYRTON SENNA", "bairro_norm": "planalto ayrton senna", "faction": "N/A" }, "geometry": { "type": "Point", "coordinates": [ -38.572894374014346, -3.834315262470684 ] } },
{ "type": "Feature", "properties": { "bairro": "PRAIA DE IRACEMA", "bairro_norm": "praia de iracema", "faction": "N/A" }, "geometry": { "type": "Point", "coordinates": [ -38.515595063389931, -3.720804345053572 ] } },
{ "type": "Feature", "properties": { "bairro": "PRAIA DO FUTURO I", "bairro_norm": "praia do futuro i", "faction": "N/A" }, "geometry": { "type": "Point", "coordinates": [ -38.455891552975956, -3.740042671379704 ] } },
{ "type": "Feature", "properties": { "bairro": "PRAIA DO FUTURO II", "bairro_norm": "praia do futuro ii", "faction": "N/A" }, "geometry": { "type": "Point", "coordinates": [ -38.444814026186421, -3.762497446313504 ] } },
{ "type": "Feature", "properties": { "bairro": "PREFEITO JOSÉ WALTER", "bairro_norm": "prefeito jose walter", "faction": "N/A" }, "geometry": { "type": "Point", "coordinates": [ -38.54824578788061, -3.83635053654657 ] } },
{ "type": "Feature", "properties": { "bairro": "PRESIDENTE KENNEDY", "bairro_norm": "presidente kennedy", "faction": "COMANDO VERMELHO" }, "geometry": { "type": "Point", "coordinates": [ -38.570200534523494, -3.730538650379502 ] } },
{ "type": "Feature", "properties": { "bairro": "QUINTINO CUNHA", "bairro_norm": "quintino cunha", "faction": "N/A" }, "geometry": { "type": "Point", "coordinates": [ -38.601744866811167, -3.729243436779117 ] } },
{ "type": "Feature", "properties": { "bairro": "RODOLFO TEÓFILO", "bairro_norm": "rodolfo teofilo", "faction": "N/A" }, "geometry": { "type": "Point", "coordinates": [ -38.550936571302792, -3.745420341556963 ] } },
{ "type": "Feature", "properties": { "bairro": "SABIAGUABA", "bairro_norm": "sabiaguaba", "faction": "N/A" }, "geometry": { "type": "Point", "coordinates": [ -38.428610257762138, -3.799710251489198 ] } },
{ "type": "Feature", "properties": { "bairro": "SALINAS", "bairro_norm": "salinas", "faction": "N/A" }, "geometry": { "type": "Point", "coordinates": [ -38.500137451746831, -3.764066085659989 ] } },
{ "type": "Feature", "properties": { "bairro": "SAPIRANGA / COITÉ", "bairro_norm": "sapiranga  coite", "faction": "N/A" }, "geometry": { "type": "Point", "coordinates": [ -38.465844346940145, -3.796935803602902 ] } },
{ "type": "Feature", "properties": { "bairro": "SERRINHA", "bairro_norm": "serrinha", "faction": "N/A" }, "geometry": { "type": "Point", "coordinates": [ -38.540775933506985, -3.785323279679286 ] } },
{ "type": "Feature", "properties": { "bairro": "SÃO BENTO", "bairro_norm": "sao bento", "faction": "N/A" }, "geometry": { "type": "Point", "coordinates": [ -38.482287184326132, -3.856408398617356 ] } },
{ "type": "Feature", "properties": { "bairro": "SÃO GERARDO", "bairro_norm": "sao gerardo", "faction": "N/A" }, "geometry": { "type": "Point", "coordinates": [ -38.557517621963434, -3.730291111548476 ] } },
{ "type": "Feature", "properties": { "bairro": "SÃO JOÃO DO TAUAPE", "bairro_norm": "sao joao do tauape", "faction": "N/A" }, "geometry": { "type": "Point", "coordinates": [ -38.507933878828112, -3.756440384436651 ] } },
{ "type": "Feature", "properties": { "bairro": "VARJOTA", "bairro_norm": "varjota", "faction": "N/A" }, "geometry": { "type": "Point", "coordinates": [ -38.486260623868397, -3.733640607359481 ] } },
{ "type": "Feature", "properties": { "bairro": "VICENTE PINZÓN", "bairro_norm": "vicente pinzon", "faction": "N/A" }, "geometry": { "type": "Point", "coordinates": [ -38.469740012144264, -3.72814958046123 ] } },
{ "type": "Feature", "properties": { "bairro": "ELLERY", "bairro_norm": "ellery", "faction": "N/A" }, "geometry": { "type": "Point", "coordinates": [ -38.563344381343903, -3.723352177807293 ] } },
{ "type": "Feature", "properties": { "bairro": "VILA PERI", "bairro_norm": "vila peri", "faction": "TERCEIRO COMANDO PURO" }, "geometry": { "type": "Point", "coordinates": [ -38.580889574701892, -3.788373186863494 ] } },
{ "type": "Feature", "properties": { "bairro": "VILA UNIĂO", "bairro_norm": "vila uniao", "faction": "COMANDO VERMELHO" }, "geometry": { "type": "Point", "coordinates": [ -38.53582273829214, -3.767064651871691 ] } },
{ "type": "Feature", "properties": { "bairro": "VILA VELHA", "bairro_norm": "vila velha", "faction": "N/A" }, "geometry": { "type": "Point", "coordinates": [ -38.604459061859295, -3.712468854788589 ] } },
{ "type": "Feature", "properties": { "bairro": "ÁLVARO WEYNE", "bairro_norm": "alvaro weyne", "faction": "N/A" }, "geometry": { "type": "Point", "coordinates": [ -38.566629222972203, -3.715899106449565 ] } },
{ "type": "Feature", "properties": { "bairro": "GUADALAJARA", "bairro_norm": "guadalajara", "faction": "N/A" }, "geometry": { "type": "Point", "coordinates": [ -38.619461549733998, -3.763637799405494 ] } },
{ "type": "Feature", "properties": { "bairro": "IPARANA", "bairro_norm": "iparana", "faction": "TERCEIRO COMANDO PURO" }, "geometry": { "type": "Point", "coordinates": [ -38.623710941019965, -3.694859708169593 ] } },
{ "type": "Feature", "properties": { "bairro": "MARECHAL RONDON", "bairro_norm": "marechal rondon", "faction": "N/A" }, "geometry": { "type": "Point", "coordinates": [ -38.623927675769366, -3.774087865428146 ] } },
{ "type": "Feature", "properties": { "bairro": "PARQUE ALBANO", "bairro_norm": "parque albano", "faction": "COMANDO VERMELHO" }, "geometry": { "type": "Point", "coordinates": [ -38.612654582868025, -3.75143564386343 ] } },
{ "type": "Feature", "properties": { "bairro": "PARQUE DAS NAÇÕES", "bairro_norm": "parque das nacoes", "faction": "COMANDO VERMELHO" }, "geometry": { "type": "Point", "coordinates": [ -38.607058719762414, -3.746838428903922 ] } },
{ "type": "Feature", "properties": { "bairro": "PARQUE LEBLON", "bairro_norm": "parque leblon", "faction": "TERCEIRO COMANDO PURO" }, "geometry": { "type": "Point", "coordinates": [ -38.604310168678786, -3.697831468631011 ] } },
{ "type": "Feature", "properties": { "bairro": "PARQUE SOLEDADE", "bairro_norm": "parque soledade", "faction": "MASSA" }, "geometry": { "type": "Point", "coordinates": [ -38.635845075429685, -3.726600230311826 ] } },
{ "type": "Feature", "properties": { "bairro": "SÃO MIGUEL", "bairro_norm": "sao miguel", "faction": "PRIMEIRO COMANDO DA CAPITAL" }, "geometry": { "type": "Point", "coordinates": [ -38.602434528725951, -3.745207922712021 ] } },
{ "type": "Feature", "properties": { "bairro": "TABAPUÁ", "bairro_norm": "tabapua", "faction": "COMANDO VERMELHO" }, "geometry": { "type": "Point", "coordinates": [ -38.612657093284, -3.731210975534884 ] } },
{ "type": "Feature", "properties": { "bairro": "URUCUTUBA", "bairro_norm": "urucutuba", "faction": "COMANDO VERMELHO" }, "geometry": { "type": "Point", "coordinates": [ -38.64103434900192, -3.787547942420336 ] } },
{ "type": "Feature", "properties": { "bairro": "COCÓ", "bairro_norm": "coco", "faction": "N/A" }, "geometry": { "type": "Point", "coordinates": [ -38.480120736387846, -3.74938514709874 ] } },
{ "type": "Feature", "properties": { "bairro": "SANTA CLARA", "bairro_norm": "santa clara", "faction": "N/A" }, "geometry": { "type": "Point", "coordinates": [ -38.479745389692489, -3.864896711292736 ] } },
{ "type": "Feature", "properties": { "bairro": "PRECABURA", "bairro_norm": "precabura", "faction": "COMANDO VERMELHO" }, "geometry": { "type": "Point", "coordinates": [ -38.438667912958699, -3.820835066163543 ] } },
{ "type": "Feature", "properties": { "bairro": "CARARU", "bairro_norm": "cararu", "faction": "N/A" }, "geometry": { "type": "Point", "coordinates": [ -38.424781535316285, -3.822971810269248 ] } },
{ "type": "Feature", "properties": { "bairro": "ARACAPÉ", "bairro_norm": "aracape", "faction": "N/A" }, "geometry": { "type": "Point", "coordinates": [ -38.587245124844699, -3.830416637948312 ] } },
{ "type": "Feature", "properties": { "bairro": "SIQUEIRA", "bairro_norm": "siqueira", "faction": "TERCEIRO COMANDO PURO" }, "geometry": { "type": "Point", "coordinates": [ -38.61991321611341, -3.805248900528039 ] } },
{ "type": "Feature", "properties": { "bairro": "DIF III", "bairro_norm": "dif iii", "faction": "N/A" }, "geometry": { "type": "Point", "coordinates": [ -38.554272756706702, -3.851710573233042 ] } },
{ "type": "Feature", "properties": { "bairro": "CIDADE NOVA", "bairro_norm": "cidade nova", "faction": "TERCEIRO COMANDO PURO" }, "geometry": { "type": "Point", "coordinates": [ -38.574881405011446, -3.844036363434665 ] } },
{ "type": "Feature", "properties": { "bairro": "INDUSTRIAL", "bairro_norm": "industrial", "faction": "N/A" }, "geometry": { "type": "Point", "coordinates": [ -38.592224220988641, -3.839115708027186 ] } },
{ "type": "Feature", "properties": { "bairro": "ALTO ALEGRE II", "bairro_norm": "alto alegre ii", "faction": "TERCEIRO COMANDO PURO" }, "geometry": { "type": "Point", "coordinates": [ -38.607284070373673, -3.832059146628857 ] } },
{ "type": "Feature", "properties": { "bairro": "AQUIRAZ", "bairro_norm": "aquiraz", "faction": "N/A" }, "geometry": { "type": "Point", "coordinates": [ -38.394135076703861, -3.97591026010919 ] } },
{ "type": "Feature", "properties": { "bairro": "CASCAVEL", "bairro_norm": "cascavel", "faction": "N/A" }, "geometry": { "type": "Point", "coordinates": [ -38.297183186556552, -4.238541675617249 ] } },
{ "type": "Feature", "properties": { "bairro": "CAUCAIA", "bairro_norm": "caucaia", "faction": "COMANDO VERMELHO" }, "geometry": { "type": "Point", "coordinates": [ -38.810827888789689, -3.782541616020207 ] } },
{ "type": "Feature", "properties": { "bairro": "CHOROZINHO", "bairro_norm": "chorozinho", "faction": "N/A" }, "geometry": { "type": "Point", "coordinates": [ -38.470429099307033, -4.306063343232536 ] } },
{ "type": "Feature", "properties": { "bairro": "EUSÉBIO", "bairro_norm": "eusebio", "faction": "N/A" }, "geometry": { "type": "Point", "coordinates": [ -38.458912759150614, -3.877223948556469 ] } },
{ "type": "Feature", "properties": { "bairro": "GUAIÚBA", "bairro_norm": "guaiuba", "faction": "N/A" }, "geometry": { "type": "Point", "coordinates": [ -38.66707617181779, -4.10286143674053 ] } },
{ "type": "Feature", "properties": { "bairro": "HORIZONTE", "bairro_norm": "horizonte", "faction": "N/A" }, "geometry": { "type": "Point", "coordinates": [ -38.4656976644062, -4.101961199105514 ] } },
{ "type": "Feature", "properties": { "bairro": "ITAITINGA", "bairro_norm": "itaitinga", "faction": "N/A" }, "geometry": { "type": "Point", "coordinates": [ -38.549804615590126, -3.999105553348405 ] } },
{ "type": "Feature", "properties": { "bairro": "MARACANAÚ", "bairro_norm": "maracanau", "faction": "N/A" }, "geometry": { "type": "Point", "coordinates": [ -38.627261325420648, -3.873823329322946 ] } },
{ "type": "Feature", "properties": { "bairro": "MARANGUAPE", "bairro_norm": "maranguape", "faction": "N/A" }, "geometry": { "type": "Point", "coordinates": [ -38.810076816729641, -4.00670541225773 ] } },
{ "type": "Feature", "properties": { "bairro": "PACAJUS", "bairro_norm": "pacajus", "faction": "N/A" }, "geometry": { "type": "Point", "coordinates": [ -38.496538545632475, -4.183760055434554 ] } },
{ "type": "Feature", "properties": { "bairro": "PACATUBA", "bairro_norm": "pacatuba", "faction": "N/A" }, "geometry": { "type": "Point", "coordinates": [ -38.596218613210276, -3.953535141333741 ] } },
{ "type": "Feature", "properties": { "bairro": "PARACURU", "bairro_norm": "paracuru", "faction": "N/A" }, "geometry": { "type": "Point", "coordinates": [ -39.03893423146247, -3.479437223211855 ] } },
{ "type": "Feature", "properties": { "bairro": "PARAIPABA", "bairro_norm": "paraipaba", "faction": "N/A" }, "geometry": { "type": "Point", "coordinates": [ -39.176258641895231, -3.422465807264675 ] } },
{ "type": "Feature", "properties": { "bairro": "PINDORETAMA", "bairro_norm": "pindoretama", "faction": "N/A" }, "geometry": { "type": "Point", "coordinates": [ -38.304326479558483, -4.055339983481708 ] } },
{ "type": "Feature", "properties": { "bairro": "SÃO GONÇALO DO AMARANTE", "bairro_norm": "sao goncalo do amarante", "faction": "N/A" }, "geometry": { "type": "Point", "coordinates": [ -39.05988766405121, -3.600072504893411 ] } },
{ "type": "Feature", "properties": { "bairro": "SÃO LUÍS DO CURU", "bairro_norm": "sao luis do curu", "faction": "N/A" }, "geometry": { "type": "Point", "coordinates": [ -39.263825746123857, -3.646165244328563 ] } },
{ "type": "Feature", "properties": { "bairro": "TRAIRI", "bairro_norm": "trairi", "faction": "N/A" }, "geometry": { "type": "Point", "coordinates": [ -39.3530335333813, -3.33769723596966 ] } },
{ "type": "Feature", "properties": { "bairro": "ABAIARA", "bairro_norm": "abaiara", "faction": "N/A" }, "geometry": { "type": "Point", "coordinates": [ -39.036089549391228, -7.360807285683636 ] } },
{ "type": "Feature", "properties": { "bairro": "ACARAPE", "bairro_norm": "acarape", "faction": "PRIMEIRO COMANDO DA CAPITAL" }, "geometry": { "type": "Point", "coordinates": [ -38.661699914934118, -4.215598811176718 ] } },
{ "type": "Feature", "properties": { "bairro": "ACARAÚ", "bairro_norm": "acarau", "faction": "N/A" }, "geometry": { "type": "Point", "coordinates": [ -40.086776913831955, -2.96859187297909 ] } },
{ "type": "Feature", "properties": { "bairro": "ACOPIARA", "bairro_norm": "acopiara", "faction": "N/A" }, "geometry": { "type": "Point", "coordinates": [ -39.49523921585444, -6.122709196518176 ] } },
{ "type": "Feature", "properties": { "bairro": "AIUABA", "bairro_norm": "aiuaba", "faction": "N/A" }, "geometry": { "type": "Point", "coordinates": [ -40.297712600369962, -6.604534857297311 ] } },
{ "type": "Feature", "properties": { "bairro": "ALCÂNTARAS", "bairro_norm": "alcantaras", "faction": "N/A" }, "geometry": { "type": "Point", "coordinates": [ -40.545970859244015, -3.595059302023691 ] } },
{ "type": "Feature", "properties": { "bairro": "ALTANEIRA", "bairro_norm": "altaneira", "faction": "N/A" }, "geometry": { "type": "Point", "coordinates": [ -39.692833794748161, -6.985041334731969 ] } },
{ "type": "Feature", "properties": { "bairro": "ALTO SANTO", "bairro_norm": "alto santo", "faction": "N/A" }, "geometry": { "type": "Point", "coordinates": [ -38.240996473767012, -5.51648378176741 ] } },
{ "type": "Feature", "properties": { "bairro": "AMONTADA", "bairro_norm": "amontada", "faction": "N/A" }, "geometry": { "type": "Point", "coordinates": [ -39.784957005103735, -3.238749497733531 ] } },
{ "type": "Feature", "properties": { "bairro": "ANTONINA DO NORTE", "bairro_norm": "antonina do norte", "faction": "COMANDO VERMELHO" }, "geometry": { "type": "Point", "coordinates": [ -39.984052782407424, -6.757761955168619 ] } },
{ "type": "Feature", "properties": { "bairro": "APUIARÉS", "bairro_norm": "apuiares", "faction": "COMANDO VERMELHO" }, "geometry": { "type": "Point", "coordinates": [ -39.330485739356106, -3.969383080444639 ] } },
{ "type": "Feature", "properties": { "bairro": "ARACATI", "bairro_norm": "aracati", "faction": "N/A" }, "geometry": { "type": "Point", "coordinates": [ -37.686437211973477, -4.680130678814023 ] } },
{ "type": "Feature", "properties": { "bairro": "ARACOIABA", "bairro_norm": "aracoiaba", "faction": "N/A" }, "geometry": { "type": "Point", "coordinates": [ -38.715060735456461, -4.483232561195584 ] } },
{ "type": "Feature", "properties": { "bairro": "ARARENDÁ", "bairro_norm": "ararenda", "faction": "COMANDO VERMELHO" }, "geometry": { "type": "Point", "coordinates": [ -40.747071250905023, -4.773622534754959 ] } },
{ "type": "Feature", "properties": { "bairro": "ARARIPE", "bairro_norm": "araripe", "faction": "PRIMEIRO COMANDO DA CAPITAL" }, "geometry": { "type": "Point", "coordinates": [ -40.076467896807323, -7.23883769767249 ] } },
{ "type": "Feature", "properties": { "bairro": "ARATUBA", "bairro_norm": "aratuba", "faction": "N/A" }, "geometry": { "type": "Point", "coordinates": [ -39.024824781163943, -4.413518232126863 ] } },
{ "type": "Feature", "properties": { "bairro": "ARNEIROZ", "bairro_norm": "arneiroz", "faction": "PRIMEIRO COMANDO DA CAPITAL" }, "geometry": { "type": "Point", "coordinates": [ -40.152131073016896, -6.237940138922183 ] } },
{ "type": "Feature", "properties": { "bairro": "ASSARÉ", "bairro_norm": "assare", "faction": "N/A" }, "geometry": { "type": "Point", "coordinates": [ -39.869566799194153, -6.910103150642295 ] } },
{ "type": "Feature", "properties": { "bairro": "AURORA", "bairro_norm": "aurora", "faction": "N/A" }, "geometry": { "type": "Point", "coordinates": [ -38.967569310623212, -6.988297390634101 ] } },
{ "type": "Feature", "properties": { "bairro": "BAIXIO", "bairro_norm": "baixio", "faction": "OKAIDA" }, "geometry": { "type": "Point", "coordinates": [ -38.749152575458261, -6.712724491744442 ] } },
{ "type": "Feature", "properties": { "bairro": "BANABUIÚ", "bairro_norm": "banabuiu", "faction": "N/A" }, "geometry": { "type": "Point", "coordinates": [ -38.903133160131134, -5.262868731319927 ] } },
{ "type": "Feature", "properties": { "bairro": "BARBALHA", "bairro_norm": "barbalha", "faction": "N/A" }, "geometry": { "type": "Point", "coordinates": [ -39.346517666479926, -7.407020118032987 ] } },
{ "type": "Feature", "properties": { "bairro": "BARREIRA", "bairro_norm": "barreira", "faction": "COMANDO VERMELHO" }, "geometry": { "type": "Point", "coordinates": [ -38.619919329523036, -4.320313939318863 ] } },
{ "type": "Feature", "properties": { "bairro": "BARRO", "bairro_norm": "barro", "faction": "N/A" }, "geometry": { "type": "Point", "coordinates": [ -38.794956074075223, -7.124620017302106 ] } },
{ "type": "Feature", "properties": { "bairro": "BARROQUINHA", "bairro_norm": "barroquinha", "faction": "N/A" }, "geometry": { "type": "Point", "coordinates": [ -41.17322325396303, -2.96980230862264 ] } },
{ "type": "Feature", "properties": { "bairro": "BATURITÉ", "bairro_norm": "baturite", "faction": "N/A" }, "geometry": { "type": "Point", "coordinates": [ -38.851241811044723, -4.387054367177662 ] } },
{ "type": "Feature", "properties": { "bairro": "BEBERIBE", "bairro_norm": "beberibe", "faction": "N/A" }, "geometry": { "type": "Point", "coordinates": [ -38.113525850099975, -4.40264624273588 ] } },
{ "type": "Feature", "properties": { "bairro": "BELA CRUZ", "bairro_norm": "bela cruz", "faction": "N/A" }, "geometry": { "type": "Point", "coordinates": [ -40.307995838960977, -3.053528386712363 ] } },
{ "type": "Feature", "properties": { "bairro": "BOA VIAGEM", "bairro_norm": "boa viagem", "faction": "N/A" }, "geometry": { "type": "Point", "coordinates": [ -39.808467167415735, -5.086454617362471 ] } },
{ "type": "Feature", "properties": { "bairro": "BREJO SANTO", "bairro_norm": "brejo santo", "faction": "N/A" }, "geometry": { "type": "Point", "coordinates": [ -38.921223446774476, -7.553990514382683 ] } },
{ "type": "Feature", "properties": { "bairro": "CAMOCIM", "bairro_norm": "camocim", "faction": "N/A" }, "geometry": { "type": "Point", "coordinates": [ -40.79924142537309, -2.949507686251735 ] } },
{ "type": "Feature", "properties": { "bairro": "CAMPOS SALES", "bairro_norm": "campos sales", "faction": "N/A" }, "geometry": { "type": "Point", "coordinates": [ -40.272020999700167, -6.935787329326308 ] } },
{ "type": "Feature", "properties": { "bairro": "CANINDÉ", "bairro_norm": "caninde", "faction": "N/A" }, "geometry": { "type": "Point", "coordinates": [ -39.430287664287455, -4.402828146639713 ] } },
{ "type": "Feature", "properties": { "bairro": "CAPISTRANO", "bairro_norm": "capistrano", "faction": "N/A" }, "geometry": { "type": "Point", "coordinates": [ -38.905985642552913, -4.470778859795148 ] } },
{ "type": "Feature", "properties": { "bairro": "CARIDADE", "bairro_norm": "caridade", "faction": "N/A" }, "geometry": { "type": "Point", "coordinates": [ -39.108757323689296, -4.203610394117879 ] } },
{ "type": "Feature", "properties": { "bairro": "CARIRÉ", "bairro_norm": "carire", "faction": "N/A" }, "geometry": { "type": "Point", "coordinates": [ -40.523854656138731, -3.951552741541972 ] } },
{ "type": "Feature", "properties": { "bairro": "CARIRIAÇU", "bairro_norm": "caririacu", "faction": "N/A" }, "geometry": { "type": "Point", "coordinates": [ -39.274677381573305, -7.02090211690841 ] } },
{ "type": "Feature", "properties": { "bairro": "CARIÚS", "bairro_norm": "carius", "faction": "N/A" }, "geometry": { "type": "Point", "coordinates": [ -39.462843227759777, -6.644417739957876 ] } },
{ "type": "Feature", "properties": { "bairro": "CARNAUBAL", "bairro_norm": "carnaubal", "faction": "N/A" }, "geometry": { "type": "Point", "coordinates": [ -41.011673488736683, -4.130170918518387 ] } },
{ "type": "Feature", "properties": { "bairro": "CATARINA", "bairro_norm": "catarina", "faction": "N/A" }, "geometry": { "type": "Point", "coordinates": [ -39.908264161401476, -6.255473029245693 ] } },
{ "type": "Feature", "properties": { "bairro": "CATUNDA", "bairro_norm": "catunda", "faction": "N/A" }, "geometry": { "type": "Point", "coordinates": [ -40.175308658799885, -4.629882568665558 ] } },
{ "type": "Feature", "properties": { "bairro": "CEDRO", "bairro_norm": "cedro", "faction": "N/A" }, "geometry": { "type": "Point", "coordinates": [ -39.094321451613908, -6.569473212824987 ] } },
{ "type": "Feature", "properties": { "bairro": "CHAVAL", "bairro_norm": "chaval", "faction": "PRIMEIRO COMANDO DA CAPITAL" }, "geometry": { "type": "Point", "coordinates": [ -41.230903794839392, -3.091419453647094 ] } },
{ "type": "Feature", "properties": { "bairro": "CHORÓ", "bairro_norm": "choro", "faction": "N/A" }, "geometry": { "type": "Point", "coordinates": [ -39.190821489956932, -4.773353367123089 ] } },
{ "type": "Feature", "properties": { "bairro": "COREAÚ", "bairro_norm": "coreau", "faction": "N/A" }, "geometry": { "type": "Point", "coordinates": [ -40.726138216851936, -3.642582046418276 ] } },
{ "type": "Feature", "properties": { "bairro": "CRATEÚS", "bairro_norm": "crateus", "faction": "N/A" }, "geometry": { "type": "Point", "coordinates": [ -40.718272264754631, -5.199802485666614 ] } },
{ "type": "Feature", "properties": { "bairro": "CRATO", "bairro_norm": "crato", "faction": "N/A" }, "geometry": { "type": "Point", "coordinates": [ -39.489605078331422, -7.232310559831185 ] } },
{ "type": "Feature", "properties": { "bairro": "CROATÁ", "bairro_norm": "croata", "faction": "COMANDO VERMELHO" }, "geometry": { "type": "Point", "coordinates": [ -40.975863736252023, -4.38822255908544 ] } },
{ "type": "Feature", "properties": { "bairro": "CRUZ", "bairro_norm": "cruz", "faction": "N/A" }, "geometry": { "type": "Point", "coordinates": [ -40.325580451260009, -2.895653881197855 ] } },
{ "type": "Feature", "properties": { "bairro": "DEPUTADO IRAPUAN PINHEIRO", "bairro_norm": "deputado irapuan pinheiro", "faction": "N/A" }, "geometry": { "type": "Point", "coordinates": [ -39.266578977721544, -5.884753121764496 ] } },
{ "type": "Feature", "properties": { "bairro": "ERERÉ", "bairro_norm": "erere", "faction": "PRIMEIRO COMANDO DA CAPITAL" }, "geometry": { "type": "Point", "coordinates": [ -38.312518753250771, -5.986516599167585 ] } },
{ "type": "Feature", "properties": { "bairro": "FORQUILHA", "bairro_norm": "forquilha", "faction": "COMANDO VERMELHO" }, "geometry": { "type": "Point", "coordinates": [ -40.225185427816101, -3.822975923877013 ] } },
{ "type": "Feature", "properties": { "bairro": "FORTIM", "bairro_norm": "fortim", "faction": "N/A" }, "geometry": { "type": "Point", "coordinates": [ -37.871216537534444, -4.462468352390803 ] } },
{ "type": "Feature", "properties": { "bairro": "FRECHEIRINHA", "bairro_norm": "frecheirinha", "faction": "N/A" }, "geometry": { "type": "Point", "coordinates": [ -40.821502184084913, -3.711740200413465 ] } },
{ "type": "Feature", "properties": { "bairro": "GENERAL SAMPAIO", "bairro_norm": "general sampaio", "faction": "PRIMEIRO COMANDO DA CAPITAL" }, "geometry": { "type": "Point", "coordinates": [ -39.447759801233161, -4.0629344089978 ] } },
{ "type": "Feature", "properties": { "bairro": "GRAÇA", "bairro_norm": "graca", "faction": "N/A" }, "geometry": { "type": "Point", "coordinates": [ -40.773590624203528, -4.045623789667982 ] } },
{ "type": "Feature", "properties": { "bairro": "GRANJA", "bairro_norm": "granja", "faction": "COMANDO VERMELHO" }, "geometry": { "type": "Point", "coordinates": [ -41.002134717275766, -3.2310936815691 ] } },
{ "type": "Feature", "properties": { "bairro": "GRANJEIRO", "bairro_norm": "granjeiro", "faction": "COMANDO VERMELHO" }, "geometry": { "type": "Point", "coordinates": [ -39.247584328810603, -6.908701978620488 ] } },
{ "type": "Feature", "properties": { "bairro": "GROAÍRAS", "bairro_norm": "groairas", "faction": "N/A" }, "geometry": { "type": "Point", "coordinates": [ -40.364527204077909, -3.912011646002415 ] } },
{ "type": "Feature", "properties": { "bairro": "GUARACIABA DO NORTE", "bairro_norm": "guaraciaba do norte", "faction": "N/A" }, "geometry": { "type": "Point", "coordinates": [ -40.915841499493375, -4.233355975957801 ] } },
{ "type": "Feature", "properties": { "bairro": "GUARAMIRANGA", "bairro_norm": "guaramiranga", "faction": "N/A" }, "geometry": { "type": "Point", "coordinates": [ -38.953171148794311, -4.252153743458246 ] } },
{ "type": "Feature", "properties": { "bairro": "HIDROLÂNDIA", "bairro_norm": "hidrolandia", "faction": "N/A" }, "geometry": { "type": "Point", "coordinates": [ -40.406588246553085, -4.432667852906051 ] } },
{ "type": "Feature", "properties": { "bairro": "IBARETAMA", "bairro_norm": "ibaretama", "faction": "TERCEIRO COMANDO PURO" }, "geometry": { "type": "Point", "coordinates": [ -38.722798222348388, -4.779391308343322 ] } },
{ "type": "Feature", "properties": { "bairro": "IBIAPINA", "bairro_norm": "ibiapina", "faction": "N/A" }, "geometry": { "type": "Point", "coordinates": [ -41.000196751790426, -3.949778532614584 ] } },
{ "type": "Feature", "properties": { "bairro": "IBICUITINGA", "bairro_norm": "ibicuitinga", "faction": "COMANDO VERMELHO" }, "geometry": { "type": "Point", "coordinates": [ -38.559134721173535, -4.975060658254638 ] } },
{ "type": "Feature", "properties": { "bairro": "ICAPUÍ", "bairro_norm": "icapui", "faction": "COMANDO VERMELHO" }, "geometry": { "type": "Point", "coordinates": [ -37.412397655190262, -4.739059935958964 ] } },
{ "type": "Feature", "properties": { "bairro": "ICÓ", "bairro_norm": "ico", "faction": "N/A" }, "geometry": { "type": "Point", "coordinates": [ -38.782039238058921, -6.388020210935979 ] } },
{ "type": "Feature", "properties": { "bairro": "IGUATU", "bairro_norm": "iguatu", "faction": "N/A" }, "geometry": { "type": "Point", "coordinates": [ -39.282977643452988, -6.358773305009183 ] } },
{ "type": "Feature", "properties": { "bairro": "INDEPENDÊNCIA", "bairro_norm": "independencia", "faction": "N/A" }, "geometry": { "type": "Point", "coordinates": [ -40.342243682107757, -5.474954546425391 ] } },
{ "type": "Feature", "properties": { "bairro": "IPAPORANGA", "bairro_norm": "ipaporanga", "faction": "N/A" }, "geometry": { "type": "Point", "coordinates": [ -40.803502391778629, -4.909657562116922 ] } },
{ "type": "Feature", "properties": { "bairro": "IPAUMIRIM", "bairro_norm": "ipaumirim", "faction": "OKAIDA" }, "geometry": { "type": "Point", "coordinates": [ -38.742916464644686, -6.806670037848985 ] } },
{ "type": "Feature", "properties": { "bairro": "IPU", "bairro_norm": "ipu", "faction": "COMANDO VERMELHO" }, "geometry": { "type": "Point", "coordinates": [ -40.670809067961756, -4.368319783142412 ] } },
{ "type": "Feature", "properties": { "bairro": "IPUEIRAS", "bairro_norm": "ipueiras", "faction": "N/A" }, "geometry": { "type": "Point", "coordinates": [ -40.87782447382402, -4.57361911575494 ] } },
{ "type": "Feature", "properties": { "bairro": "IRACEMA", "bairro_norm": "iracema", "faction": "N/A" }, "geometry": { "type": "Point", "coordinates": [ -38.336014165156996, -5.777906582015856 ] } },
{ "type": "Feature", "properties": { "bairro": "IRAUÇUBA", "bairro_norm": "iraucuba", "faction": "COMANDO VERMELHO" }, "geometry": { "type": "Point", "coordinates": [ -39.817332161301941, -3.867073467433035 ] } },
{ "type": "Feature", "properties": { "bairro": "ITAIÇABA", "bairro_norm": "itaicaba", "faction": "N/A" }, "geometry": { "type": "Point", "coordinates": [ -37.849007138724467, -4.719203372639852 ] } },
{ "type": "Feature", "properties": { "bairro": "ITAPAJÉ", "bairro_norm": "itapaje", "faction": "N/A" }, "geometry": { "type": "Point", "coordinates": [ -39.575103834869545, -3.733637765174119 ] } },
{ "type": "Feature", "properties": { "bairro": "ITAPIPOCA", "bairro_norm": "itapipoca", "faction": "N/A" }, "geometry": { "type": "Point", "coordinates": [ -39.597583781366225, -3.394598555329793 ] } },
{ "type": "Feature", "properties": { "bairro": "ITAPIÚNA", "bairro_norm": "itapiuna", "faction": "N/A" }, "geometry": { "type": "Point", "coordinates": [ -38.952595203407249, -4.594167799712366 ] } },
{ "type": "Feature", "properties": { "bairro": "ITAREMA", "bairro_norm": "itarema", "faction": "TERCEIRO COMANDO PURO" }, "geometry": { "type": "Point", "coordinates": [ -39.889879331985206, -3.049937504002312 ] } },
{ "type": "Feature", "properties": { "bairro": "ITATIRA", "bairro_norm": "itatira", "faction": "N/A" }, "geometry": { "type": "Point", "coordinates": [ -39.578320211558832, -4.626432493157766 ] } },
{ "type": "Feature", "properties": { "bairro": "JAGUARETAMA", "bairro_norm": "jaguaretama", "faction": "TERCEIRO COMANDO PURO" }, "geometry": { "type": "Point", "coordinates": [ -38.746955349795662, -5.491912071175274 ] } },
{ "type": "Feature", "properties": { "bairro": "JAGUARIBARA", "bairro_norm": "jaguaribara", "faction": "COMANDO VERMELHO" }, "geometry": { "type": "Point", "coordinates": [ -38.524513976745098, -5.61249733060164 ] } },
{ "type": "Feature", "properties": { "bairro": "JAGUARIBE", "bairro_norm": "jaguaribe", "faction": "N/A" }, "geometry": { "type": "Point", "coordinates": [ -38.707631108259655, -5.961255625383665 ] } },
{ "type": "Feature", "properties": { "bairro": "JAGUARUANA", "bairro_norm": "jaguaruana", "faction": "N/A" }, "geometry": { "type": "Point", "coordinates": [ -37.746118832801024, -4.866612790608452 ] } },
{ "type": "Feature", "properties": { "bairro": "JARDIM", "bairro_norm": "jardim", "faction": "N/A" }, "geometry": { "type": "Point", "coordinates": [ -39.248243170518776, -7.590268137390166 ] } },
{ "type": "Feature", "properties": { "bairro": "JATI", "bairro_norm": "jati", "faction": "N/A" }, "geometry": { "type": "Point", "coordinates": [ -38.992116145443759, -7.692401227803719 ] } },
{ "type": "Feature", "properties": { "bairro": "JIJOCA DE JERICOACOARA", "bairro_norm": "jijoca de jericoacoara", "faction": "N/A" }, "geometry": { "type": "Point", "coordinates": [ -40.494915148040818, -2.878568624840626 ] } },
{ "type": "Feature", "properties": { "bairro": "JUAZEIRO DO NORTE", "bairro_norm": "juazeiro do norte", "faction": "N/A" }, "geometry": { "type": "Point", "coordinates": [ -39.286354127491684, -7.185040064867565 ] } },
{ "type": "Feature", "properties": { "bairro": "JUCÁS", "bairro_norm": "jucas", "faction": "N/A" }, "geometry": { "type": "Point", "coordinates": [ -39.606668315750163, -6.459954950131765 ] } },
{ "type": "Feature", "properties": { "bairro": "LAVRAS DA MANGABEIRA", "bairro_norm": "lavras da mangabeira", "faction": "PRIMEIRO COMANDO DA CAPITAL" }, "geometry": { "type": "Point", "coordinates": [ -38.994681510155999, -6.777534288985974 ] } },
{ "type": "Feature", "properties": { "bairro": "LIMOEIRO DO NORTE", "bairro_norm": "limoeiro do norte", "faction": "N/A" }, "geometry": { "type": "Point", "coordinates": [ -38.047703060436525, -5.157620356573156 ] } },
{ "type": "Feature", "properties": { "bairro": "MADALENA", "bairro_norm": "madalena", "faction": "N/A" }, "geometry": { "type": "Point", "coordinates": [ -39.509254461762005, -4.857867042469296 ] } },
{ "type": "Feature", "properties": { "bairro": "MARCO", "bairro_norm": "marco", "faction": "N/A" }, "geometry": { "type": "Point", "coordinates": [ -40.263897522512892, -3.190779677378751 ] } },
{ "type": "Feature", "properties": { "bairro": "MARTINÓPOLE", "bairro_norm": "martinopole", "faction": "N/A" }, "geometry": { "type": "Point", "coordinates": [ -40.649362133796345, -3.169182674251834 ] } },
{ "type": "Feature", "properties": { "bairro": "MASSAPÊ", "bairro_norm": "massape", "faction": "N/A" }, "geometry": { "type": "Point", "coordinates": [ -40.390048740739701, -3.483018373029814 ] } },
{ "type": "Feature", "properties": { "bairro": "MAURITI", "bairro_norm": "mauriti", "faction": "N/A" }, "geometry": { "type": "Point", "coordinates": [ -38.718219041890912, -7.397167952959355 ] } },
{ "type": "Feature", "properties": { "bairro": "MERUOCA", "bairro_norm": "meruoca", "faction": "N/A" }, "geometry": { "type": "Point", "coordinates": [ -40.454443641719877, -3.577409452886812 ] } },
{ "type": "Feature", "properties": { "bairro": "MILAGRES", "bairro_norm": "milagres", "faction": "PRIMEIRO COMANDO DA CAPITAL" }, "geometry": { "type": "Point", "coordinates": [ -38.9431789011212, -7.272454892463707 ] } },
{ "type": "Feature", "properties": { "bairro": "MILHÃ", "bairro_norm": "milha", "faction": "PRIMEIRO COMANDO DA CAPITAL" }, "geometry": { "type": "Point", "coordinates": [ -39.168417634337253, -5.639083037835095 ] } },
{ "type": "Feature", "properties": { "bairro": "MIRAÍMA", "bairro_norm": "miraima", "faction": "MASSA" }, "geometry": { "type": "Point", "coordinates": [ -39.909585818877758, -3.55965935731462 ] } },
{ "type": "Feature", "properties": { "bairro": "MISSÃO VELHA", "bairro_norm": "missao velha", "faction": "N/A" }, "geometry": { "type": "Point", "coordinates": [ -39.153082533881175, -7.307179401711434 ] } },
{ "type": "Feature", "properties": { "bairro": "MOMBAÇA", "bairro_norm": "mombaca", "faction": "N/A" }, "geometry": { "type": "Point", "coordinates": [ -39.748689886749197, -5.787354079135665 ] } },
{ "type": "Feature", "properties": { "bairro": "MONSENHOR TABOSA", "bairro_norm": "monsenhor tabosa", "faction": "N/A" }, "geometry": { "type": "Point", "coordinates": [ -40.044317082451293, -4.914388907143237 ] } },
{ "type": "Feature", "properties": { "bairro": "MORADA NOVA", "bairro_norm": "morada nova", "faction": "N/A" }, "geometry": { "type": "Point", "coordinates": [ -38.432046631262224, -5.033595292636803 ] } },
{ "type": "Feature", "properties": { "bairro": "MORAÚJO", "bairro_norm": "moraujo", "faction": "N/A" }, "geometry": { "type": "Point", "coordinates": [ -40.683211998831318, -3.462473666296719 ] } },
{ "type": "Feature", "properties": { "bairro": "MORRINHOS", "bairro_norm": "morrinhos", "faction": "N/A" }, "geometry": { "type": "Point", "coordinates": [ -40.087282426854166, -3.284975606805971 ] } },
{ "type": "Feature", "properties": { "bairro": "MUCAMBO", "bairro_norm": "mucambo", "faction": "N/A" }, "geometry": { "type": "Point", "coordinates": [ -40.757388615141259, -3.899598809362601 ] } },
{ "type": "Feature", "properties": { "bairro": "MULUNGU", "bairro_norm": "mulungu", "faction": "N/A" }, "geometry": { "type": "Point", "coordinates": [ -38.993836073764243, -4.322641007212092 ] } },
{ "type": "Feature", "properties": { "bairro": "NOVA OLINDA", "bairro_norm": "nova olinda", "faction": "PRIMEIRO COMANDO DA CAPITAL" }, "geometry": { "type": "Point", "coordinates": [ -39.66555708604794, -7.094766094153975 ] } },
{ "type": "Feature", "properties": { "bairro": "NOVA RUSSAS", "bairro_norm": "nova russas", "faction": "N/A" }, "geometry": { "type": "Point", "coordinates": [ -40.529163198567673, -4.678720275321457 ] } },
{ "type": "Feature", "properties": { "bairro": "NOVO ORIENTE", "bairro_norm": "novo oriente", "faction": "COMANDO VERMELHO" }, "geometry": { "type": "Point", "coordinates": [ -40.772105429947281, -5.592387374534598 ] } },
{ "type": "Feature", "properties": { "bairro": "OCARA", "bairro_norm": "ocara", "faction": "N/A" }, "geometry": { "type": "Point", "coordinates": [ -38.508076729099741, -4.526125661150129 ] } },
{ "type": "Feature", "properties": { "bairro": "ORÓS", "bairro_norm": "oros", "faction": "N/A" }, "geometry": { "type": "Point", "coordinates": [ -38.945716963499009, -6.24470484159551 ] } },
{ "type": "Feature", "properties": { "bairro": "PACOTI", "bairro_norm": "pacoti", "faction": "COMANDO VERMELHO" }, "geometry": { "type": "Point", "coordinates": [ -38.902358503470282, -4.199060570495853 ] } },
{ "type": "Feature", "properties": { "bairro": "PACUJÁ", "bairro_norm": "pacuja", "faction": "N/A" }, "geometry": { "type": "Point", "coordinates": [ -40.689861815360722, -4.005582515900272 ] } },
{ "type": "Feature", "properties": { "bairro": "PALHANO", "bairro_norm": "palhano", "faction": "PRIMEIRO COMANDO DA CAPITAL" }, "geometry": { "type": "Point", "coordinates": [ -38.027456078301569, -4.70860165200569 ] } },
{ "type": "Feature", "properties": { "bairro": "PALMÁCIA", "bairro_norm": "palmacia", "faction": "N/A" }, "geometry": { "type": "Point", "coordinates": [ -38.839090332815672, -4.125449401896215 ] } },
{ "type": "Feature", "properties": { "bairro": "PARAMBU", "bairro_norm": "parambu", "faction": "N/A" }, "geometry": { "type": "Point", "coordinates": [ -40.628851656875355, -6.302422157107994 ] } },
{ "type": "Feature", "properties": { "bairro": "PARAMOTI", "bairro_norm": "paramoti", "faction": "N/A" }, "geometry": { "type": "Point", "coordinates": [ -39.376711119061589, -4.160042946196191 ] } },
{ "type": "Feature", "properties": { "bairro": "PEDRA BRANCA", "bairro_norm": "pedra branca", "faction": "TERCEIRO COMANDO PURO" }, "geometry": { "type": "Point", "coordinates": [ -39.847069189734455, -5.496571717808977 ] } },
{ "type": "Feature", "properties": { "bairro": "PENAFORTE", "bairro_norm": "penaforte", "faction": "N/A" }, "geometry": { "type": "Point", "coordinates": [ -39.053766841061424, -7.777688401133439 ] } },
{ "type": "Feature", "properties": { "bairro": "PENTECOSTE", "bairro_norm": "pentecoste", "faction": "N/A" }, "geometry": { "type": "Point", "coordinates": [ -39.146003027418324, -3.854579481472953 ] } },
{ "type": "Feature", "properties": { "bairro": "PEREIRO", "bairro_norm": "pereiro", "faction": "TERCEIRO COMANDO PURO" }, "geometry": { "type": "Point", "coordinates": [ -38.488248952233505, -6.036331309168252 ] } },
{ "type": "Feature", "properties": { "bairro": "PIQUET CARNEIRO", "bairro_norm": "piquet carneiro", "faction": "N/A" }, "geometry": { "type": "Point", "coordinates": [ -39.450336130112071, -5.862408712447245 ] } },
{ "type": "Feature", "properties": { "bairro": "PIRES FERREIRA", "bairro_norm": "pires ferreira", "faction": "COMANDO VERMELHO" }, "geometry": { "type": "Point", "coordinates": [ -40.585497003337828, -4.258559247683164 ] } },
{ "type": "Feature", "properties": { "bairro": "PORANGA", "bairro_norm": "poranga", "faction": "N/A" }, "geometry": { "type": "Point", "coordinates": [ -41.078708114532496, -4.799099451449903 ] } },
{ "type": "Feature", "properties": { "bairro": "PORTEIRAS", "bairro_norm": "porteiras", "faction": "PRIMEIRO COMANDO DA CAPITAL" }, "geometry": { "type": "Point", "coordinates": [ -39.106367626009607, -7.541679150010291 ] } },
{ "type": "Feature", "properties": { "bairro": "POTENGI", "bairro_norm": "potengi", "faction": "N/A" }, "geometry": { "type": "Point", "coordinates": [ -40.036014267283932, -7.073654594207077 ] } },
{ "type": "Feature", "properties": { "bairro": "POTIRETAMA", "bairro_norm": "potiretama", "faction": "TERCEIRO COMANDO PURO" }, "geometry": { "type": "Point", "coordinates": [ -38.16690961369828, -5.749533911807129 ] } },
{ "type": "Feature", "properties": { "bairro": "QUITERIANÓPOLIS", "bairro_norm": "quiterianopolis", "faction": "PRIMEIRO COMANDO DA CAPITAL" }, "geometry": { "type": "Point", "coordinates": [ -40.763143823033758, -5.872298498848794 ] } },
{ "type": "Feature", "properties": { "bairro": "QUIXADÁ", "bairro_norm": "quixada", "faction": "N/A" }, "geometry": { "type": "Point", "coordinates": [ -38.945632175464105, -4.955590540138564 ] } },
{ "type": "Feature", "properties": { "bairro": "QUIXELÔ", "bairro_norm": "quixelo", "faction": "N/A" }, "geometry": { "type": "Point", "coordinates": [ -39.118971882759112, -6.175389473740147 ] } },
{ "type": "Feature", "properties": { "bairro": "QUIXERAMOBIM", "bairro_norm": "quixeramobim", "faction": "N/A" }, "geometry": { "type": "Point", "coordinates": [ -39.333521206613696, -5.24493880451595 ] } },
{ "type": "Feature", "properties": { "bairro": "QUIXERÉ", "bairro_norm": "quixere", "faction": "N/A" }, "geometry": { "type": "Point", "coordinates": [ -37.86120808239091, -5.087920899980674 ] } },
{ "type": "Feature", "properties": { "bairro": "REDENÇÃO", "bairro_norm": "redencao", "faction": "N/A" }, "geometry": { "type": "Point", "coordinates": [ -38.762189627008169, -4.246100420554795 ] } },
{ "type": "Feature", "properties": { "bairro": "RERIUTABA", "bairro_norm": "reriutaba", "faction": "N/A" }, "geometry": { "type": "Point", "coordinates": [ -40.612924479949569, -4.119137087971781 ] } },
{ "type": "Feature", "properties": { "bairro": "RUSSAS", "bairro_norm": "russas", "faction": "N/A" }, "geometry": { "type": "Point", "coordinates": [ -38.147271588852547, -4.843355317964884 ] } },
{ "type": "Feature", "properties": { "bairro": "SABOEIRO", "bairro_norm": "saboeiro", "faction": "N/A" }, "geometry": { "type": "Point", "coordinates": [ -39.887402495171791, -6.486214430528983 ] } },
{ "type": "Feature", "properties": { "bairro": "SALITRE", "bairro_norm": "salitre", "faction": "COMANDO VERMELHO" }, "geometry": { "type": "Point", "coordinates": [ -40.365131522273522, -7.203422433251897 ] } },
{ "type": "Feature", "properties": { "bairro": "SANTANA DO ACARAÚ", "bairro_norm": "santana do acarau", "faction": "N/A" }, "geometry": { "type": "Point", "coordinates": [ -40.166035154527286, -3.462493730611969 ] } },
{ "type": "Feature", "properties": { "bairro": "SANTANA DO CARIRI", "bairro_norm": "santana do cariri", "faction": "N/A" }, "geometry": { "type": "Point", "coordinates": [ -39.757206239639942, -7.222369459101339 ] } },
{ "type": "Feature", "properties": { "bairro": "SANTA QUITÉRIA", "bairro_norm": "santa quiteria", "faction": "COMANDO VERMELHO" }, "geometry": { "type": "Point", "coordinates": [ -40.042909199119855, -4.340033847298105 ] } },
{ "type": "Feature", "properties": { "bairro": "SÃO BENEDITO", "bairro_norm": "sao benedito", "faction": "N/A" }, "geometry": { "type": "Point", "coordinates": [ -40.968912778180695, -4.04101282980768 ] } },
{ "type": "Feature", "properties": { "bairro": "SÃO JOÃO DO JAGUARIBE", "bairro_norm": "sao joao do jaguaribe", "faction": "TERCEIRO COMANDO PURO" }, "geometry": { "type": "Point", "coordinates": [ -38.272001380180512, -5.326378039274469 ] } },
{ "type": "Feature", "properties": { "bairro": "SENADOR POMPEU", "bairro_norm": "senador pompeu", "faction": "N/A" }, "geometry": { "type": "Point", "coordinates": [ -39.433306251255765, -5.588118773401293 ] } },
{ "type": "Feature", "properties": { "bairro": "SENADOR SÁ", "bairro_norm": "senador sa", "faction": "N/A" }, "geometry": { "type": "Point", "coordinates": [ -40.461400409814857, -3.268322378383514 ] } },
{ "type": "Feature", "properties": { "bairro": "SOBRAL", "bairro_norm": "sobral", "faction": "N/A" }, "geometry": { "type": "Point", "coordinates": [ -40.227884511243623, -3.81167927012371 ] } },
{ "type": "Feature", "properties": { "bairro": "SOLONÓPOLE", "bairro_norm": "solonopole", "faction": "N/A" }, "geometry": { "type": "Point", "coordinates": [ -39.003354076829396, -5.776862786845003 ] } },
{ "type": "Feature", "properties": { "bairro": "TABULEIRO DO NORTE", "bairro_norm": "tabuleiro do norte", "faction": "N/A" }, "geometry": { "type": "Point", "coordinates": [ -38.026403097544581, -5.362243474399951 ] } },
{ "type": "Feature", "properties": { "bairro": "TAMBORIL", "bairro_norm": "tamboril", "faction": "COMANDO VERMELHO" }, "geometry": { "type": "Point", "coordinates": [ -40.336067865242292, -4.919981463931896 ] } },
{ "type": "Feature", "properties": { "bairro": "TARRAFAS", "bairro_norm": "tarrafas", "faction": "COMANDO VERMELHO" }, "geometry": { "type": "Point", "coordinates": [ -39.737226075332096, -6.730340950573456 ] } },
{ "type": "Feature", "properties": { "bairro": "TAUÁ", "bairro_norm": "taua", "faction": "N/A" }, "geometry": { "type": "Point", "coordinates": [ -40.259221492555341, -5.936328753935822 ] } },
{ "type": "Feature", "properties": { "bairro": "TEJUÇUOCA", "bairro_norm": "tejucuoca", "faction": "N/A" }, "geometry": { "type": "Point", "coordinates": [ -39.583108313162356, -3.934002150409339 ] } },
{ "type": "Feature", "properties": { "bairro": "TIANGUÁ", "bairro_norm": "tiangua", "faction": "N/A" }, "geometry": { "type": "Point", "coordinates": [ -41.053792747361236, -3.735365384323311 ] } },
{ "type": "Feature", "properties": { "bairro": "TURURU", "bairro_norm": "tururu", "faction": "N/A" }, "geometry": { "type": "Point", "coordinates": [ -39.403754846584562, -3.552907565483899 ] } },
{ "type": "Feature", "properties": { "bairro": "UBAJARA", "bairro_norm": "ubajara", "faction": "N/A" }, "geometry": { "type": "Point", "coordinates": [ -41.006125523861186, -3.867811560576883 ] } },
{ "type": "Feature", "properties": { "bairro": "UMARI", "bairro_norm": "umari", "faction": "N/A" }, "geometry": { "type": "Point", "coordinates": [ -38.730914289711606, -6.623451123022408 ] } },
{ "type": "Feature", "properties": { "bairro": "UMIRIM", "bairro_norm": "umirim", "faction": "N/A" }, "geometry": { "type": "Point", "coordinates": [ -39.384479562340815, -3.687651495785792 ] } },
{ "type": "Feature", "properties": { "bairro": "URUBURETAMA", "bairro_norm": "uruburetama", "faction": "N/A" }, "geometry": { "type": "Point", "coordinates": [ -39.516812133893247, -3.621858395541213 ] } },
{ "type": "Feature", "properties": { "bairro": "URUOCA", "bairro_norm": "uruoca", "faction": "N/A" }, "geometry": { "type": "Point", "coordinates": [ -40.676198900797701, -3.320559776359409 ] } },
{ "type": "Feature", "properties": { "bairro": "VÁRZEA ALEGRE", "bairro_norm": "varzea alegre", "faction": "N/A" }, "geometry": { "type": "Point", "coordinates": [ -39.29782095706797, -6.772693850308404 ] } },
{ "type": "Feature", "properties": { "bairro": "VIÇOSA DO CEARÁ", "bairro_norm": "vicosa do ceara", "faction": "COMANDO VERMELHO" }, "geometry": { "type": "Point", "coordinates": [ -41.134896411524956, -3.548462995737645 ] } }
]
}
