{
"type": "FeatureCollection",
"name": "nodes_with_kml_factions_final",
"crs": { "type": "name", "properties": { "name": "urn:ogc:def:crs:OGC:1.3:CRS84" } },
"features": [
{ "type": "Feature", "properties": { "name": "AEROLÂNDIA", "bairro_norm": "aerolandia", "latitude": -3.7748878552140059, "longitude": -38.513576525227414, "faction_kml": "COMANDO VERMELHO", "faction_source": "style" }, "geometry": { "type": "Point", "coordinates": [ -38.513576525227414, -3.774887855214006 ] } },
{ "type": "Feature", "properties": { "name": "AEROPORTO", "bairro_norm": "aeroporto", "latitude": -3.7735752967174907, "longitude": -38.529936807608756, "faction_kml": "N/A", "faction_source": "N/A" }, "geometry": { "type": "Point", "coordinates": [ -38.529936807608756, -3.773575296717491 ] } },
{ "type": "Feature", "properties": { "name": "ALDEOTA", "bairro_norm": "aldeota", "latitude": -3.7376415435037886, "longitude": -38.502478286143486, "faction_kml": "N/A", "faction_source": "manual_intelligence" }, "geometry": { "type": "Point", "coordinates": [ -38.502478286143486, -3.737641543503789 ] } },
{ "type": "Feature", "properties": { "name": "ALTO DA BALANÇA", "bairro_norm": "alto da balanca", "latitude": -3.7654059189812163, "longitude": -38.513451321965917, "faction_kml": "COMANDO VERMELHO", "faction_source": "style" }, "geometry": { "type": "Point", "coordinates": [ -38.513451321965917, -3.765405918981216 ] } },
{ "type": "Feature", "properties": { "name": "AMADEU FURTADO", "bairro_norm": "amadeu furtado", "latitude": -3.7438062195575239, "longitude": -38.559106462770259, "faction_kml": "N/A", "faction_source": "N/A" }, "geometry": { "type": "Point", "coordinates": [ -38.559106462770259, -3.743806219557524 ] } },
{ "type": "Feature", "properties": { "name": "ANCURI", "bairro_norm": "ancuri", "latitude": -3.8642306056993534, "longitude": -38.506127687720884, "faction_kml": "COMANDO VERMELHO", "faction_source": "style" }, "geometry": { "type": "Point", "coordinates": [ -38.506127687720884, -3.864230605699353 ] } },
{ "type": "Feature", "properties": { "name": "ANTÔNIO BEZERRA", "bairro_norm": "antonio bezerra", "latitude": -3.7410030388952178, "longitude": -38.591321777313993, "faction_kml": "N/A", "faction_source": "N/A" }, "geometry": { "type": "Point", "coordinates": [ -38.591321777313993, -3.741003038895218 ] } },
{ "type": "Feature", "properties": { "name": "AUTRAN NUNES", "bairro_norm": "autran nunes", "latitude": -3.7537877299285047, "longitude": -38.595687615943703, "faction_kml": "COMANDO VERMELHO", "faction_source": "style" }, "geometry": { "type": "Point", "coordinates": [ -38.595687615943703, -3.753787729928505 ] } },
{ "type": "Feature", "properties": { "name": "BARRA DO CEARÁ", "bairro_norm": "barra do ceara", "latitude": -3.704544271008265, "longitude": -38.581242068827493, "faction_kml": "COMANDO VERMELHO", "faction_source": "manual_intelligence" }, "geometry": { "type": "Point", "coordinates": [ -38.581242068827493, -3.704544271008265 ] } },
{ "type": "Feature", "properties": { "name": "BARROSO", "bairro_norm": "barroso", "latitude": -3.8217141320434469, "longitude": -38.512549305574986, "faction_kml": "N/A", "faction_source": "N/A" }, "geometry": { "type": "Point", "coordinates": [ -38.512549305574986, -3.821714132043447 ] } },
{ "type": "Feature", "properties": { "name": "BELA VISTA", "bairro_norm": "bela vista", "latitude": -3.7523888400697376, "longitude": -38.560890876321075, "faction_kml": "COMANDO VERMELHO", "faction_source": "style" }, "geometry": { "type": "Point", "coordinates": [ -38.560890876321075, -3.752388840069738 ] } },
{ "type": "Feature", "properties": { "name": "BENFICA", "bairro_norm": "benfica", "latitude": -3.7417448980022097, "longitude": -38.538260257652084, "faction_kml": "N/A", "faction_source": "N/A" }, "geometry": { "type": "Point", "coordinates": [ -38.538260257652084, -3.74174489800221 ] } },
{ "type": "Feature", "properties": { "name": "BOA VISTA/CASTELÃO", "bairro_norm": "boa vista/castelao", "latitude": -3.8001593585466882, "longitude": -38.521201449901369, "faction_kml": "N/A", "faction_source": "N/A" }, "geometry": { "type": "Point", "coordinates": [ -38.521201449901369, -3.800159358546688 ] } },
{ "type": "Feature", "properties": { "name": "BOM FUTURO", "bairro_norm": "bom futuro", "latitude": -3.7578780843736181, "longitude": -38.546225874230174, "faction_kml": "N/A", "faction_source": "N/A" }, "geometry": { "type": "Point", "coordinates": [ -38.546225874230174, -3.757878084373618 ] } },
{ "type": "Feature", "properties": { "name": "BOM JARDIM", "bairro_norm": "bom jardim", "latitude": -3.7945629195802537, "longitude": -38.601858680766888, "faction_kml": "N/A", "faction_source": "N/A" }, "geometry": { "type": "Point", "coordinates": [ -38.601858680766888, -3.794562919580254 ] } },
{ "type": "Feature", "properties": { "name": "BONSUCESSO", "bairro_norm": "bonsucesso", "latitude": -3.7804816541093524, "longitude": -38.587596431275415, "faction_kml": "N/A", "faction_source": "N/A" }, "geometry": { "type": "Point", "coordinates": [ -38.587596431275415, -3.780481654109352 ] } },
{ "type": "Feature", "properties": { "name": "CAIS DO PORTO", "bairro_norm": "cais do porto", "latitude": -3.714817851310944, "longitude": -38.470610366596027, "faction_kml": "N/A", "faction_source": "N/A" }, "geometry": { "type": "Point", "coordinates": [ -38.470610366596027, -3.714817851310944 ] } },
{ "type": "Feature", "properties": { "name": "CAJAZEIRAS", "bairro_norm": "cajazeiras", "latitude": -3.8036185290321063, "longitude": -38.508604205410066, "faction_kml": "N/A", "faction_source": "N/A" }, "geometry": { "type": "Point", "coordinates": [ -38.508604205410066, -3.803618529032106 ] } },
{ "type": "Feature", "properties": { "name": "CAMBEBA", "bairro_norm": "cambeba", "latitude": -3.8066033999356983, "longitude": -38.485130449591828, "faction_kml": "N/A", "faction_source": "N/A" }, "geometry": { "type": "Point", "coordinates": [ -38.485130449591828, -3.806603399935698 ] } },
{ "type": "Feature", "properties": { "name": "CANINDEZINHO", "bairro_norm": "canindezinho", "latitude": -3.812635257496074, "longitude": -38.603375389338495, "faction_kml": "N/A", "faction_source": "N/A" }, "geometry": { "type": "Point", "coordinates": [ -38.603375389338495, -3.812635257496074 ] } },
{ "type": "Feature", "properties": { "name": "CARLITO PAMPLONA", "bairro_norm": "carlito pamplona", "latitude": -3.7170026287025482, "longitude": -38.554769689373764, "faction_kml": "COMANDO VERMELHO", "faction_source": "style" }, "geometry": { "type": "Point", "coordinates": [ -38.554769689373764, -3.717002628702548 ] } },
{ "type": "Feature", "properties": { "name": "CENTRO", "bairro_norm": "centro", "latitude": -3.7276815796803877, "longitude": -38.527232502992945, "faction_kml": "N/A", "faction_source": "manual_intelligence" }, "geometry": { "type": "Point", "coordinates": [ -38.527232502992945, -3.727681579680388 ] } },
{ "type": "Feature", "properties": { "name": "CIDADE 2000", "bairro_norm": "cidade 2000", "latitude": -3.7511578251267199, "longitude": -38.471896350707361, "faction_kml": "COMANDO VERMELHO", "faction_source": "style" }, "geometry": { "type": "Point", "coordinates": [ -38.471896350707361, -3.75115782512672 ] } },
{ "type": "Feature", "properties": { "name": "CIDADE DOS FUNCIONÁRIOS", "bairro_norm": "cidade dos funcionarios", "latitude": -3.7940537277310273, "longitude": -38.499449929816961, "faction_kml": "N/A", "faction_source": "N/A" }, "geometry": { "type": "Point", "coordinates": [ -38.499449929816961, -3.794053727731027 ] } },
{ "type": "Feature", "properties": { "name": "COAÇU", "bairro_norm": "coacu", "latitude": -3.8446909073268123, "longitude": -38.476360307448537, "faction_kml": "N/A", "faction_source": "N/A" }, "geometry": { "type": "Point", "coordinates": [ -38.476360307448537, -3.844690907326812 ] } },
{ "type": "Feature", "properties": { "name": "CONJUNTO CEARÁ I", "bairro_norm": "conjunto ceara i", "latitude": -3.7646693582119499, "longitude": -38.606221954091126, "faction_kml": "COMANDO VERMELHO", "faction_source": "manual_intelligence" }, "geometry": { "type": "Point", "coordinates": [ -38.606221954091126, -3.76466935821195 ] } },
{ "type": "Feature", "properties": { "name": "CONJUNTO CEARÁ II", "bairro_norm": "conjunto ceara ii", "latitude": -3.771768719270383, "longitude": -38.610893912157032, "faction_kml": "COMANDO VERMELHO", "faction_source": "manual_intelligence" }, "geometry": { "type": "Point", "coordinates": [ -38.610893912157032, -3.771768719270383 ] } },
{ "type": "Feature", "properties": { "name": "CONJUNTO ESPERANÇA", "bairro_norm": "conjunto esperanca", "latitude": -3.814275490947594, "longitude": -38.591345242066495, "faction_kml": "N/A", "faction_source": "N/A" }, "geometry": { "type": "Point", "coordinates": [ -38.591345242066495, -3.814275490947594 ] } },
{ "type": "Feature", "properties": { "name": "CONJUNTO PALMEIRAS", "bairro_norm": "conjunto palmeiras", "latitude": -3.8498123572861482, "longitude": -38.530561489779167, "faction_kml": "N/A", "faction_source": "N/A" }, "geometry": { "type": "Point", "coordinates": [ -38.530561489779167, -3.849812357286148 ] } },
{ "type": "Feature", "properties": { "name": "COUTO FERNANDES", "bairro_norm": "couto fernandes", "latitude": -3.7600573427709869, "longitude": -38.560178593053109, "faction_kml": "N/A", "faction_source": "N/A" }, "geometry": { "type": "Point", "coordinates": [ -38.560178593053109, -3.760057342770987 ] } },
{ "type": "Feature", "properties": { "name": "CRISTO REDENTOR", "bairro_norm": "cristo redentor", "latitude": -3.7076990645350643, "longitude": -38.565037813815572, "faction_kml": "COMANDO VERMELHO", "faction_source": "manual_intelligence" }, "geometry": { "type": "Point", "coordinates": [ -38.565037813815572, -3.707699064535064 ] } },
{ "type": "Feature", "properties": { "name": "CURIÓ", "bairro_norm": "curio", "latitude": -3.8226998292616701, "longitude": -38.47734520450804, "faction_kml": "N/A", "faction_source": "N/A" }, "geometry": { "type": "Point", "coordinates": [ -38.47734520450804, -3.82269982926167 ] } },
{ "type": "Feature", "properties": { "name": "DAMAS", "bairro_norm": "damas", "latitude": -3.752284510026457, "longitude": -38.548829601382941, "faction_kml": "N/A", "faction_source": "N/A" }, "geometry": { "type": "Point", "coordinates": [ -38.548829601382941, -3.752284510026457 ] } },
{ "type": "Feature", "properties": { "name": "DE LOURDES", "bairro_norm": "de lourdes", "latitude": -3.7407960498917019, "longitude": -38.463038700550229, "faction_kml": "N/A", "faction_source": "N/A" }, "geometry": { "type": "Point", "coordinates": [ -38.463038700550229, -3.740796049891702 ] } },
{ "type": "Feature", "properties": { "name": "DEMÓCRITO ROCHA", "bairro_norm": "democrito rocha", "latitude": -3.7620453817813573, "longitude": -38.56538313731226, "faction_kml": "N/A", "faction_source": "N/A" }, "geometry": { "type": "Point", "coordinates": [ -38.56538313731226, -3.762045381781357 ] } },
{ "type": "Feature", "properties": { "name": "RACHEL DE QUEIROZ", "bairro_norm": "rachel de queiroz", "latitude": -3.7977719564956844, "longitude": -38.556787587334554, "faction_kml": "N/A", "faction_source": "N/A" }, "geometry": { "type": "Point", "coordinates": [ -38.556787587334554, -3.797771956495684 ] } },
{ "type": "Feature", "properties": { "name": "DIAS MACÊDO", "bairro_norm": "dias macedo", "latitude": -3.7882431249849873, "longitude": -38.522086536349505, "faction_kml": "COMANDO VERMELHO", "faction_source": "style" }, "geometry": { "type": "Point", "coordinates": [ -38.522086536349505, -3.788243124984987 ] } },
{ "type": "Feature", "properties": { "name": "DIONÍSIO TORRES", "bairro_norm": "dionisio torres", "latitude": -3.7480187636125395, "longitude": -38.503277164933323, "faction_kml": "N/A", "faction_source": "N/A" }, "geometry": { "type": "Point", "coordinates": [ -38.503277164933323, -3.748018763612539 ] } },
{ "type": "Feature", "properties": { "name": "DOM LUSTOSA", "bairro_norm": "dom lustosa", "latitude": -3.7532485573777552, "longitude": -38.587880274600082, "faction_kml": "N/A", "faction_source": "N/A" }, "geometry": { "type": "Point", "coordinates": [ -38.587880274600082, -3.753248557377755 ] } },
{ "type": "Feature", "properties": { "name": "EDSON QUEIROZ", "bairro_norm": "edson queiroz", "latitude": -3.7768969312269078, "longitude": -38.462592873532287, "faction_kml": "N/A", "faction_source": "N/A" }, "geometry": { "type": "Point", "coordinates": [ -38.462592873532287, -3.776896931226908 ] } },
{ "type": "Feature", "properties": { "name": "ENGENHEIRO LUCIANO CAVALCANTE", "bairro_norm": "engenheiro luciano cavalcante", "latitude": -3.7769809496097229, "longitude": -38.489777786899133, "faction_kml": "N/A", "faction_source": "N/A" }, "geometry": { "type": "Point", "coordinates": [ -38.489777786899133, -3.776980949609723 ] } },
{ "type": "Feature", "properties": { "name": "FARIAS BRITO", "bairro_norm": "farias brito", "latitude": -3.7324636598837548, "longitude": -38.542388951645314, "faction_kml": "N/A", "faction_source": "N/A" }, "geometry": { "type": "Point", "coordinates": [ -38.542388951645314, -3.732463659883755 ] } },
{ "type": "Feature", "properties": { "name": "FLORESTA", "bairro_norm": "floresta", "latitude": -3.7208372080175782, "longitude": -38.576420588877077, "faction_kml": "COMANDO VERMELHO", "faction_source": "manual_intelligence" }, "geometry": { "type": "Point", "coordinates": [ -38.576420588877077, -3.720837208017578 ] } },
{ "type": "Feature", "properties": { "name": "FÁTIMA", "bairro_norm": "fatima", "latitude": -3.7511071750572236, "longitude": -38.528365572382619, "faction_kml": "N/A", "faction_source": "N/A" }, "geometry": { "type": "Point", "coordinates": [ -38.528365572382619, -3.751107175057224 ] } },
{ "type": "Feature", "properties": { "name": "GENIBAÚ", "bairro_norm": "genibau", "latitude": -3.7581068819477244, "longitude": -38.601328085335524, "faction_kml": "COMANDO VERMELHO", "faction_source": "manual_intelligence" }, "geometry": { "type": "Point", "coordinates": [ -38.601328085335524, -3.758106881947724 ] } },
{ "type": "Feature", "properties": { "name": "GRANJA LISBOA", "bairro_norm": "granja lisboa", "latitude": -3.787494937644722, "longitude": -38.618972652877673, "faction_kml": "COMANDO VERMELHO", "faction_source": "manual_intelligence" }, "geometry": { "type": "Point", "coordinates": [ -38.618972652877673, -3.787494937644722 ] } },
{ "type": "Feature", "properties": { "name": "GRANJA PORTUGAL", "bairro_norm": "granja portugal", "latitude": -3.7822064194262213, "longitude": -38.599780754176862, "faction_kml": "COMANDO VERMELHO", "faction_source": "manual_intelligence" }, "geometry": { "type": "Point", "coordinates": [ -38.599780754176862, -3.782206419426221 ] } },
{ "type": "Feature", "properties": { "name": "GUAJERU", "bairro_norm": "guajeru", "latitude": -3.83213521679451, "longitude": -38.479134747079677, "faction_kml": "N/A", "faction_source": "N/A" }, "geometry": { "type": "Point", "coordinates": [ -38.479134747079677, -3.83213521679451 ] } },
{ "type": "Feature", "properties": { "name": "HENRIQUE JORGE", "bairro_norm": "henrique jorge", "latitude": -3.7623760345202575, "longitude": -38.585280773448467, "faction_kml": "N/A", "faction_source": "N/A" }, "geometry": { "type": "Point", "coordinates": [ -38.585280773448467, -3.762376034520257 ] } },
{ "type": "Feature", "properties": { "name": "ITAOCA", "bairro_norm": "itaoca", "latitude": -3.7723547360161858, "longitude": -38.555871548865838, "faction_kml": "N/A", "faction_source": "N/A" }, "geometry": { "type": "Point", "coordinates": [ -38.555871548865838, -3.772354736016186 ] } },
{ "type": "Feature", "properties": { "name": "ITAPERI", "bairro_norm": "itaperi", "latitude": -3.7890463150419156, "longitude": -38.550687498735783, "faction_kml": "N/A", "faction_source": "N/A" }, "geometry": { "type": "Point", "coordinates": [ -38.550687498735783, -3.789046315041916 ] } },
{ "type": "Feature", "properties": { "name": "JACARECANGA", "bairro_norm": "jacarecanga", "latitude": -3.7202882735926313, "longitude": -38.545119636039651, "faction_kml": "N/A", "faction_source": "N/A" }, "geometry": { "type": "Point", "coordinates": [ -38.545119636039651, -3.720288273592631 ] } },
{ "type": "Feature", "properties": { "name": "JANGURUSSU", "bairro_norm": "jangurussu", "latitude": -3.8437612176771792, "longitude": -38.514313176793621, "faction_kml": "TCP / GDE", "faction_source": "manual_intelligence" }, "geometry": { "type": "Point", "coordinates": [ -38.514313176793621, -3.843761217677179 ] } },
{ "type": "Feature", "properties": { "name": "JARDIM AMÉRICA", "bairro_norm": "jardim america", "latitude": -3.7526140570194548, "longitude": -38.54154285553183, "faction_kml": "N/A", "faction_source": "N/A" }, "geometry": { "type": "Point", "coordinates": [ -38.54154285553183, -3.752614057019455 ] } },
{ "type": "Feature", "properties": { "name": "JARDIM CEARENSE", "bairro_norm": "jardim cearense", "latitude": -3.8009415897941556, "longitude": -38.566423522656727, "faction_kml": "N/A", "faction_source": "N/A" }, "geometry": { "type": "Point", "coordinates": [ -38.566423522656727, -3.800941589794156 ] } },
{ "type": "Feature", "properties": { "name": "JARDIM GUANABARA", "bairro_norm": "jardim guanabara", "latitude": -3.7239089067303648, "longitude": -38.590265331006172, "faction_kml": "N/A", "faction_source": "N/A" }, "geometry": { "type": "Point", "coordinates": [ -38.590265331006172, -3.723908906730365 ] } },
{ "type": "Feature", "properties": { "name": "JARDIM IRACEMA", "bairro_norm": "jardim iracema", "latitude": -3.7213636174425062, "longitude": -38.583806105642637, "faction_kml": "COMANDO VERMELHO", "faction_source": "manual_intelligence" }, "geometry": { "type": "Point", "coordinates": [ -38.583806105642637, -3.721363617442506 ] } },
{ "type": "Feature", "properties": { "name": "JARDIM DAS OLIVEIRAS", "bairro_norm": "jardim das oliveiras", "latitude": -3.7815454721205346, "longitude": -38.503708941059124, "faction_kml": "COMANDO VERMELHO", "faction_source": "style" }, "geometry": { "type": "Point", "coordinates": [ -38.503708941059124, -3.781545472120535 ] } },
{ "type": "Feature", "properties": { "name": "JOÃO XXIII", "bairro_norm": "joao xxiii", "latitude": -3.7702860019086097, "longitude": -38.587459545723526, "faction_kml": "N/A", "faction_source": "N/A" }, "geometry": { "type": "Point", "coordinates": [ -38.587459545723526, -3.77028600190861 ] } },
{ "type": "Feature", "properties": { "name": "JOAQUIM TÁVORA", "bairro_norm": "joaquim tavora", "latitude": -3.7454297082717192, "longitude": -38.516724257999591, "faction_kml": "N/A", "faction_source": "N/A" }, "geometry": { "type": "Point", "coordinates": [ -38.516724257999591, -3.745429708271719 ] } },
{ "type": "Feature", "properties": { "name": "JOSÉ BONIFÁCIO", "bairro_norm": "jose bonifacio", "latitude": -3.7394547591592655, "longitude": -38.528558185464405, "faction_kml": "COMANDO VERMELHO", "faction_source": "style" }, "geometry": { "type": "Point", "coordinates": [ -38.528558185464405, -3.739454759159266 ] } },
{ "type": "Feature", "properties": { "name": "JOSÉ DE ALENCAR", "bairro_norm": "jose de alencar", "latitude": -3.8100082669691195, "longitude": -38.472622397216441, "faction_kml": "N/A", "faction_source": "N/A" }, "geometry": { "type": "Point", "coordinates": [ -38.472622397216441, -3.81000826696912 ] } },
{ "type": "Feature", "properties": { "name": "JÓQUEI CLUBE", "bairro_norm": "joquei clube", "latitude": -3.7676388709745909, "longitude": -38.574802215608706, "faction_kml": "N/A", "faction_source": "N/A" }, "geometry": { "type": "Point", "coordinates": [ -38.574802215608706, -3.767638870974591 ] } },
{ "type": "Feature", "properties": { "name": "LAGOA REDONDA", "bairro_norm": "lagoa redonda", "latitude": -3.8253489161475471, "longitude": -38.459555011560873, "faction_kml": "N/A", "faction_source": "N/A" }, "geometry": { "type": "Point", "coordinates": [ -38.459555011560873, -3.825348916147547 ] } },
{ "type": "Feature", "properties": { "name": "MANOEL SÁTIRO", "bairro_norm": "manoel satiro", "latitude": -3.7980551513834047, "longitude": -38.580049906868169, "faction_kml": "N/A", "faction_source": "N/A" }, "geometry": { "type": "Point", "coordinates": [ -38.580049906868169, -3.798055151383405 ] } },
{ "type": "Feature", "properties": { "name": "MANUEL DIAS BRANCO", "bairro_norm": "manuel dias branco", "latitude": -3.7594604405340508, "longitude": -38.459432949161325, "faction_kml": "N/A", "faction_source": "N/A" }, "geometry": { "type": "Point", "coordinates": [ -38.459432949161325, -3.759460440534051 ] } },
{ "type": "Feature", "properties": { "name": "MARAPONGA", "bairro_norm": "maraponga", "latitude": -3.7946264270035712, "longitude": -38.569002765389982, "faction_kml": "N/A", "faction_source": "N/A" }, "geometry": { "type": "Point", "coordinates": [ -38.569002765389982, -3.794626427003571 ] } },
{ "type": "Feature", "properties": { "name": "MEIRELES", "bairro_norm": "meireles", "latitude": -3.7275471017862145, "longitude": -38.50049293155444, "faction_kml": "N/A", "faction_source": "manual_intelligence" }, "geometry": { "type": "Point", "coordinates": [ -38.50049293155444, -3.727547101786215 ] } },
{ "type": "Feature", "properties": { "name": "MESSEJANA", "bairro_norm": "messejana", "latitude": -3.8267063527232037, "longitude": -38.493391259954635, "faction_kml": "N/A", "faction_source": "N/A" }, "geometry": { "type": "Point", "coordinates": [ -38.493391259954635, -3.826706352723204 ] } },
{ "type": "Feature", "properties": { "name": "MONDUBIM", "bairro_norm": "mondubim", "latitude": -3.816543297157986, "longitude": -38.569289515914598, "faction_kml": "N/A", "faction_source": "N/A" }, "geometry": { "type": "Point", "coordinates": [ -38.569289515914598, -3.816543297157986 ] } },
{ "type": "Feature", "properties": { "name": "MONTE CASTELO", "bairro_norm": "monte castelo", "latitude": -3.7247436453762375, "longitude": -38.553267089947155, "faction_kml": "COMANDO VERMELHO", "faction_source": "style" }, "geometry": { "type": "Point", "coordinates": [ -38.553267089947155, -3.724743645376237 ] } },
{ "type": "Feature", "properties": { "name": "MONTESE", "bairro_norm": "montese", "latitude": -3.7647320628637178, "longitude": -38.550617338777307, "faction_kml": "N/A", "faction_source": "N/A" }, "geometry": { "type": "Point", "coordinates": [ -38.550617338777307, -3.764732062863718 ] } },
{ "type": "Feature", "properties": { "name": "MOURA BRASIL", "bairro_norm": "moura brasil", "latitude": -3.7186610886753764, "longitude": -38.534692543354012, "faction_kml": "N/A", "faction_source": "N/A" }, "geometry": { "type": "Point", "coordinates": [ -38.534692543354012, -3.718661088675376 ] } },
{ "type": "Feature", "properties": { "name": "MUCURIPE", "bairro_norm": "mucuripe", "latitude": -3.7259712041447099, "longitude": -38.484477555230548, "faction_kml": "N/A", "faction_source": "manual_intelligence" }, "geometry": { "type": "Point", "coordinates": [ -38.484477555230548, -3.72597120414471 ] } },
{ "type": "Feature", "properties": { "name": "NOVO MONDUBIM", "bairro_norm": "novo mondubim", "latitude": -3.8076681613410965, "longitude": -38.584917016594794, "faction_kml": "COMANDO VERMELHO", "faction_source": "style" }, "geometry": { "type": "Point", "coordinates": [ -38.584917016594794, -3.807668161341097 ] } },
{ "type": "Feature", "properties": { "name": "OLAVO OLIVEIRA", "bairro_norm": "olavo oliveira", "latitude": -3.7300589004635598, "longitude": -38.590242850984929, "faction_kml": "COMANDO VERMELHO", "faction_source": "style" }, "geometry": { "type": "Point", "coordinates": [ -38.590242850984929, -3.73005890046356 ] } },
{ "type": "Feature", "properties": { "name": "PADRE ANDRADE", "bairro_norm": "padre andrade", "latitude": -3.7360537827384954, "longitude": -38.58047998790974, "faction_kml": "N/A", "faction_source": "N/A" }, "geometry": { "type": "Point", "coordinates": [ -38.58047998790974, -3.736053782738495 ] } },
{ "type": "Feature", "properties": { "name": "PANAMERICANO", "bairro_norm": "panamericano", "latitude": -3.7557753418416362, "longitude": -38.565220554601666, "faction_kml": "N/A", "faction_source": "N/A" }, "geometry": { "type": "Point", "coordinates": [ -38.565220554601666, -3.755775341841636 ] } },
{ "type": "Feature", "properties": { "name": "PAPICU", "bairro_norm": "papicu", "latitude": -3.7395457491609441, "longitude": -38.475381470972714, "faction_kml": "N/A", "faction_source": "N/A" }, "geometry": { "type": "Point", "coordinates": [ -38.475381470972714, -3.739545749160944 ] } },
{ "type": "Feature", "properties": { "name": "PARANGABA", "bairro_norm": "parangaba", "latitude": -3.7774893793519908, "longitude": -38.566478383032518, "faction_kml": "N/A", "faction_source": "N/A" }, "geometry": { "type": "Point", "coordinates": [ -38.566478383032518, -3.777489379351991 ] } },
{ "type": "Feature", "properties": { "name": "PARQUE ARAXÁ", "bairro_norm": "parque araxa", "latitude": -3.7356119533183376, "longitude": -38.547823412123904, "faction_kml": "N/A", "faction_source": "N/A" }, "geometry": { "type": "Point", "coordinates": [ -38.547823412123904, -3.735611953318338 ] } },
{ "type": "Feature", "properties": { "name": "PARQUE IRACEMA", "bairro_norm": "parque iracema", "latitude": -3.8061312139282295, "longitude": -38.496394654409904, "faction_kml": "N/A", "faction_source": "N/A" }, "geometry": { "type": "Point", "coordinates": [ -38.496394654409904, -3.80613121392823 ] } },
{ "type": "Feature", "properties": { "name": "PARQUE MANIBURA", "bairro_norm": "parque manibura", "latitude": -3.7916670446143348, "longitude": -38.48611006316365, "faction_kml": "N/A", "faction_source": "N/A" }, "geometry": { "type": "Point", "coordinates": [ -38.48611006316365, -3.791667044614335 ] } },
{ "type": "Feature", "properties": { "name": "PARQUE PRESIDENTE VARGAS", "bairro_norm": "parque presidente vargas", "latitude": -3.8260922817899998, "longitude": -38.599701286224317, "faction_kml": "COMANDO VERMELHO", "faction_source": "style" }, "geometry": { "type": "Point", "coordinates": [ -38.599701286224317, -3.82609228179 ] } },
{ "type": "Feature", "properties": { "name": "PARQUE SANTA MARIA", "bairro_norm": "parque santa maria", "latitude": -3.850923991846356, "longitude": -38.499535258707006, "faction_kml": "N/A", "faction_source": "N/A" }, "geometry": { "type": "Point", "coordinates": [ -38.499535258707006, -3.850923991846356 ] } },
{ "type": "Feature", "properties": { "name": "PARQUE SANTA ROSA", "bairro_norm": "parque santa rosa", "latitude": -3.8197812237175599, "longitude": -38.594662045250047, "faction_kml": "COMANDO VERMELHO", "faction_source": "style" }, "geometry": { "type": "Point", "coordinates": [ -38.594662045250047, -3.81978122371756 ] } },
{ "type": "Feature", "properties": { "name": "PARQUE SĂO JOSÉ", "bairro_norm": "parque sao jose", "latitude": -3.7969721021621616, "longitude": -38.5886718481852, "faction_kml": "COMANDO VERMELHO", "faction_source": "style" }, "geometry": { "type": "Point", "coordinates": [ -38.5886718481852, -3.796972102162162 ] } },
{ "type": "Feature", "properties": { "name": "PARQUE DOIS IRMĂOS", "bairro_norm": "parque dois irmaos", "latitude": -3.8110872987225908, "longitude": -38.548101418173516, "faction_kml": "N/A", "faction_source": "N/A" }, "geometry": { "type": "Point", "coordinates": [ -38.548101418173516, -3.811087298722591 ] } },
{ "type": "Feature", "properties": { "name": "PARQUELÂNDIA", "bairro_norm": "parquelandia", "latitude": -3.7374056508114371, "longitude": -38.559552632128351, "faction_kml": "N/A", "faction_source": "N/A" }, "geometry": { "type": "Point", "coordinates": [ -38.559552632128351, -3.737405650811437 ] } },
{ "type": "Feature", "properties": { "name": "PARREÃO", "bairro_norm": "parreao", "latitude": -3.7596301328699697, "longitude": -38.537623667622512, "faction_kml": "N/A", "faction_source": "N/A" }, "geometry": { "type": "Point", "coordinates": [ -38.537623667622512, -3.75963013286997 ] } },
{ "type": "Feature", "properties": { "name": "PASSARÉ", "bairro_norm": "passare", "latitude": -3.8131129203224265, "longitude": -38.532046273179226, "faction_kml": "N/A", "faction_source": "N/A" }, "geometry": { "type": "Point", "coordinates": [ -38.532046273179226, -3.813112920322427 ] } },
{ "type": "Feature", "properties": { "name": "GUARARAPES", "bairro_norm": "guararapes", "latitude": -3.7633928740599001, "longitude": -38.48867322069011, "faction_kml": "N/A", "faction_source": "N/A" }, "geometry": { "type": "Point", "coordinates": [ -38.48867322069011, -3.7633928740599 ] } },
{ "type": "Feature", "properties": { "name": "PAUPINA", "bairro_norm": "paupina", "latitude": -3.86053725861436, "longitude": -38.492193702874189, "faction_kml": "TCP / GDE", "faction_source": "manual_intelligence" }, "geometry": { "type": "Point", "coordinates": [ -38.492193702874189, -3.86053725861436 ] } },
{ "type": "Feature", "properties": { "name": "PEDRAS", "bairro_norm": "pedras", "latitude": -3.8784890036379931, "longitude": -38.514218762294895, "faction_kml": "N/A", "faction_source": "N/A" }, "geometry": { "type": "Point", "coordinates": [ -38.514218762294895, -3.878489003637993 ] } },
{ "type": "Feature", "properties": { "name": "PICI", "bairro_norm": "pici", "latitude": -3.7481813206141399, "longitude": -38.574732607684155, "faction_kml": "N/A", "faction_source": "N/A" }, "geometry": { "type": "Point", "coordinates": [ -38.574732607684155, -3.74818132061414 ] } },
{ "type": "Feature", "properties": { "name": "PIRAMBU", "bairro_norm": "pirambu", "latitude": -3.7102365239896686, "longitude": -38.55349784565874, "faction_kml": "COMANDO VERMELHO", "faction_source": "manual_intelligence" }, "geometry": { "type": "Point", "coordinates": [ -38.55349784565874, -3.710236523989669 ] } },
{ "type": "Feature", "properties": { "name": "PLANALTO AYRTON SENNA", "bairro_norm": "planalto ayrton senna", "latitude": -3.834315262470684, "longitude": -38.572894374014346, "faction_kml": "COMANDO VERMELHO", "faction_source": "style" }, "geometry": { "type": "Point", "coordinates": [ -38.572894374014346, -3.834315262470684 ] } },
{ "type": "Feature", "properties": { "name": "PRAIA DE IRACEMA", "bairro_norm": "praia de iracema", "latitude": -3.7208043450535722, "longitude": -38.515595063389931, "faction_kml": "N/A", "faction_source": "N/A" }, "geometry": { "type": "Point", "coordinates": [ -38.515595063389931, -3.720804345053572 ] } },
{ "type": "Feature", "properties": { "name": "PRAIA DO FUTURO I", "bairro_norm": "praia do futuro i", "latitude": -3.7400426713797041, "longitude": -38.455891552975956, "faction_kml": "N/A", "faction_source": "N/A" }, "geometry": { "type": "Point", "coordinates": [ -38.455891552975956, -3.740042671379704 ] } },
{ "type": "Feature", "properties": { "name": "PRAIA DO FUTURO II", "bairro_norm": "praia do futuro ii", "latitude": -3.7624974463135037, "longitude": -38.444814026186421, "faction_kml": "COMANDO VERMELHO", "faction_source": "style" }, "geometry": { "type": "Point", "coordinates": [ -38.444814026186421, -3.762497446313504 ] } },
{ "type": "Feature", "properties": { "name": "PREFEITO JOSÉ WALTER", "bairro_norm": "prefeito jose walter", "latitude": -3.8363505365465698, "longitude": -38.54824578788061, "faction_kml": "N/A", "faction_source": "N/A" }, "geometry": { "type": "Point", "coordinates": [ -38.54824578788061, -3.83635053654657 ] } },
{ "type": "Feature", "properties": { "name": "PRESIDENTE KENNEDY", "bairro_norm": "presidente kennedy", "latitude": -3.7305386503795024, "longitude": -38.570200534523494, "faction_kml": "N/A", "faction_source": "N/A" }, "geometry": { "type": "Point", "coordinates": [ -38.570200534523494, -3.730538650379502 ] } },
{ "type": "Feature", "properties": { "name": "QUINTINO CUNHA", "bairro_norm": "quintino cunha", "latitude": -3.7292434367791172, "longitude": -38.601744866811167, "faction_kml": "N/A", "faction_source": "N/A" }, "geometry": { "type": "Point", "coordinates": [ -38.601744866811167, -3.729243436779117 ] } },
{ "type": "Feature", "properties": { "name": "RODOLFO TEÓFILO", "bairro_norm": "rodolfo teofilo", "latitude": -3.7454203415569629, "longitude": -38.550936571302792, "faction_kml": "N/A", "faction_source": "N/A" }, "geometry": { "type": "Point", "coordinates": [ -38.550936571302792, -3.745420341556963 ] } },
{ "type": "Feature", "properties": { "name": "SABIAGUABA", "bairro_norm": "sabiaguaba", "latitude": -3.7997102514891985, "longitude": -38.428610257762138, "faction_kml": "N/A", "faction_source": "N/A" }, "geometry": { "type": "Point", "coordinates": [ -38.428610257762138, -3.799710251489198 ] } },
{ "type": "Feature", "properties": { "name": "SALINAS", "bairro_norm": "salinas", "latitude": -3.7640660856599895, "longitude": -38.500137451746831, "faction_kml": "N/A", "faction_source": "N/A" }, "geometry": { "type": "Point", "coordinates": [ -38.500137451746831, -3.764066085659989 ] } },
{ "type": "Feature", "properties": { "name": "SAPIRANGA / COITÉ", "bairro_norm": "sapiranga / coite", "latitude": -3.7969358036029019, "longitude": -38.465844346940145, "faction_kml": "COMANDO VERMELHO", "faction_source": "style" }, "geometry": { "type": "Point", "coordinates": [ -38.465844346940145, -3.796935803602902 ] } },
{ "type": "Feature", "properties": { "name": "SERRINHA", "bairro_norm": "serrinha", "latitude": -3.7853232796792859, "longitude": -38.540775933506985, "faction_kml": "N/A", "faction_source": "N/A" }, "geometry": { "type": "Point", "coordinates": [ -38.540775933506985, -3.785323279679286 ] } },
{ "type": "Feature", "properties": { "name": "SÃO BENTO", "bairro_norm": "sao bento", "latitude": -3.8564083986173561, "longitude": -38.482287184326132, "faction_kml": "N/A", "faction_source": "N/A" }, "geometry": { "type": "Point", "coordinates": [ -38.482287184326132, -3.856408398617356 ] } },
{ "type": "Feature", "properties": { "name": "SÃO GERARDO", "bairro_norm": "sao gerardo", "latitude": -3.7302911115484765, "longitude": -38.557517621963434, "faction_kml": "N/A", "faction_source": "N/A" }, "geometry": { "type": "Point", "coordinates": [ -38.557517621963434, -3.730291111548476 ] } },
{ "type": "Feature", "properties": { "name": "SÃO JOÃO DO TAUAPE", "bairro_norm": "sao joao do tauape", "latitude": -3.756440384436651, "longitude": -38.507933878828112, "faction_kml": "N/A", "faction_source": "N/A" }, "geometry": { "type": "Point", "coordinates": [ -38.507933878828112, -3.756440384436651 ] } },
{ "type": "Feature", "properties": { "name": "VARJOTA", "bairro_norm": "varjota", "latitude": -3.7336406073594812, "longitude": -38.486260623868397, "faction_kml": "N/A", "faction_source": "manual_intelligence" }, "geometry": { "type": "Point", "coordinates": [ -38.486260623868397, -3.733640607359481 ] } },
{ "type": "Feature", "properties": { "name": "VICENTE PINZÓN", "bairro_norm": "vicente pinzon", "latitude": -3.7281495804612304, "longitude": -38.469740012144264, "faction_kml": "COMANDO VERMELHO", "faction_source": "style" }, "geometry": { "type": "Point", "coordinates": [ -38.469740012144264, -3.72814958046123 ] } },
{ "type": "Feature", "properties": { "name": "ELLERY", "bairro_norm": "ellery", "latitude": -3.7233521778072931, "longitude": -38.563344381343903, "faction_kml": "COMANDO VERMELHO", "faction_source": "style" }, "geometry": { "type": "Point", "coordinates": [ -38.563344381343903, -3.723352177807293 ] } },
{ "type": "Feature", "properties": { "name": "VILA PERI", "bairro_norm": "vila peri", "latitude": -3.7883731868634944, "longitude": -38.580889574701892, "faction_kml": "N/A", "faction_source": "N/A" }, "geometry": { "type": "Point", "coordinates": [ -38.580889574701892, -3.788373186863494 ] } },
{ "type": "Feature", "properties": { "name": "VILA UNIĂO", "bairro_norm": "vila uniao", "latitude": -3.7670646518716908, "longitude": -38.53582273829214, "faction_kml": "N/A", "faction_source": "N/A" }, "geometry": { "type": "Point", "coordinates": [ -38.53582273829214, -3.767064651871691 ] } },
{ "type": "Feature", "properties": { "name": "VILA VELHA", "bairro_norm": "vila velha", "latitude": -3.7124688547885887, "longitude": -38.604459061859295, "faction_kml": "COMANDO VERMELHO", "faction_source": "manual_intelligence" }, "geometry": { "type": "Point", "coordinates": [ -38.604459061859295, -3.712468854788589 ] } },
{ "type": "Feature", "properties": { "name": "ÁLVARO WEYNE", "bairro_norm": "alvaro weyne", "latitude": -3.715899106449565, "longitude": -38.566629222972203, "faction_kml": "N/A", "faction_source": "N/A" }, "geometry": { "type": "Point", "coordinates": [ -38.566629222972203, -3.715899106449565 ] } },
{ "type": "Feature", "properties": { "name": "GUADALAJARA", "bairro_norm": "guadalajara", "latitude": -3.7636377994054944, "longitude": -38.619461549733998, "faction_kml": "COMANDO VERMELHO", "faction_source": "style" }, "geometry": { "type": "Point", "coordinates": [ -38.619461549733998, -3.763637799405494 ] } },
{ "type": "Feature", "properties": { "name": "IPARANA", "bairro_norm": "iparana", "latitude": -3.6948597081695933, "longitude": -38.623710941019965, "faction_kml": "COMANDO VERMELHO", "faction_source": "description" }, "geometry": { "type": "Point", "coordinates": [ -38.623710941019965, -3.694859708169593 ] } },
{ "type": "Feature", "properties": { "name": "MARECHAL RONDON", "bairro_norm": "marechal rondon", "latitude": -3.7740878654281462, "longitude": -38.623927675769366, "faction_kml": "COMANDO VERMELHO", "faction_source": "style" }, "geometry": { "type": "Point", "coordinates": [ -38.623927675769366, -3.774087865428146 ] } },
{ "type": "Feature", "properties": { "name": "PARQUE ALBANO", "bairro_norm": "parque albano", "latitude": -3.7514356438634304, "longitude": -38.612654582868025, "faction_kml": "COMANDO VERMELHO", "faction_source": "style" }, "geometry": { "type": "Point", "coordinates": [ -38.612654582868025, -3.75143564386343 ] } },
{ "type": "Feature", "properties": { "name": "PARQUE DAS NAÇÕES", "bairro_norm": "parque das nacoes", "latitude": -3.746838428903922, "longitude": -38.607058719762414, "faction_kml": "COMANDO VERMELHO", "faction_source": "style" }, "geometry": { "type": "Point", "coordinates": [ -38.607058719762414, -3.746838428903922 ] } },
{ "type": "Feature", "properties": { "name": "PARQUE LEBLON", "bairro_norm": "parque leblon", "latitude": -3.6978314686310108, "longitude": -38.604310168678786, "faction_kml": "N/A", "faction_source": "N/A" }, "geometry": { "type": "Point", "coordinates": [ -38.604310168678786, -3.697831468631011 ] } },
{ "type": "Feature", "properties": { "name": "PARQUE SOLEDADE", "bairro_norm": "parque soledade", "latitude": -3.7266002303118255, "longitude": -38.635845075429685, "faction_kml": "N/A", "faction_source": "N/A" }, "geometry": { "type": "Point", "coordinates": [ -38.635845075429685, -3.726600230311826 ] } },
{ "type": "Feature", "properties": { "name": "SÃO MIGUEL", "bairro_norm": "sao miguel", "latitude": -3.7452079227120207, "longitude": -38.602434528725951, "faction_kml": "COMANDO VERMELHO", "faction_source": "style" }, "geometry": { "type": "Point", "coordinates": [ -38.602434528725951, -3.745207922712021 ] } },
{ "type": "Feature", "properties": { "name": "TABAPUÁ", "bairro_norm": "tabapua", "latitude": -3.7312109755348843, "longitude": -38.612657093284, "faction_kml": "N/A", "faction_source": "N/A" }, "geometry": { "type": "Point", "coordinates": [ -38.612657093284, -3.731210975534884 ] } },
{ "type": "Feature", "properties": { "name": "URUCUTUBA", "bairro_norm": "urucutuba", "latitude": -3.787547942420336, "longitude": -38.64103434900192, "faction_kml": "N/A", "faction_source": "N/A" }, "geometry": { "type": "Point", "coordinates": [ -38.64103434900192, -3.787547942420336 ] } },
{ "type": "Feature", "properties": { "name": "COCÓ", "bairro_norm": "coco", "latitude": -3.7493851470987396, "longitude": -38.480120736387846, "faction_kml": "N/A", "faction_source": "N/A" }, "geometry": { "type": "Point", "coordinates": [ -38.480120736387846, -3.74938514709874 ] } },
{ "type": "Feature", "properties": { "name": "SANTA CLARA", "bairro_norm": "santa clara", "latitude": -3.8648967112927357, "longitude": -38.479745389692489, "faction_kml": "N/A", "faction_source": "N/A" }, "geometry": { "type": "Point", "coordinates": [ -38.479745389692489, -3.864896711292736 ] } },
{ "type": "Feature", "properties": { "name": "PRECABURA", "bairro_norm": "precabura", "latitude": -3.8208350661635433, "longitude": -38.438667912958699, "faction_kml": "N/A", "faction_source": "N/A" }, "geometry": { "type": "Point", "coordinates": [ -38.438667912958699, -3.820835066163543 ] } },
{ "type": "Feature", "properties": { "name": "CARARU", "bairro_norm": "cararu", "latitude": -3.822971810269248, "longitude": -38.424781535316285, "faction_kml": "N/A", "faction_source": "N/A" }, "geometry": { "type": "Point", "coordinates": [ -38.424781535316285, -3.822971810269248 ] } },
{ "type": "Feature", "properties": { "name": "ARACAPÉ", "bairro_norm": "aracape", "latitude": -3.8304166379483116, "longitude": -38.587245124844699, "faction_kml": "N/A", "faction_source": "N/A" }, "geometry": { "type": "Point", "coordinates": [ -38.587245124844699, -3.830416637948312 ] } },
{ "type": "Feature", "properties": { "name": "SIQUEIRA", "bairro_norm": "siqueira", "latitude": -3.8052489005280385, "longitude": -38.61991321611341, "faction_kml": "N/A", "faction_source": "N/A" }, "geometry": { "type": "Point", "coordinates": [ -38.61991321611341, -3.805248900528039 ] } },
{ "type": "Feature", "properties": { "name": "DIF III", "bairro_norm": "dif iii", "latitude": -3.8517105732330421, "longitude": -38.554272756706702, "faction_kml": "N/A", "faction_source": "N/A" }, "geometry": { "type": "Point", "coordinates": [ -38.554272756706702, -3.851710573233042 ] } },
{ "type": "Feature", "properties": { "name": "CIDADE NOVA", "bairro_norm": "cidade nova", "latitude": -3.8440363634346655, "longitude": -38.574881405011446, "faction_kml": "N/A", "faction_source": "N/A" }, "geometry": { "type": "Point", "coordinates": [ -38.574881405011446, -3.844036363434665 ] } },
{ "type": "Feature", "properties": { "name": "INDUSTRIAL", "bairro_norm": "industrial", "latitude": -3.8391157080271863, "longitude": -38.592224220988641, "faction_kml": "COMANDO VERMELHO", "faction_source": "style" }, "geometry": { "type": "Point", "coordinates": [ -38.592224220988641, -3.839115708027186 ] } },
{ "type": "Feature", "properties": { "name": "ALTO ALEGRE II", "bairro_norm": "alto alegre ii", "latitude": -3.8320591466288567, "longitude": -38.607284070373673, "faction_kml": "N/A", "faction_source": "N/A" }, "geometry": { "type": "Point", "coordinates": [ -38.607284070373673, -3.832059146628857 ] } },
{ "type": "Feature", "properties": { "name": "AQUIRAZ", "bairro_norm": "aquiraz", "latitude": -3.9759102601091896, "longitude": -38.394135076703861, "faction_kml": "N/A", "faction_source": "N/A" }, "geometry": { "type": "Point", "coordinates": [ -38.394135076703861, -3.97591026010919 ] } },
{ "type": "Feature", "properties": { "name": "CASCAVEL", "bairro_norm": "cascavel", "latitude": -4.2385416756172489, "longitude": -38.297183186556552, "faction_kml": "N/A", "faction_source": "N/A" }, "geometry": { "type": "Point", "coordinates": [ -38.297183186556552, -4.238541675617249 ] } },
{ "type": "Feature", "properties": { "name": "CAUCAIA", "bairro_norm": "caucaia", "latitude": -3.7825416160202074, "longitude": -38.810827888789689, "faction_kml": "N/A", "faction_source": "N/A" }, "geometry": { "type": "Point", "coordinates": [ -38.810827888789689, -3.782541616020207 ] } },
{ "type": "Feature", "properties": { "name": "CHOROZINHO", "bairro_norm": "chorozinho", "latitude": -4.3060633432325357, "longitude": -38.470429099307033, "faction_kml": "N/A", "faction_source": "N/A" }, "geometry": { "type": "Point", "coordinates": [ -38.470429099307033, -4.306063343232536 ] } },
{ "type": "Feature", "properties": { "name": "EUSÉBIO", "bairro_norm": "eusebio", "latitude": -3.8772239485564688, "longitude": -38.458912759150614, "faction_kml": "N/A", "faction_source": "N/A" }, "geometry": { "type": "Point", "coordinates": [ -38.458912759150614, -3.877223948556469 ] } },
{ "type": "Feature", "properties": { "name": "GUAIÚBA", "bairro_norm": "guaiuba", "latitude": -4.1028614367405298, "longitude": -38.66707617181779, "faction_kml": "N/A", "faction_source": "N/A" }, "geometry": { "type": "Point", "coordinates": [ -38.66707617181779, -4.10286143674053 ] } },
{ "type": "Feature", "properties": { "name": "HORIZONTE", "bairro_norm": "horizonte", "latitude": -4.1019611991055136, "longitude": -38.4656976644062, "faction_kml": "COMANDO VERMELHO", "faction_source": "style" }, "geometry": { "type": "Point", "coordinates": [ -38.4656976644062, -4.101961199105514 ] } },
{ "type": "Feature", "properties": { "name": "ITAITINGA", "bairro_norm": "itaitinga", "latitude": -3.9991055533484055, "longitude": -38.549804615590126, "faction_kml": "N/A", "faction_source": "N/A" }, "geometry": { "type": "Point", "coordinates": [ -38.549804615590126, -3.999105553348405 ] } },
{ "type": "Feature", "properties": { "name": "MARACANAÚ", "bairro_norm": "maracanau", "latitude": -3.873823329322946, "longitude": -38.627261325420648, "faction_kml": "COMANDO VERMELHO", "faction_source": "style" }, "geometry": { "type": "Point", "coordinates": [ -38.627261325420648, -3.873823329322946 ] } },
{ "type": "Feature", "properties": { "name": "MARANGUAPE", "bairro_norm": "maranguape", "latitude": -4.0067054122577304, "longitude": -38.810076816729641, "faction_kml": "N/A", "faction_source": "N/A" }, "geometry": { "type": "Point", "coordinates": [ -38.810076816729641, -4.00670541225773 ] } },
{ "type": "Feature", "properties": { "name": "PACAJUS", "bairro_norm": "pacajus", "latitude": -4.1837600554345542, "longitude": -38.496538545632475, "faction_kml": "N/A", "faction_source": "N/A" }, "geometry": { "type": "Point", "coordinates": [ -38.496538545632475, -4.183760055434554 ] } },
{ "type": "Feature", "properties": { "name": "PACATUBA", "bairro_norm": "pacatuba", "latitude": -3.9535351413337412, "longitude": -38.596218613210276, "faction_kml": "N/A", "faction_source": "N/A" }, "geometry": { "type": "Point", "coordinates": [ -38.596218613210276, -3.953535141333741 ] } },
{ "type": "Feature", "properties": { "name": "PARACURU", "bairro_norm": "paracuru", "latitude": -3.4794372232118551, "longitude": -39.03893423146247, "faction_kml": "N/A", "faction_source": "N/A" }, "geometry": { "type": "Point", "coordinates": [ -39.03893423146247, -3.479437223211855 ] } },
{ "type": "Feature", "properties": { "name": "PARAIPABA", "bairro_norm": "paraipaba", "latitude": -3.4224658072646745, "longitude": -39.176258641895231, "faction_kml": "N/A", "faction_source": "N/A" }, "geometry": { "type": "Point", "coordinates": [ -39.176258641895231, -3.422465807264675 ] } },
{ "type": "Feature", "properties": { "name": "PINDORETAMA", "bairro_norm": "pindoretama", "latitude": -4.0553399834817077, "longitude": -38.304326479558483, "faction_kml": "N/A", "faction_source": "N/A" }, "geometry": { "type": "Point", "coordinates": [ -38.304326479558483, -4.055339983481708 ] } },
{ "type": "Feature", "properties": { "name": "SÃO GONÇALO DO AMARANTE", "bairro_norm": "sao goncalo do amarante", "latitude": -3.6000725048934115, "longitude": -39.05988766405121, "faction_kml": "N/A", "faction_source": "N/A" }, "geometry": { "type": "Point", "coordinates": [ -39.05988766405121, -3.600072504893411 ] } },
{ "type": "Feature", "properties": { "name": "SÃO LUÍS DO CURU", "bairro_norm": "sao luis do curu", "latitude": -3.6461652443285635, "longitude": -39.263825746123857, "faction_kml": "N/A", "faction_source": "N/A" }, "geometry": { "type": "Point", "coordinates": [ -39.263825746123857, -3.646165244328563 ] } },
{ "type": "Feature", "properties": { "name": "TRAIRI", "bairro_norm": "trairi", "latitude": -3.3376972359696597, "longitude": -39.3530335333813, "faction_kml": "N/A", "faction_source": "N/A" }, "geometry": { "type": "Point", "coordinates": [ -39.3530335333813, -3.33769723596966 ] } },
{ "type": "Feature", "properties": { "name": "ABAIARA", "bairro_norm": "abaiara", "latitude": -7.3608072856836362, "longitude": -39.036089549391228, "faction_kml": "N/A", "faction_source": "N/A" }, "geometry": { "type": "Point", "coordinates": [ -39.036089549391228, -7.360807285683636 ] } },
{ "type": "Feature", "properties": { "name": "ACARAPE", "bairro_norm": "acarape", "latitude": -4.2155988111767178, "longitude": -38.661699914934118, "faction_kml": "N/A", "faction_source": "N/A" }, "geometry": { "type": "Point", "coordinates": [ -38.661699914934118, -4.215598811176718 ] } },
{ "type": "Feature", "properties": { "name": "ACARAÚ", "bairro_norm": "acarau", "latitude": -2.9685918729790899, "longitude": -40.086776913831955, "faction_kml": "N/A", "faction_source": "N/A" }, "geometry": { "type": "Point", "coordinates": [ -40.086776913831955, -2.96859187297909 ] } },
{ "type": "Feature", "properties": { "name": "ACOPIARA", "bairro_norm": "acopiara", "latitude": -6.1227091965181764, "longitude": -39.49523921585444, "faction_kml": "N/A", "faction_source": "N/A" }, "geometry": { "type": "Point", "coordinates": [ -39.49523921585444, -6.122709196518176 ] } },
{ "type": "Feature", "properties": { "name": "AIUABA", "bairro_norm": "aiuaba", "latitude": -6.6045348572973106, "longitude": -40.297712600369962, "faction_kml": "N/A", "faction_source": "N/A" }, "geometry": { "type": "Point", "coordinates": [ -40.297712600369962, -6.604534857297311 ] } },
{ "type": "Feature", "properties": { "name": "ALCÂNTARAS", "bairro_norm": "alcantaras", "latitude": -3.5950593020236914, "longitude": -40.545970859244015, "faction_kml": "N/A", "faction_source": "N/A" }, "geometry": { "type": "Point", "coordinates": [ -40.545970859244015, -3.595059302023691 ] } },
{ "type": "Feature", "properties": { "name": "ALTANEIRA", "bairro_norm": "altaneira", "latitude": -6.9850413347319691, "longitude": -39.692833794748161, "faction_kml": "N/A", "faction_source": "N/A" }, "geometry": { "type": "Point", "coordinates": [ -39.692833794748161, -6.985041334731969 ] } },
{ "type": "Feature", "properties": { "name": "ALTO SANTO", "bairro_norm": "alto santo", "latitude": -5.5164837817674099, "longitude": -38.240996473767012, "faction_kml": "N/A", "faction_source": "N/A" }, "geometry": { "type": "Point", "coordinates": [ -38.240996473767012, -5.51648378176741 ] } },
{ "type": "Feature", "properties": { "name": "AMONTADA", "bairro_norm": "amontada", "latitude": -3.2387494977335312, "longitude": -39.784957005103735, "faction_kml": "N/A", "faction_source": "N/A" }, "geometry": { "type": "Point", "coordinates": [ -39.784957005103735, -3.238749497733531 ] } },
{ "type": "Feature", "properties": { "name": "ANTONINA DO NORTE", "bairro_norm": "antonina do norte", "latitude": -6.7577619551686192, "longitude": -39.984052782407424, "faction_kml": "N/A", "faction_source": "N/A" }, "geometry": { "type": "Point", "coordinates": [ -39.984052782407424, -6.757761955168619 ] } },
{ "type": "Feature", "properties": { "name": "APUIARÉS", "bairro_norm": "apuiares", "latitude": -3.9693830804446395, "longitude": -39.330485739356106, "faction_kml": "N/A", "faction_source": "N/A" }, "geometry": { "type": "Point", "coordinates": [ -39.330485739356106, -3.969383080444639 ] } },
{ "type": "Feature", "properties": { "name": "ARACATI", "bairro_norm": "aracati", "latitude": -4.6801306788140229, "longitude": -37.686437211973477, "faction_kml": "N/A", "faction_source": "N/A" }, "geometry": { "type": "Point", "coordinates": [ -37.686437211973477, -4.680130678814023 ] } },
{ "type": "Feature", "properties": { "name": "ARACOIABA", "bairro_norm": "aracoiaba", "latitude": -4.4832325611955843, "longitude": -38.715060735456461, "faction_kml": "N/A", "faction_source": "N/A" }, "geometry": { "type": "Point", "coordinates": [ -38.715060735456461, -4.483232561195584 ] } },
{ "type": "Feature", "properties": { "name": "ARARENDÁ", "bairro_norm": "ararenda", "latitude": -4.773622534754959, "longitude": -40.747071250905023, "faction_kml": "N/A", "faction_source": "N/A" }, "geometry": { "type": "Point", "coordinates": [ -40.747071250905023, -4.773622534754959 ] } },
{ "type": "Feature", "properties": { "name": "ARARIPE", "bairro_norm": "araripe", "latitude": -7.2388376976724897, "longitude": -40.076467896807323, "faction_kml": "N/A", "faction_source": "N/A" }, "geometry": { "type": "Point", "coordinates": [ -40.076467896807323, -7.23883769767249 ] } },
{ "type": "Feature", "properties": { "name": "ARATUBA", "bairro_norm": "aratuba", "latitude": -4.4135182321268633, "longitude": -39.024824781163943, "faction_kml": "N/A", "faction_source": "N/A" }, "geometry": { "type": "Point", "coordinates": [ -39.024824781163943, -4.413518232126863 ] } },
{ "type": "Feature", "properties": { "name": "ARNEIROZ", "bairro_norm": "arneiroz", "latitude": -6.2379401389221831, "longitude": -40.152131073016896, "faction_kml": "N/A", "faction_source": "N/A" }, "geometry": { "type": "Point", "coordinates": [ -40.152131073016896, -6.237940138922183 ] } },
{ "type": "Feature", "properties": { "name": "ASSARÉ", "bairro_norm": "assare", "latitude": -6.9101031506422945, "longitude": -39.869566799194153, "faction_kml": "N/A", "faction_source": "N/A" }, "geometry": { "type": "Point", "coordinates": [ -39.869566799194153, -6.910103150642295 ] } },
{ "type": "Feature", "properties": { "name": "AURORA", "bairro_norm": "aurora", "latitude": -6.9882973906341013, "longitude": -38.967569310623212, "faction_kml": "N/A", "faction_source": "N/A" }, "geometry": { "type": "Point", "coordinates": [ -38.967569310623212, -6.988297390634101 ] } },
{ "type": "Feature", "properties": { "name": "BAIXIO", "bairro_norm": "baixio", "latitude": -6.7127244917444422, "longitude": -38.749152575458261, "faction_kml": "N/A", "faction_source": "N/A" }, "geometry": { "type": "Point", "coordinates": [ -38.749152575458261, -6.712724491744442 ] } },
{ "type": "Feature", "properties": { "name": "BANABUIÚ", "bairro_norm": "banabuiu", "latitude": -5.2628687313199274, "longitude": -38.903133160131134, "faction_kml": "N/A", "faction_source": "N/A" }, "geometry": { "type": "Point", "coordinates": [ -38.903133160131134, -5.262868731319927 ] } },
{ "type": "Feature", "properties": { "name": "BARBALHA", "bairro_norm": "barbalha", "latitude": -7.4070201180329871, "longitude": -39.346517666479926, "faction_kml": "N/A", "faction_source": "N/A" }, "geometry": { "type": "Point", "coordinates": [ -39.346517666479926, -7.407020118032987 ] } },
{ "type": "Feature", "properties": { "name": "BARREIRA", "bairro_norm": "barreira", "latitude": -4.3203139393188632, "longitude": -38.619919329523036, "faction_kml": "N/A", "faction_source": "N/A" }, "geometry": { "type": "Point", "coordinates": [ -38.619919329523036, -4.320313939318863 ] } },
{ "type": "Feature", "properties": { "name": "BARRO", "bairro_norm": "barro", "latitude": -7.1246200173021057, "longitude": -38.794956074075223, "faction_kml": "N/A", "faction_source": "N/A" }, "geometry": { "type": "Point", "coordinates": [ -38.794956074075223, -7.124620017302106 ] } },
{ "type": "Feature", "properties": { "name": "BARROQUINHA", "bairro_norm": "barroquinha", "latitude": -2.9698023086226399, "longitude": -41.17322325396303, "faction_kml": "N/A", "faction_source": "N/A" }, "geometry": { "type": "Point", "coordinates": [ -41.17322325396303, -2.96980230862264 ] } },
{ "type": "Feature", "properties": { "name": "BATURITÉ", "bairro_norm": "baturite", "latitude": -4.3870543671776616, "longitude": -38.851241811044723, "faction_kml": "N/A", "faction_source": "N/A" }, "geometry": { "type": "Point", "coordinates": [ -38.851241811044723, -4.387054367177662 ] } },
{ "type": "Feature", "properties": { "name": "BEBERIBE", "bairro_norm": "beberibe", "latitude": -4.4026462427358801, "longitude": -38.113525850099975, "faction_kml": "N/A", "faction_source": "N/A" }, "geometry": { "type": "Point", "coordinates": [ -38.113525850099975, -4.40264624273588 ] } },
{ "type": "Feature", "properties": { "name": "BELA CRUZ", "bairro_norm": "bela cruz", "latitude": -3.0535283867123635, "longitude": -40.307995838960977, "faction_kml": "N/A", "faction_source": "N/A" }, "geometry": { "type": "Point", "coordinates": [ -40.307995838960977, -3.053528386712363 ] } },
{ "type": "Feature", "properties": { "name": "BOA VIAGEM", "bairro_norm": "boa viagem", "latitude": -5.0864546173624712, "longitude": -39.808467167415735, "faction_kml": "N/A", "faction_source": "N/A" }, "geometry": { "type": "Point", "coordinates": [ -39.808467167415735, -5.086454617362471 ] } },
{ "type": "Feature", "properties": { "name": "BREJO SANTO", "bairro_norm": "brejo santo", "latitude": -7.5539905143826829, "longitude": -38.921223446774476, "faction_kml": "N/A", "faction_source": "N/A" }, "geometry": { "type": "Point", "coordinates": [ -38.921223446774476, -7.553990514382683 ] } },
{ "type": "Feature", "properties": { "name": "CAMOCIM", "bairro_norm": "camocim", "latitude": -2.9495076862517347, "longitude": -40.79924142537309, "faction_kml": "N/A", "faction_source": "N/A" }, "geometry": { "type": "Point", "coordinates": [ -40.79924142537309, -2.949507686251735 ] } },
{ "type": "Feature", "properties": { "name": "CAMPOS SALES", "bairro_norm": "campos sales", "latitude": -6.9357873293263079, "longitude": -40.272020999700167, "faction_kml": "N/A", "faction_source": "N/A" }, "geometry": { "type": "Point", "coordinates": [ -40.272020999700167, -6.935787329326308 ] } },
{ "type": "Feature", "properties": { "name": "CANINDÉ", "bairro_norm": "caninde", "latitude": -4.4028281466397132, "longitude": -39.430287664287455, "faction_kml": "N/A", "faction_source": "N/A" }, "geometry": { "type": "Point", "coordinates": [ -39.430287664287455, -4.402828146639713 ] } },
{ "type": "Feature", "properties": { "name": "CAPISTRANO", "bairro_norm": "capistrano", "latitude": -4.4707788597951481, "longitude": -38.905985642552913, "faction_kml": "N/A", "faction_source": "N/A" }, "geometry": { "type": "Point", "coordinates": [ -38.905985642552913, -4.470778859795148 ] } },
{ "type": "Feature", "properties": { "name": "CARIDADE", "bairro_norm": "caridade", "latitude": -4.2036103941178791, "longitude": -39.108757323689296, "faction_kml": "N/A", "faction_source": "N/A" }, "geometry": { "type": "Point", "coordinates": [ -39.108757323689296, -4.203610394117879 ] } },
{ "type": "Feature", "properties": { "name": "CARIRÉ", "bairro_norm": "carire", "latitude": -3.9515527415419722, "longitude": -40.523854656138731, "faction_kml": "N/A", "faction_source": "N/A" }, "geometry": { "type": "Point", "coordinates": [ -40.523854656138731, -3.951552741541972 ] } },
{ "type": "Feature", "properties": { "name": "CARIRIAÇU", "bairro_norm": "caririacu", "latitude": -7.0209021169084105, "longitude": -39.274677381573305, "faction_kml": "N/A", "faction_source": "N/A" }, "geometry": { "type": "Point", "coordinates": [ -39.274677381573305, -7.02090211690841 ] } },
{ "type": "Feature", "properties": { "name": "CARIÚS", "bairro_norm": "carius", "latitude": -6.6444177399578761, "longitude": -39.462843227759777, "faction_kml": "N/A", "faction_source": "N/A" }, "geometry": { "type": "Point", "coordinates": [ -39.462843227759777, -6.644417739957876 ] } },
{ "type": "Feature", "properties": { "name": "CARNAUBAL", "bairro_norm": "carnaubal", "latitude": -4.1301709185183872, "longitude": -41.011673488736683, "faction_kml": "N/A", "faction_source": "N/A" }, "geometry": { "type": "Point", "coordinates": [ -41.011673488736683, -4.130170918518387 ] } },
{ "type": "Feature", "properties": { "name": "CATARINA", "bairro_norm": "catarina", "latitude": -6.2554730292456933, "longitude": -39.908264161401476, "faction_kml": "N/A", "faction_source": "N/A" }, "geometry": { "type": "Point", "coordinates": [ -39.908264161401476, -6.255473029245693 ] } },
{ "type": "Feature", "properties": { "name": "CATUNDA", "bairro_norm": "catunda", "latitude": -4.6298825686655585, "longitude": -40.175308658799885, "faction_kml": "N/A", "faction_source": "N/A" }, "geometry": { "type": "Point", "coordinates": [ -40.175308658799885, -4.629882568665558 ] } },
{ "type": "Feature", "properties": { "name": "CEDRO", "bairro_norm": "cedro", "latitude": -6.5694732128249873, "longitude": -39.094321451613908, "faction_kml": "N/A", "faction_source": "N/A" }, "geometry": { "type": "Point", "coordinates": [ -39.094321451613908, -6.569473212824987 ] } },
{ "type": "Feature", "properties": { "name": "CHAVAL", "bairro_norm": "chaval", "latitude": -3.0914194536470938, "longitude": -41.230903794839392, "faction_kml": "N/A", "faction_source": "N/A" }, "geometry": { "type": "Point", "coordinates": [ -41.230903794839392, -3.091419453647094 ] } },
{ "type": "Feature", "properties": { "name": "CHORÓ", "bairro_norm": "choro", "latitude": -4.7733533671230886, "longitude": -39.190821489956932, "faction_kml": "N/A", "faction_source": "N/A" }, "geometry": { "type": "Point", "coordinates": [ -39.190821489956932, -4.773353367123089 ] } },
{ "type": "Feature", "properties": { "name": "COREAÚ", "bairro_norm": "coreau", "latitude": -3.6425820464182759, "longitude": -40.726138216851936, "faction_kml": "N/A", "faction_source": "N/A" }, "geometry": { "type": "Point", "coordinates": [ -40.726138216851936, -3.642582046418276 ] } },
{ "type": "Feature", "properties": { "name": "CRATEÚS", "bairro_norm": "crateus", "latitude": -5.1998024856666136, "longitude": -40.718272264754631, "faction_kml": "N/A", "faction_source": "N/A" }, "geometry": { "type": "Point", "coordinates": [ -40.718272264754631, -5.199802485666614 ] } },
{ "type": "Feature", "properties": { "name": "CRATO", "bairro_norm": "crato", "latitude": -7.232310559831185, "longitude": -39.489605078331422, "faction_kml": "N/A", "faction_source": "N/A" }, "geometry": { "type": "Point", "coordinates": [ -39.489605078331422, -7.232310559831185 ] } },
{ "type": "Feature", "properties": { "name": "CROATÁ", "bairro_norm": "croata", "latitude": -4.38822255908544, "longitude": -40.975863736252023, "faction_kml": "N/A", "faction_source": "N/A" }, "geometry": { "type": "Point", "coordinates": [ -40.975863736252023, -4.38822255908544 ] } },
{ "type": "Feature", "properties": { "name": "CRUZ", "bairro_norm": "cruz", "latitude": -2.8956538811978549, "longitude": -40.325580451260009, "faction_kml": "N/A", "faction_source": "N/A" }, "geometry": { "type": "Point", "coordinates": [ -40.325580451260009, -2.895653881197855 ] } },
{ "type": "Feature", "properties": { "name": "DEPUTADO IRAPUAN PINHEIRO", "bairro_norm": "deputado irapuan pinheiro", "latitude": -5.8847531217644962, "longitude": -39.266578977721544, "faction_kml": "N/A", "faction_source": "N/A" }, "geometry": { "type": "Point", "coordinates": [ -39.266578977721544, -5.884753121764496 ] } },
{ "type": "Feature", "properties": { "name": "ERERÉ", "bairro_norm": "erere", "latitude": -5.9865165991675848, "longitude": -38.312518753250771, "faction_kml": "N/A", "faction_source": "N/A" }, "geometry": { "type": "Point", "coordinates": [ -38.312518753250771, -5.986516599167585 ] } },
{ "type": "Feature", "properties": { "name": "FORQUILHA", "bairro_norm": "forquilha", "latitude": -3.8229759238770131, "longitude": -40.225185427816101, "faction_kml": "N/A", "faction_source": "N/A" }, "geometry": { "type": "Point", "coordinates": [ -40.225185427816101, -3.822975923877013 ] } },
{ "type": "Feature", "properties": { "name": "FORTIM", "bairro_norm": "fortim", "latitude": -4.4624683523908031, "longitude": -37.871216537534444, "faction_kml": "N/A", "faction_source": "N/A" }, "geometry": { "type": "Point", "coordinates": [ -37.871216537534444, -4.462468352390803 ] } },
{ "type": "Feature", "properties": { "name": "FRECHEIRINHA", "bairro_norm": "frecheirinha", "latitude": -3.7117402004134648, "longitude": -40.821502184084913, "faction_kml": "N/A", "faction_source": "N/A" }, "geometry": { "type": "Point", "coordinates": [ -40.821502184084913, -3.711740200413465 ] } },
{ "type": "Feature", "properties": { "name": "GENERAL SAMPAIO", "bairro_norm": "general sampaio", "latitude": -4.0629344089978003, "longitude": -39.447759801233161, "faction_kml": "N/A", "faction_source": "N/A" }, "geometry": { "type": "Point", "coordinates": [ -39.447759801233161, -4.0629344089978 ] } },
{ "type": "Feature", "properties": { "name": "GRAÇA", "bairro_norm": "graca", "latitude": -4.0456237896679816, "longitude": -40.773590624203528, "faction_kml": "N/A", "faction_source": "N/A" }, "geometry": { "type": "Point", "coordinates": [ -40.773590624203528, -4.045623789667982 ] } },
{ "type": "Feature", "properties": { "name": "GRANJA", "bairro_norm": "granja", "latitude": -3.2310936815691003, "longitude": -41.002134717275766, "faction_kml": "N/A", "faction_source": "N/A" }, "geometry": { "type": "Point", "coordinates": [ -41.002134717275766, -3.2310936815691 ] } },
{ "type": "Feature", "properties": { "name": "GRANJEIRO", "bairro_norm": "granjeiro", "latitude": -6.9087019786204884, "longitude": -39.247584328810603, "faction_kml": "N/A", "faction_source": "N/A" }, "geometry": { "type": "Point", "coordinates": [ -39.247584328810603, -6.908701978620488 ] } },
{ "type": "Feature", "properties": { "name": "GROAÍRAS", "bairro_norm": "groairas", "latitude": -3.9120116460024152, "longitude": -40.364527204077909, "faction_kml": "N/A", "faction_source": "N/A" }, "geometry": { "type": "Point", "coordinates": [ -40.364527204077909, -3.912011646002415 ] } },
{ "type": "Feature", "properties": { "name": "GUARACIABA DO NORTE", "bairro_norm": "guaraciaba do norte", "latitude": -4.2333559759578012, "longitude": -40.915841499493375, "faction_kml": "N/A", "faction_source": "N/A" }, "geometry": { "type": "Point", "coordinates": [ -40.915841499493375, -4.233355975957801 ] } },
{ "type": "Feature", "properties": { "name": "GUARAMIRANGA", "bairro_norm": "guaramiranga", "latitude": -4.2521537434582459, "longitude": -38.953171148794311, "faction_kml": "N/A", "faction_source": "N/A" }, "geometry": { "type": "Point", "coordinates": [ -38.953171148794311, -4.252153743458246 ] } },
{ "type": "Feature", "properties": { "name": "HIDROLÂNDIA", "bairro_norm": "hidrolandia", "latitude": -4.432667852906051, "longitude": -40.406588246553085, "faction_kml": "N/A", "faction_source": "N/A" }, "geometry": { "type": "Point", "coordinates": [ -40.406588246553085, -4.432667852906051 ] } },
{ "type": "Feature", "properties": { "name": "IBARETAMA", "bairro_norm": "ibaretama", "latitude": -4.7793913083433219, "longitude": -38.722798222348388, "faction_kml": "N/A", "faction_source": "N/A" }, "geometry": { "type": "Point", "coordinates": [ -38.722798222348388, -4.779391308343322 ] } },
{ "type": "Feature", "properties": { "name": "IBIAPINA", "bairro_norm": "ibiapina", "latitude": -3.9497785326145842, "longitude": -41.000196751790426, "faction_kml": "N/A", "faction_source": "N/A" }, "geometry": { "type": "Point", "coordinates": [ -41.000196751790426, -3.949778532614584 ] } },
{ "type": "Feature", "properties": { "name": "IBICUITINGA", "bairro_norm": "ibicuitinga", "latitude": -4.9750606582546384, "longitude": -38.559134721173535, "faction_kml": "N/A", "faction_source": "N/A" }, "geometry": { "type": "Point", "coordinates": [ -38.559134721173535, -4.975060658254638 ] } },
{ "type": "Feature", "properties": { "name": "ICAPUÍ", "bairro_norm": "icapui", "latitude": -4.7390599359589638, "longitude": -37.412397655190262, "faction_kml": "N/A", "faction_source": "N/A" }, "geometry": { "type": "Point", "coordinates": [ -37.412397655190262, -4.739059935958964 ] } },
{ "type": "Feature", "properties": { "name": "ICÓ", "bairro_norm": "ico", "latitude": -6.3880202109359789, "longitude": -38.782039238058921, "faction_kml": "N/A", "faction_source": "N/A" }, "geometry": { "type": "Point", "coordinates": [ -38.782039238058921, -6.388020210935979 ] } },
{ "type": "Feature", "properties": { "name": "IGUATU", "bairro_norm": "iguatu", "latitude": -6.3587733050091826, "longitude": -39.282977643452988, "faction_kml": "N/A", "faction_source": "N/A" }, "geometry": { "type": "Point", "coordinates": [ -39.282977643452988, -6.358773305009183 ] } },
{ "type": "Feature", "properties": { "name": "INDEPENDÊNCIA", "bairro_norm": "independencia", "latitude": -5.4749545464253906, "longitude": -40.342243682107757, "faction_kml": "N/A", "faction_source": "N/A" }, "geometry": { "type": "Point", "coordinates": [ -40.342243682107757, -5.474954546425391 ] } },
{ "type": "Feature", "properties": { "name": "IPAPORANGA", "bairro_norm": "ipaporanga", "latitude": -4.9096575621169221, "longitude": -40.803502391778629, "faction_kml": "N/A", "faction_source": "N/A" }, "geometry": { "type": "Point", "coordinates": [ -40.803502391778629, -4.909657562116922 ] } },
{ "type": "Feature", "properties": { "name": "IPAUMIRIM", "bairro_norm": "ipaumirim", "latitude": -6.8066700378489848, "longitude": -38.742916464644686, "faction_kml": "N/A", "faction_source": "N/A" }, "geometry": { "type": "Point", "coordinates": [ -38.742916464644686, -6.806670037848985 ] } },
{ "type": "Feature", "properties": { "name": "IPU", "bairro_norm": "ipu", "latitude": -4.3683197831424119, "longitude": -40.670809067961756, "faction_kml": "N/A", "faction_source": "N/A" }, "geometry": { "type": "Point", "coordinates": [ -40.670809067961756, -4.368319783142412 ] } },
{ "type": "Feature", "properties": { "name": "IPUEIRAS", "bairro_norm": "ipueiras", "latitude": -4.5736191157549397, "longitude": -40.87782447382402, "faction_kml": "N/A", "faction_source": "N/A" }, "geometry": { "type": "Point", "coordinates": [ -40.87782447382402, -4.57361911575494 ] } },
{ "type": "Feature", "properties": { "name": "IRACEMA", "bairro_norm": "iracema", "latitude": -5.7779065820158557, "longitude": -38.336014165156996, "faction_kml": "N/A", "faction_source": "N/A" }, "geometry": { "type": "Point", "coordinates": [ -38.336014165156996, -5.777906582015856 ] } },
{ "type": "Feature", "properties": { "name": "IRAUÇUBA", "bairro_norm": "iraucuba", "latitude": -3.8670734674330349, "longitude": -39.817332161301941, "faction_kml": "N/A", "faction_source": "N/A" }, "geometry": { "type": "Point", "coordinates": [ -39.817332161301941, -3.867073467433035 ] } },
{ "type": "Feature", "properties": { "name": "ITAIÇABA", "bairro_norm": "itaicaba", "latitude": -4.7192033726398517, "longitude": -37.849007138724467, "faction_kml": "N/A", "faction_source": "N/A" }, "geometry": { "type": "Point", "coordinates": [ -37.849007138724467, -4.719203372639852 ] } },
{ "type": "Feature", "properties": { "name": "ITAPAJÉ", "bairro_norm": "itapaje", "latitude": -3.733637765174119, "longitude": -39.575103834869545, "faction_kml": "N/A", "faction_source": "N/A" }, "geometry": { "type": "Point", "coordinates": [ -39.575103834869545, -3.733637765174119 ] } },
{ "type": "Feature", "properties": { "name": "ITAPIPOCA", "bairro_norm": "itapipoca", "latitude": -3.394598555329793, "longitude": -39.597583781366225, "faction_kml": "N/A", "faction_source": "N/A" }, "geometry": { "type": "Point", "coordinates": [ -39.597583781366225, -3.394598555329793 ] } },
{ "type": "Feature", "properties": { "name": "ITAPIÚNA", "bairro_norm": "itapiuna", "latitude": -4.5941677997123662, "longitude": -38.952595203407249, "faction_kml": "N/A", "faction_source": "N/A" }, "geometry": { "type": "Point", "coordinates": [ -38.952595203407249, -4.594167799712366 ] } },
{ "type": "Feature", "properties": { "name": "ITAREMA", "bairro_norm": "itarema", "latitude": -3.0499375040023118, "longitude": -39.889879331985206, "faction_kml": "N/A", "faction_source": "N/A" }, "geometry": { "type": "Point", "coordinates": [ -39.889879331985206, -3.049937504002312 ] } },
{ "type": "Feature", "properties": { "name": "ITATIRA", "bairro_norm": "itatira", "latitude": -4.6264324931577656, "longitude": -39.578320211558832, "faction_kml": "N/A", "faction_source": "N/A" }, "geometry": { "type": "Point", "coordinates": [ -39.578320211558832, -4.626432493157766 ] } },
{ "type": "Feature", "properties": { "name": "JAGUARETAMA", "bairro_norm": "jaguaretama", "latitude": -5.4919120711752738, "longitude": -38.746955349795662, "faction_kml": "N/A", "faction_source": "N/A" }, "geometry": { "type": "Point", "coordinates": [ -38.746955349795662, -5.491912071175274 ] } },
{ "type": "Feature", "properties": { "name": "JAGUARIBARA", "bairro_norm": "jaguaribara", "latitude": -5.6124973306016397, "longitude": -38.524513976745098, "faction_kml": "N/A", "faction_source": "N/A" }, "geometry": { "type": "Point", "coordinates": [ -38.524513976745098, -5.61249733060164 ] } },
{ "type": "Feature", "properties": { "name": "JAGUARIBE", "bairro_norm": "jaguaribe", "latitude": -5.9612556253836653, "longitude": -38.707631108259655, "faction_kml": "N/A", "faction_source": "N/A" }, "geometry": { "type": "Point", "coordinates": [ -38.707631108259655, -5.961255625383665 ] } },
{ "type": "Feature", "properties": { "name": "JAGUARUANA", "bairro_norm": "jaguaruana", "latitude": -4.8666127906084524, "longitude": -37.746118832801024, "faction_kml": "N/A", "faction_source": "N/A" }, "geometry": { "type": "Point", "coordinates": [ -37.746118832801024, -4.866612790608452 ] } },
{ "type": "Feature", "properties": { "name": "JARDIM", "bairro_norm": "jardim", "latitude": -7.5902681373901659, "longitude": -39.248243170518776, "faction_kml": "N/A", "faction_source": "N/A" }, "geometry": { "type": "Point", "coordinates": [ -39.248243170518776, -7.590268137390166 ] } },
{ "type": "Feature", "properties": { "name": "JATI", "bairro_norm": "jati", "latitude": -7.6924012278037193, "longitude": -38.992116145443759, "faction_kml": "N/A", "faction_source": "N/A" }, "geometry": { "type": "Point", "coordinates": [ -38.992116145443759, -7.692401227803719 ] } },
{ "type": "Feature", "properties": { "name": "JIJOCA DE JERICOACOARA", "bairro_norm": "jijoca de jericoacoara", "latitude": -2.8785686248406264, "longitude": -40.494915148040818, "faction_kml": "N/A", "faction_source": "N/A" }, "geometry": { "type": "Point", "coordinates": [ -40.494915148040818, -2.878568624840626 ] } },
{ "type": "Feature", "properties": { "name": "JUAZEIRO DO NORTE", "bairro_norm": "juazeiro do norte", "latitude": -7.1850400648675654, "longitude": -39.286354127491684, "faction_kml": "N/A", "faction_source": "N/A" }, "geometry": { "type": "Point", "coordinates": [ -39.286354127491684, -7.185040064867565 ] } },
{ "type": "Feature", "properties": { "name": "JUCÁS", "bairro_norm": "jucas", "latitude": -6.459954950131765, "longitude": -39.606668315750163, "faction_kml": "N/A", "faction_source": "N/A" }, "geometry": { "type": "Point", "coordinates": [ -39.606668315750163, -6.459954950131765 ] } },
{ "type": "Feature", "properties": { "name": "LAVRAS DA MANGABEIRA", "bairro_norm": "lavras da mangabeira", "latitude": -6.777534288985974, "longitude": -38.994681510155999, "faction_kml": "N/A", "faction_source": "N/A" }, "geometry": { "type": "Point", "coordinates": [ -38.994681510155999, -6.777534288985974 ] } },
{ "type": "Feature", "properties": { "name": "LIMOEIRO DO NORTE", "bairro_norm": "limoeiro do norte", "latitude": -5.1576203565731564, "longitude": -38.047703060436525, "faction_kml": "N/A", "faction_source": "N/A" }, "geometry": { "type": "Point", "coordinates": [ -38.047703060436525, -5.157620356573156 ] } },
{ "type": "Feature", "properties": { "name": "MADALENA", "bairro_norm": "madalena", "latitude": -4.8578670424692962, "longitude": -39.509254461762005, "faction_kml": "N/A", "faction_source": "N/A" }, "geometry": { "type": "Point", "coordinates": [ -39.509254461762005, -4.857867042469296 ] } },
{ "type": "Feature", "properties": { "name": "MARCO", "bairro_norm": "marco", "latitude": -3.1907796773787509, "longitude": -40.263897522512892, "faction_kml": "N/A", "faction_source": "N/A" }, "geometry": { "type": "Point", "coordinates": [ -40.263897522512892, -3.190779677378751 ] } },
{ "type": "Feature", "properties": { "name": "MARTINÓPOLE", "bairro_norm": "martinopole", "latitude": -3.1691826742518341, "longitude": -40.649362133796345, "faction_kml": "N/A", "faction_source": "N/A" }, "geometry": { "type": "Point", "coordinates": [ -40.649362133796345, -3.169182674251834 ] } },
{ "type": "Feature", "properties": { "name": "MASSAPÊ", "bairro_norm": "massape", "latitude": -3.4830183730298141, "longitude": -40.390048740739701, "faction_kml": "N/A", "faction_source": "N/A" }, "geometry": { "type": "Point", "coordinates": [ -40.390048740739701, -3.483018373029814 ] } },
{ "type": "Feature", "properties": { "name": "MAURITI", "bairro_norm": "mauriti", "latitude": -7.3971679529593546, "longitude": -38.718219041890912, "faction_kml": "N/A", "faction_source": "N/A" }, "geometry": { "type": "Point", "coordinates": [ -38.718219041890912, -7.397167952959355 ] } },
{ "type": "Feature", "properties": { "name": "MERUOCA", "bairro_norm": "meruoca", "latitude": -3.5774094528868119, "longitude": -40.454443641719877, "faction_kml": "N/A", "faction_source": "N/A" }, "geometry": { "type": "Point", "coordinates": [ -40.454443641719877, -3.577409452886812 ] } },
{ "type": "Feature", "properties": { "name": "MILAGRES", "bairro_norm": "milagres", "latitude": -7.2724548924637071, "longitude": -38.9431789011212, "faction_kml": "N/A", "faction_source": "N/A" }, "geometry": { "type": "Point", "coordinates": [ -38.9431789011212, -7.272454892463707 ] } },
{ "type": "Feature", "properties": { "name": "MILHÃ", "bairro_norm": "milha", "latitude": -5.6390830378350953, "longitude": -39.168417634337253, "faction_kml": "N/A", "faction_source": "N/A" }, "geometry": { "type": "Point", "coordinates": [ -39.168417634337253, -5.639083037835095 ] } },
{ "type": "Feature", "properties": { "name": "MIRAÍMA", "bairro_norm": "miraima", "latitude": -3.5596593573146205, "longitude": -39.909585818877758, "faction_kml": "N/A", "faction_source": "N/A" }, "geometry": { "type": "Point", "coordinates": [ -39.909585818877758, -3.55965935731462 ] } },
{ "type": "Feature", "properties": { "name": "MISSÃO VELHA", "bairro_norm": "missao velha", "latitude": -7.3071794017114335, "longitude": -39.153082533881175, "faction_kml": "N/A", "faction_source": "N/A" }, "geometry": { "type": "Point", "coordinates": [ -39.153082533881175, -7.307179401711434 ] } },
{ "type": "Feature", "properties": { "name": "MOMBAÇA", "bairro_norm": "mombaca", "latitude": -5.7873540791356648, "longitude": -39.748689886749197, "faction_kml": "N/A", "faction_source": "N/A" }, "geometry": { "type": "Point", "coordinates": [ -39.748689886749197, -5.787354079135665 ] } },
{ "type": "Feature", "properties": { "name": "MONSENHOR TABOSA", "bairro_norm": "monsenhor tabosa", "latitude": -4.9143889071432367, "longitude": -40.044317082451293, "faction_kml": "N/A", "faction_source": "N/A" }, "geometry": { "type": "Point", "coordinates": [ -40.044317082451293, -4.914388907143237 ] } },
{ "type": "Feature", "properties": { "name": "MORADA NOVA", "bairro_norm": "morada nova", "latitude": -5.0335952926368028, "longitude": -38.432046631262224, "faction_kml": "N/A", "faction_source": "N/A" }, "geometry": { "type": "Point", "coordinates": [ -38.432046631262224, -5.033595292636803 ] } },
{ "type": "Feature", "properties": { "name": "MORAÚJO", "bairro_norm": "moraujo", "latitude": -3.4624736662967188, "longitude": -40.683211998831318, "faction_kml": "N/A", "faction_source": "N/A" }, "geometry": { "type": "Point", "coordinates": [ -40.683211998831318, -3.462473666296719 ] } },
{ "type": "Feature", "properties": { "name": "MORRINHOS", "bairro_norm": "morrinhos", "latitude": -3.2849756068059706, "longitude": -40.087282426854166, "faction_kml": "N/A", "faction_source": "N/A" }, "geometry": { "type": "Point", "coordinates": [ -40.087282426854166, -3.284975606805971 ] } },
{ "type": "Feature", "properties": { "name": "MUCAMBO", "bairro_norm": "mucambo", "latitude": -3.8995988093626011, "longitude": -40.757388615141259, "faction_kml": "N/A", "faction_source": "N/A" }, "geometry": { "type": "Point", "coordinates": [ -40.757388615141259, -3.899598809362601 ] } },
{ "type": "Feature", "properties": { "name": "MULUNGU", "bairro_norm": "mulungu", "latitude": -4.3226410072120922, "longitude": -38.993836073764243, "faction_kml": "N/A", "faction_source": "N/A" }, "geometry": { "type": "Point", "coordinates": [ -38.993836073764243, -4.322641007212092 ] } },
{ "type": "Feature", "properties": { "name": "NOVA OLINDA", "bairro_norm": "nova olinda", "latitude": -7.0947660941539752, "longitude": -39.66555708604794, "faction_kml": "N/A", "faction_source": "N/A" }, "geometry": { "type": "Point", "coordinates": [ -39.66555708604794, -7.094766094153975 ] } },
{ "type": "Feature", "properties": { "name": "NOVA RUSSAS", "bairro_norm": "nova russas", "latitude": -4.6787202753214574, "longitude": -40.529163198567673, "faction_kml": "N/A", "faction_source": "N/A" }, "geometry": { "type": "Point", "coordinates": [ -40.529163198567673, -4.678720275321457 ] } },
{ "type": "Feature", "properties": { "name": "NOVO ORIENTE", "bairro_norm": "novo oriente", "latitude": -5.5923873745345976, "longitude": -40.772105429947281, "faction_kml": "N/A", "faction_source": "N/A" }, "geometry": { "type": "Point", "coordinates": [ -40.772105429947281, -5.592387374534598 ] } },
{ "type": "Feature", "properties": { "name": "OCARA", "bairro_norm": "ocara", "latitude": -4.5261256611501288, "longitude": -38.508076729099741, "faction_kml": "N/A", "faction_source": "N/A" }, "geometry": { "type": "Point", "coordinates": [ -38.508076729099741, -4.526125661150129 ] } },
{ "type": "Feature", "properties": { "name": "ORÓS", "bairro_norm": "oros", "latitude": -6.2447048415955102, "longitude": -38.945716963499009, "faction_kml": "N/A", "faction_source": "N/A" }, "geometry": { "type": "Point", "coordinates": [ -38.945716963499009, -6.24470484159551 ] } },
{ "type": "Feature", "properties": { "name": "PACOTI", "bairro_norm": "pacoti", "latitude": -4.1990605704958535, "longitude": -38.902358503470282, "faction_kml": "N/A", "faction_source": "N/A" }, "geometry": { "type": "Point", "coordinates": [ -38.902358503470282, -4.199060570495853 ] } },
{ "type": "Feature", "properties": { "name": "PACUJÁ", "bairro_norm": "pacuja", "latitude": -4.0055825159002723, "longitude": -40.689861815360722, "faction_kml": "N/A", "faction_source": "N/A" }, "geometry": { "type": "Point", "coordinates": [ -40.689861815360722, -4.005582515900272 ] } },
{ "type": "Feature", "properties": { "name": "PALHANO", "bairro_norm": "palhano", "latitude": -4.7086016520056901, "longitude": -38.027456078301569, "faction_kml": "N/A", "faction_source": "N/A" }, "geometry": { "type": "Point", "coordinates": [ -38.027456078301569, -4.70860165200569 ] } },
{ "type": "Feature", "properties": { "name": "PALMÁCIA", "bairro_norm": "palmacia", "latitude": -4.1254494018962147, "longitude": -38.839090332815672, "faction_kml": "N/A", "faction_source": "N/A" }, "geometry": { "type": "Point", "coordinates": [ -38.839090332815672, -4.125449401896215 ] } },
{ "type": "Feature", "properties": { "name": "PARAMBU", "bairro_norm": "parambu", "latitude": -6.3024221571079941, "longitude": -40.628851656875355, "faction_kml": "N/A", "faction_source": "N/A" }, "geometry": { "type": "Point", "coordinates": [ -40.628851656875355, -6.302422157107994 ] } },
{ "type": "Feature", "properties": { "name": "PARAMOTI", "bairro_norm": "paramoti", "latitude": -4.1600429461961914, "longitude": -39.376711119061589, "faction_kml": "N/A", "faction_source": "N/A" }, "geometry": { "type": "Point", "coordinates": [ -39.376711119061589, -4.160042946196191 ] } },
{ "type": "Feature", "properties": { "name": "PEDRA BRANCA", "bairro_norm": "pedra branca", "latitude": -5.496571717808977, "longitude": -39.847069189734455, "faction_kml": "N/A", "faction_source": "N/A" }, "geometry": { "type": "Point", "coordinates": [ -39.847069189734455, -5.496571717808977 ] } },
{ "type": "Feature", "properties": { "name": "PENAFORTE", "bairro_norm": "penaforte", "latitude": -7.7776884011334388, "longitude": -39.053766841061424, "faction_kml": "N/A", "faction_source": "N/A" }, "geometry": { "type": "Point", "coordinates": [ -39.053766841061424, -7.777688401133439 ] } },
{ "type": "Feature", "properties": { "name": "PENTECOSTE", "bairro_norm": "pentecoste", "latitude": -3.8545794814729528, "longitude": -39.146003027418324, "faction_kml": "N/A", "faction_source": "N/A" }, "geometry": { "type": "Point", "coordinates": [ -39.146003027418324, -3.854579481472953 ] } },
{ "type": "Feature", "properties": { "name": "PEREIRO", "bairro_norm": "pereiro", "latitude": -6.0363313091682516, "longitude": -38.488248952233505, "faction_kml": "N/A", "faction_source": "N/A" }, "geometry": { "type": "Point", "coordinates": [ -38.488248952233505, -6.036331309168252 ] } },
{ "type": "Feature", "properties": { "name": "PIQUET CARNEIRO", "bairro_norm": "piquet carneiro", "latitude": -5.8624087124472455, "longitude": -39.450336130112071, "faction_kml": "N/A", "faction_source": "N/A" }, "geometry": { "type": "Point", "coordinates": [ -39.450336130112071, -5.862408712447245 ] } },
{ "type": "Feature", "properties": { "name": "PIRES FERREIRA", "bairro_norm": "pires ferreira", "latitude": -4.2585592476831637, "longitude": -40.585497003337828, "faction_kml": "N/A", "faction_source": "N/A" }, "geometry": { "type": "Point", "coordinates": [ -40.585497003337828, -4.258559247683164 ] } },
{ "type": "Feature", "properties": { "name": "PORANGA", "bairro_norm": "poranga", "latitude": -4.7990994514499032, "longitude": -41.078708114532496, "faction_kml": "N/A", "faction_source": "N/A" }, "geometry": { "type": "Point", "coordinates": [ -41.078708114532496, -4.799099451449903 ] } },
{ "type": "Feature", "properties": { "name": "PORTEIRAS", "bairro_norm": "porteiras", "latitude": -7.5416791500102907, "longitude": -39.106367626009607, "faction_kml": "N/A", "faction_source": "N/A" }, "geometry": { "type": "Point", "coordinates": [ -39.106367626009607, -7.541679150010291 ] } },
{ "type": "Feature", "properties": { "name": "POTENGI", "bairro_norm": "potengi", "latitude": -7.0736545942070768, "longitude": -40.036014267283932, "faction_kml": "N/A", "faction_source": "N/A" }, "geometry": { "type": "Point", "coordinates": [ -40.036014267283932, -7.073654594207077 ] } },
{ "type": "Feature", "properties": { "name": "POTIRETAMA", "bairro_norm": "potiretama", "latitude": -5.7495339118071289, "longitude": -38.16690961369828, "faction_kml": "N/A", "faction_source": "N/A" }, "geometry": { "type": "Point", "coordinates": [ -38.16690961369828, -5.749533911807129 ] } },
{ "type": "Feature", "properties": { "name": "QUITERIANÓPOLIS", "bairro_norm": "quiterianopolis", "latitude": -5.8722984988487941, "longitude": -40.763143823033758, "faction_kml": "N/A", "faction_source": "N/A" }, "geometry": { "type": "Point", "coordinates": [ -40.763143823033758, -5.872298498848794 ] } },
{ "type": "Feature", "properties": { "name": "QUIXADÁ", "bairro_norm": "quixada", "latitude": -4.955590540138564, "longitude": -38.945632175464105, "faction_kml": "N/A", "faction_source": "N/A" }, "geometry": { "type": "Point", "coordinates": [ -38.945632175464105, -4.955590540138564 ] } },
{ "type": "Feature", "properties": { "name": "QUIXELÔ", "bairro_norm": "quixelo", "latitude": -6.1753894737401467, "longitude": -39.118971882759112, "faction_kml": "N/A", "faction_source": "N/A" }, "geometry": { "type": "Point", "coordinates": [ -39.118971882759112, -6.175389473740147 ] } },
{ "type": "Feature", "properties": { "name": "QUIXERAMOBIM", "bairro_norm": "quixeramobim", "latitude": -5.2449388045159502, "longitude": -39.333521206613696, "faction_kml": "N/A", "faction_source": "N/A" }, "geometry": { "type": "Point", "coordinates": [ -39.333521206613696, -5.24493880451595 ] } },
{ "type": "Feature", "properties": { "name": "QUIXERÉ", "bairro_norm": "quixere", "latitude": -5.0879208999806744, "longitude": -37.86120808239091, "faction_kml": "N/A", "faction_source": "N/A" }, "geometry": { "type": "Point", "coordinates": [ -37.86120808239091, -5.087920899980674 ] } },
{ "type": "Feature", "properties": { "name": "REDENÇÃO", "bairro_norm": "redencao", "latitude": -4.2461004205547948, "longitude": -38.762189627008169, "faction_kml": "N/A", "faction_source": "N/A" }, "geometry": { "type": "Point", "coordinates": [ -38.762189627008169, -4.246100420554795 ] } },
{ "type": "Feature", "properties": { "name": "RERIUTABA", "bairro_norm": "reriutaba", "latitude": -4.1191370879717812, "longitude": -40.612924479949569, "faction_kml": "N/A", "faction_source": "N/A" }, "geometry": { "type": "Point", "coordinates": [ -40.612924479949569, -4.119137087971781 ] } },
{ "type": "Feature", "properties": { "name": "RUSSAS", "bairro_norm": "russas", "latitude": -4.8433553179648845, "longitude": -38.147271588852547, "faction_kml": "N/A", "faction_source": "N/A" }, "geometry": { "type": "Point", "coordinates": [ -38.147271588852547, -4.843355317964884 ] } },
{ "type": "Feature", "properties": { "name": "SABOEIRO", "bairro_norm": "saboeiro", "latitude": -6.4862144305289835, "longitude": -39.887402495171791, "faction_kml": "N/A", "faction_source": "N/A" }, "geometry": { "type": "Point", "coordinates": [ -39.887402495171791, -6.486214430528983 ] } },
{ "type": "Feature", "properties": { "name": "SALITRE", "bairro_norm": "salitre", "latitude": -7.2034224332518972, "longitude": -40.365131522273522, "faction_kml": "N/A", "faction_source": "N/A" }, "geometry": { "type": "Point", "coordinates": [ -40.365131522273522, -7.203422433251897 ] } },
{ "type": "Feature", "properties": { "name": "SANTANA DO ACARAÚ", "bairro_norm": "santana do acarau", "latitude": -3.462493730611969, "longitude": -40.166035154527286, "faction_kml": "N/A", "faction_source": "N/A" }, "geometry": { "type": "Point", "coordinates": [ -40.166035154527286, -3.462493730611969 ] } },
{ "type": "Feature", "properties": { "name": "SANTANA DO CARIRI", "bairro_norm": "santana do cariri", "latitude": -7.2223694591013388, "longitude": -39.757206239639942, "faction_kml": "N/A", "faction_source": "N/A" }, "geometry": { "type": "Point", "coordinates": [ -39.757206239639942, -7.222369459101339 ] } },
{ "type": "Feature", "properties": { "name": "SANTA QUITÉRIA", "bairro_norm": "santa quiteria", "latitude": -4.3400338472981046, "longitude": -40.042909199119855, "faction_kml": "N/A", "faction_source": "N/A" }, "geometry": { "type": "Point", "coordinates": [ -40.042909199119855, -4.340033847298105 ] } },
{ "type": "Feature", "properties": { "name": "SÃO BENEDITO", "bairro_norm": "sao benedito", "latitude": -4.0410128298076797, "longitude": -40.968912778180695, "faction_kml": "N/A", "faction_source": "N/A" }, "geometry": { "type": "Point", "coordinates": [ -40.968912778180695, -4.04101282980768 ] } },
{ "type": "Feature", "properties": { "name": "SÃO JOÃO DO JAGUARIBE", "bairro_norm": "sao joao do jaguaribe", "latitude": -5.3263780392744691, "longitude": -38.272001380180512, "faction_kml": "N/A", "faction_source": "N/A" }, "geometry": { "type": "Point", "coordinates": [ -38.272001380180512, -5.326378039274469 ] } },
{ "type": "Feature", "properties": { "name": "SENADOR POMPEU", "bairro_norm": "senador pompeu", "latitude": -5.5881187734012929, "longitude": -39.433306251255765, "faction_kml": "N/A", "faction_source": "N/A" }, "geometry": { "type": "Point", "coordinates": [ -39.433306251255765, -5.588118773401293 ] } },
{ "type": "Feature", "properties": { "name": "SENADOR SÁ", "bairro_norm": "senador sa", "latitude": -3.2683223783835142, "longitude": -40.461400409814857, "faction_kml": "N/A", "faction_source": "N/A" }, "geometry": { "type": "Point", "coordinates": [ -40.461400409814857, -3.268322378383514 ] } },
{ "type": "Feature", "properties": { "name": "SOBRAL", "bairro_norm": "sobral", "latitude": -3.8116792701237103, "longitude": -40.227884511243623, "faction_kml": "N/A", "faction_source": "N/A" }, "geometry": { "type": "Point", "coordinates": [ -40.227884511243623, -3.81167927012371 ] } },
{ "type": "Feature", "properties": { "name": "SOLONÓPOLE", "bairro_norm": "solonopole", "latitude": -5.7768627868450029, "longitude": -39.003354076829396, "faction_kml": "N/A", "faction_source": "N/A" }, "geometry": { "type": "Point", "coordinates": [ -39.003354076829396, -5.776862786845003 ] } },
{ "type": "Feature", "properties": { "name": "TABULEIRO DO NORTE", "bairro_norm": "tabuleiro do norte", "latitude": -5.3622434743999507, "longitude": -38.026403097544581, "faction_kml": "N/A", "faction_source": "N/A" }, "geometry": { "type": "Point", "coordinates": [ -38.026403097544581, -5.362243474399951 ] } },
{ "type": "Feature", "properties": { "name": "TAMBORIL", "bairro_norm": "tamboril", "latitude": -4.9199814639318964, "longitude": -40.336067865242292, "faction_kml": "N/A", "faction_source": "N/A" }, "geometry": { "type": "Point", "coordinates": [ -40.336067865242292, -4.919981463931896 ] } },
{ "type": "Feature", "properties": { "name": "TARRAFAS", "bairro_norm": "tarrafas", "latitude": -6.7303409505734564, "longitude": -39.737226075332096, "faction_kml": "N/A", "faction_source": "N/A" }, "geometry": { "type": "Point", "coordinates": [ -39.737226075332096, -6.730340950573456 ] } },
{ "type": "Feature", "properties": { "name": "TAUÁ", "bairro_norm": "taua", "latitude": -5.9363287539358218, "longitude": -40.259221492555341, "faction_kml": "N/A", "faction_source": "N/A" }, "geometry": { "type": "Point", "coordinates": [ -40.259221492555341, -5.936328753935822 ] } },
{ "type": "Feature", "properties": { "name": "TEJUÇUOCA", "bairro_norm": "tejucuoca", "latitude": -3.9340021504093388, "longitude": -39.583108313162356, "faction_kml": "N/A", "faction_source": "N/A" }, "geometry": { "type": "Point", "coordinates": [ -39.583108313162356, -3.934002150409339 ] } },
{ "type": "Feature", "properties": { "name": "TIANGUÁ", "bairro_norm": "tiangua", "latitude": -3.7353653843233112, "longitude": -41.053792747361236, "faction_kml": "N/A", "faction_source": "N/A" }, "geometry": { "type": "Point", "coordinates": [ -41.053792747361236, -3.735365384323311 ] } },
{ "type": "Feature", "properties": { "name": "TURURU", "bairro_norm": "tururu", "latitude": -3.5529075654838991, "longitude": -39.403754846584562, "faction_kml": "N/A", "faction_source": "N/A" }, "geometry": { "type": "Point", "coordinates": [ -39.403754846584562, -3.552907565483899 ] } },
{ "type": "Feature", "properties": { "name": "UBAJARA", "bairro_norm": "ubajara", "latitude": -3.8678115605768828, "longitude": -41.006125523861186, "faction_kml": "N/A", "faction_source": "N/A" }, "geometry": { "type": "Point", "coordinates": [ -41.006125523861186, -3.867811560576883 ] } },
{ "type": "Feature", "properties": { "name": "UMARI", "bairro_norm": "umari", "latitude": -6.6234511230224076, "longitude": -38.730914289711606, "faction_kml": "N/A", "faction_source": "N/A" }, "geometry": { "type": "Point", "coordinates": [ -38.730914289711606, -6.623451123022408 ] } },
{ "type": "Feature", "properties": { "name": "UMIRIM", "bairro_norm": "umirim", "latitude": -3.6876514957857918, "longitude": -39.384479562340815, "faction_kml": "N/A", "faction_source": "N/A" }, "geometry": { "type": "Point", "coordinates": [ -39.384479562340815, -3.687651495785792 ] } },
{ "type": "Feature", "properties": { "name": "URUBURETAMA", "bairro_norm": "uruburetama", "latitude": -3.6218583955412127, "longitude": -39.516812133893247, "faction_kml": "N/A", "faction_source": "N/A" }, "geometry": { "type": "Point", "coordinates": [ -39.516812133893247, -3.621858395541213 ] } },
{ "type": "Feature", "properties": { "name": "URUOCA", "bairro_norm": "uruoca", "latitude": -3.3205597763594086, "longitude": -40.676198900797701, "faction_kml": "N/A", "faction_source": "N/A" }, "geometry": { "type": "Point", "coordinates": [ -40.676198900797701, -3.320559776359409 ] } },
{ "type": "Feature", "properties": { "name": "VÁRZEA ALEGRE", "bairro_norm": "varzea alegre", "latitude": -6.7726938503084044, "longitude": -39.29782095706797, "faction_kml": "N/A", "faction_source": "N/A" }, "geometry": { "type": "Point", "coordinates": [ -39.29782095706797, -6.772693850308404 ] } },
{ "type": "Feature", "properties": { "name": "VIÇOSA DO CEARÁ", "bairro_norm": "vicosa do ceara", "latitude": -3.5484629957376455, "longitude": -41.134896411524956, "faction_kml": "N/A", "faction_source": "N/A" }, "geometry": { "type": "Point", "coordinates": [ -41.134896411524956, -3.548462995737645 ] } }
]
}
