{
  "type": "FeatureCollection",
  "features": [
    {
      "type": "Feature",
      "properties": {
        "node_id": 1,
        "rank": 1,
        "name": "MATA DOS LIMAS",
        "bairro": "JUAZEIRO DO NORTE",
        "faction": "CV",
        "risk_score": 94.3,
        "score": 94.3,
        "region": "interior",
        "is_tactical": true,
        "generated_at": "2026-05-12T14:48:37.250662"
      },
      "geometry": {
        "type": "Point",
        "coordinates": [
          -39.325263686666666,
          -7.279065693333333
        ]
      }
    },
    {
      "type": "Feature",
      "properties": {
        "node_id": 2,
        "rank": 2,
        "name": "Horto- Juazeiro do Norte",
        "bairro": "JUAZEIRO DO NORTE",
        "faction": "CV",
        "risk_score": 94.3,
        "score": 94.3,
        "region": "interior",
        "is_tactical": true,
        "generated_at": "2026-05-12T14:48:37.250682"
      },
      "geometry": {
        "type": "Point",
        "coordinates": [
          -39.32892238356164,
          -7.183216164383562
        ]
      }
    },
    {
      "type": "Feature",
      "properties": {
        "node_id": 3,
        "rank": 3,
        "name": "Bairro Antonio Vieira",
        "bairro": "JUAZEIRO DO NORTE",
        "faction": "CV",
        "risk_score": 94.3,
        "score": 94.3,
        "region": "interior",
        "is_tactical": true,
        "generated_at": "2026-05-12T14:48:37.250695"
      },
      "geometry": {
        "type": "Point",
        "coordinates": [
          -39.333412599999996,
          -7.2221098
        ]
      }
    },
    {
      "type": "Feature",
      "properties": {
        "node_id": 4,
        "rank": 4,
        "name": "Santo Antônio- Juazeiro do Norte",
        "bairro": "JUAZEIRO DO NORTE",
        "faction": "CV",
        "risk_score": 94.3,
        "score": 94.3,
        "region": "interior",
        "is_tactical": true,
        "generated_at": "2026-05-12T14:48:37.250708"
      },
      "geometry": {
        "type": "Point",
        "coordinates": [
          -39.329328181818184,
          -7.215488045454546
        ]
      }
    },
    {
      "type": "Feature",
      "properties": {
        "node_id": 5,
        "rank": 5,
        "name": "Salesianos",
        "bairro": "JUAZEIRO DO NORTE",
        "faction": "CV",
        "risk_score": 94.3,
        "score": 94.3,
        "region": "interior",
        "is_tactical": true,
        "generated_at": "2026-05-12T14:48:37.250720"
      },
      "geometry": {
        "type": "Point",
        "coordinates": [
          -39.325018744680854,
          -7.209594425531915
        ]
      }
    },
    {
      "type": "Feature",
      "properties": {
        "node_id": 6,
        "rank": 6,
        "name": "Socorro",
        "bairro": "JUAZEIRO DO NORTE",
        "faction": "CV",
        "risk_score": 94.3,
        "score": 94.3,
        "region": "interior",
        "is_tactical": true,
        "generated_at": "2026-05-12T14:48:37.250732"
      },
      "geometry": {
        "type": "Point",
        "coordinates": [
          -39.32336263888889,
          -7.202973916666666
        ]
      }
    },
    {
      "type": "Feature",
      "properties": {
        "node_id": 7,
        "rank": 7,
        "name": "Faixa de Gaza",
        "bairro": "JUAZEIRO DO NORTE",
        "faction": "CV",
        "risk_score": 94.3,
        "score": 94.3,
        "region": "interior",
        "is_tactical": true,
        "generated_at": "2026-05-12T14:48:37.250745"
      },
      "geometry": {
        "type": "Point",
        "coordinates": [
          -39.321389875,
          -7.219006375
        ]
      }
    },
    {
      "type": "Feature",
      "properties": {
        "node_id": 8,
        "rank": 8,
        "name": "João Cabral",
        "bairro": "JUAZEIRO DO NORTE",
        "faction": "CV",
        "risk_score": 94.3,
        "score": 94.3,
        "region": "interior",
        "is_tactical": true,
        "generated_at": "2026-05-12T14:48:37.250756"
      },
      "geometry": {
        "type": "Point",
        "coordinates": [
          -39.31815930434783,
          -7.2331518695652175
        ]
      }
    },
    {
      "type": "Feature",
      "properties": {
        "node_id": 9,
        "rank": 9,
        "name": "São José",
        "bairro": "JUAZEIRO DO NORTE",
        "faction": "CV",
        "risk_score": 94.3,
        "score": 94.3,
        "region": "interior",
        "is_tactical": true,
        "generated_at": "2026-05-12T14:48:37.250768"
      },
      "geometry": {
        "type": "Point",
        "coordinates": [
          -39.349109416666664,
          -7.229535208333334
        ]
      }
    },
    {
      "type": "Feature",
      "properties": {
        "node_id": 10,
        "rank": 10,
        "name": "Bairro do Triângulo",
        "bairro": "JUAZEIRO DO NORTE",
        "faction": "CV",
        "risk_score": 94.3,
        "score": 94.3,
        "region": "interior",
        "is_tactical": true,
        "generated_at": "2026-05-12T14:48:37.250780"
      },
      "geometry": {
        "type": "Point",
        "coordinates": [
          -39.326881428571426,
          -7.231872107142857
        ]
      }
    },
    {
      "type": "Feature",
      "properties": {
        "node_id": 11,
        "rank": 11,
        "name": "Lagoa Seca- Juazeiro do Norte",
        "bairro": "JUAZEIRO DO NORTE",
        "faction": "CV",
        "risk_score": 94.3,
        "score": 94.3,
        "region": "interior",
        "is_tactical": true,
        "generated_at": "2026-05-12T14:48:37.250795"
      },
      "geometry": {
        "type": "Point",
        "coordinates": [
          -39.326133222222225,
          -7.247637000000001
        ]
      }
    },
    {
      "type": "Feature",
      "properties": {
        "node_id": 12,
        "rank": 12,
        "name": "Bairro José Geraldo da Cruz",
        "bairro": "JUAZEIRO DO NORTE",
        "faction": "CV",
        "risk_score": 94.3,
        "score": 94.3,
        "region": "interior",
        "is_tactical": true,
        "generated_at": "2026-05-12T14:48:37.250807"
      },
      "geometry": {
        "type": "Point",
        "coordinates": [
          -39.3048692,
          -7.2387502
        ]
      }
    },
    {
      "type": "Feature",
      "properties": {
        "node_id": 13,
        "rank": 13,
        "name": "Franciscano ",
        "bairro": "JUAZEIRO DO NORTE",
        "faction": "CV",
        "risk_score": 94.3,
        "score": 94.3,
        "region": "interior",
        "is_tactical": true,
        "generated_at": "2026-05-12T14:48:37.250819"
      },
      "geometry": {
        "type": "Point",
        "coordinates": [
          -39.31343644444445,
          -7.213875
        ]
      }
    },
    {
      "type": "Feature",
      "properties": {
        "node_id": 14,
        "rank": 14,
        "name": "Bairro Limoeiro ",
        "bairro": "JUAZEIRO DO NORTE",
        "faction": "CV",
        "risk_score": 94.3,
        "score": 94.3,
        "region": "interior",
        "is_tactical": true,
        "generated_at": "2026-05-12T14:48:37.250830"
      },
      "geometry": {
        "type": "Point",
        "coordinates": [
          -39.30056788235294,
          -7.224925588235294
        ]
      }
    },
    {
      "type": "Feature",
      "properties": {
        "node_id": 15,
        "rank": 15,
        "name": "Romeirão",
        "bairro": "JUAZEIRO DO NORTE",
        "faction": "CV",
        "risk_score": 94.3,
        "score": 94.3,
        "region": "interior",
        "is_tactical": true,
        "generated_at": "2026-05-12T14:48:37.250842"
      },
      "geometry": {
        "type": "Point",
        "coordinates": [
          -39.31531508333333,
          -7.2254932499999995
        ]
      }
    },
    {
      "type": "Feature",
      "properties": {
        "node_id": 16,
        "rank": 16,
        "name": "Vila Nova",
        "bairro": "JUAZEIRO DO NORTE",
        "faction": "CV",
        "risk_score": 94.3,
        "score": 94.3,
        "region": "interior",
        "is_tactical": true,
        "generated_at": "2026-05-12T14:48:37.250853"
      },
      "geometry": {
        "type": "Point",
        "coordinates": [
          -39.27197727586207,
          -7.198310034482758
        ]
      }
    },
    {
      "type": "Feature",
      "properties": {
        "node_id": 17,
        "rank": 17,
        "name": "Bairro da Malvinas - Barbalha",
        "bairro": "JUAZEIRO DO NORTE",
        "faction": "CV",
        "risk_score": 94.3,
        "score": 94.3,
        "region": "interior",
        "is_tactical": true,
        "generated_at": "2026-05-12T14:48:37.250865"
      },
      "geometry": {
        "type": "Point",
        "coordinates": [
          -39.28155913636363,
          -7.3030473863636365
        ]
      }
    },
    {
      "type": "Feature",
      "properties": {
        "node_id": 18,
        "rank": 18,
        "name": "Pedrinhas",
        "bairro": "JUAZEIRO DO NORTE",
        "faction": "CV",
        "risk_score": 94.3,
        "score": 94.3,
        "region": "interior",
        "is_tactical": true,
        "generated_at": "2026-05-12T14:48:37.250877"
      },
      "geometry": {
        "type": "Point",
        "coordinates": [
          -39.27631445,
          -7.199595775000001
        ]
      }
    },
    {
      "type": "Feature",
      "properties": {
        "node_id": 19,
        "rank": 19,
        "name": "Timbaúba",
        "bairro": "JUAZEIRO DO NORTE",
        "faction": "CV",
        "risk_score": 94.3,
        "score": 94.3,
        "region": "interior",
        "is_tactical": true,
        "generated_at": "2026-05-12T14:48:37.250888"
      },
      "geometry": {
        "type": "Point",
        "coordinates": [
          -39.30158315,
          -7.215591399999999
        ]
      }
    },
    {
      "type": "Feature",
      "properties": {
        "node_id": 20,
        "rank": 20,
        "name": "Alto",
        "bairro": "JUAZEIRO DO NORTE",
        "faction": "CV",
        "risk_score": 94.3,
        "score": 94.3,
        "region": "interior",
        "is_tactical": true,
        "generated_at": "2026-05-12T14:48:37.250900"
      },
      "geometry": {
        "type": "Point",
        "coordinates": [
          -39.312726874999996,
          -7.2051638125
        ]
      }
    },
    {
      "type": "Feature",
      "properties": {
        "node_id": 21,
        "rank": 21,
        "name": "Campo Alegre ",
        "bairro": "JUAZEIRO DO NORTE",
        "faction": "CV",
        "risk_score": 94.3,
        "score": 94.3,
        "region": "interior",
        "is_tactical": true,
        "generated_at": "2026-05-12T14:48:37.250911"
      },
      "geometry": {
        "type": "Point",
        "coordinates": [
          -39.28797613888889,
          -7.250806111111111
        ]
      }
    },
    {
      "type": "Feature",
      "properties": {
        "node_id": 22,
        "rank": 22,
        "name": "Sítio Estrela - Barbalha",
        "bairro": "JUAZEIRO DO NORTE",
        "faction": "CV",
        "risk_score": 94.3,
        "score": 94.3,
        "region": "interior",
        "is_tactical": true,
        "generated_at": "2026-05-12T14:48:37.250922"
      },
      "geometry": {
        "type": "Point",
        "coordinates": [
          -39.26650672413793,
          -7.279947310344827
        ]
      }
    },
    {
      "type": "Feature",
      "properties": {
        "node_id": 23,
        "rank": 23,
        "name": "Bulandeira - Barbalha",
        "bairro": "JUAZEIRO DO NORTE",
        "faction": "CV",
        "risk_score": 94.3,
        "score": 94.3,
        "region": "interior",
        "is_tactical": true,
        "generated_at": "2026-05-12T14:48:37.250934"
      },
      "geometry": {
        "type": "Point",
        "coordinates": [
          -39.31173175,
          -7.293588833333334
        ]
      }
    },
    {
      "type": "Feature",
      "properties": {
        "node_id": 24,
        "rank": 24,
        "name": "Lagoa - Barbalha",
        "bairro": "JUAZEIRO DO NORTE",
        "faction": "CV",
        "risk_score": 94.3,
        "score": 94.3,
        "region": "interior",
        "is_tactical": true,
        "generated_at": "2026-05-12T14:48:37.250946"
      },
      "geometry": {
        "type": "Point",
        "coordinates": [
          -39.291011727272725,
          -7.279823954545455
        ]
      }
    },
    {
      "type": "Feature",
      "properties": {
        "node_id": 25,
        "rank": 25,
        "name": "Residencial Nossa Senhora das Dores - Juazeiro do norte",
        "bairro": "JUAZEIRO DO NORTE",
        "faction": "CV",
        "risk_score": 94.3,
        "score": 94.3,
        "region": "interior",
        "is_tactical": true,
        "generated_at": "2026-05-12T14:48:37.250957"
      },
      "geometry": {
        "type": "Point",
        "coordinates": [
          -39.27799215384616,
          -7.224133384615385
        ]
      }
    },
    {
      "type": "Feature",
      "properties": {
        "node_id": 26,
        "rank": 26,
        "name": "Residencial São Sebastião",
        "bairro": "JUAZEIRO DO NORTE",
        "faction": "CV",
        "risk_score": 94.3,
        "score": 94.3,
        "region": "interior",
        "is_tactical": true,
        "generated_at": "2026-05-12T14:48:37.250969"
      },
      "geometry": {
        "type": "Point",
        "coordinates": [
          -39.271257142857145,
          -7.230486142857143
        ]
      }
    },
    {
      "type": "Feature",
      "properties": {
        "node_id": 27,
        "rank": 27,
        "name": "Bertolândia",
        "bairro": "JUAZEIRO DO NORTE",
        "faction": "CV",
        "risk_score": 94.3,
        "score": 94.3,
        "region": "interior",
        "is_tactical": true,
        "generated_at": "2026-05-12T14:48:37.250980"
      },
      "geometry": {
        "type": "Point",
        "coordinates": [
          -39.28222486666667,
          -7.2311659666666666
        ]
      }
    },
    {
      "type": "Feature",
      "properties": {
        "node_id": 28,
        "rank": 28,
        "name": "Mutirão ",
        "bairro": "JUAZEIRO DO NORTE",
        "faction": "CV",
        "risk_score": 94.3,
        "score": 94.3,
        "region": "interior",
        "is_tactical": true,
        "generated_at": "2026-05-12T14:48:37.250992"
      },
      "geometry": {
        "type": "Point",
        "coordinates": [
          -39.34112122222222,
          -7.235104000000001
        ]
      }
    },
    {
      "type": "Feature",
      "properties": {
        "node_id": 29,
        "rank": 29,
        "name": "Mutirão ll ou Frei Damião ",
        "bairro": "JUAZEIRO DO NORTE",
        "faction": "CV",
        "risk_score": 94.3,
        "score": 94.3,
        "region": "interior",
        "is_tactical": true,
        "generated_at": "2026-05-12T14:48:37.251004"
      },
      "geometry": {
        "type": "Point",
        "coordinates": [
          -39.33870954545454,
          -7.244146545454544
        ]
      }
    },
    {
      "type": "Feature",
      "properties": {
        "node_id": 30,
        "rank": 30,
        "name": "SÃO JOSÉ X COM JN",
        "bairro": "JUAZEIRO DO NORTE",
        "faction": "CV",
        "risk_score": 94.3,
        "score": 94.3,
        "region": "interior",
        "is_tactical": true,
        "generated_at": "2026-05-12T14:48:37.251015"
      },
      "geometry": {
        "type": "Point",
        "coordinates": [
          -39.363320996296295,
          -7.234312781481481
        ]
      }
    }
  ]
}