{
  "type": "FeatureCollection",
  "features": [
    {
      "type": "Feature",
      "properties": {
        "rank": 1,
        "name": "CURIÓ",
        "faction": "CV",
        "municipality": "Fortaleza",
        "region": "capital",
        "cvli_count": 23,
        "score": 16.168,
        "geometry_type": "Point"
      },
      "geometry": {
        "type": "Point",
        "coordinates": [
          -38.47656395951951,
          -3.818703
        ]
      }
    },
    {
      "type": "Feature",
      "properties": {
        "rank": 2,
        "name": "CURIÓ",
        "faction": "MASSA",
        "municipality": "Fortaleza",
        "region": "capital",
        "cvli_count": 21,
        "score": 15.178,
        "geometry_type": "Point"
      },
      "geometry": {
        "type": "Point",
        "coordinates": [
          -38.478871509052766,
          -3.8212305
        ]
      }
    },
    {
      "type": "Feature",
      "properties": {
        "rank": 3,
        "name": "CURIÓ",
        "faction": "MASSA",
        "municipality": "Fortaleza",
        "region": "capital",
        "cvli_count": 21,
        "score": 14.818,
        "geometry_type": "Point"
      },
      "geometry": {
        "type": "Point",
        "coordinates": [
          -38.47546163770137,
          -3.8214135000000002
        ]
      }
    },
    {
      "type": "Feature",
      "properties": {
        "rank": 4,
        "name": "CURIÓ",
        "faction": "CV",
        "municipality": "Fortaleza",
        "region": "capital",
        "cvli_count": 21,
        "score": 14.095,
        "geometry_type": "Point"
      },
      "geometry": {
        "type": "Point",
        "coordinates": [
          -38.47903583526811,
          -3.8158645
        ]
      }
    },
    {
      "type": "Feature",
      "properties": {
        "rank": 5,
        "name": "CURIÓ",
        "faction": "CV",
        "municipality": "Fortaleza",
        "region": "capital",
        "cvli_count": 22,
        "score": 13.797,
        "geometry_type": "Point"
      },
      "geometry": {
        "type": "Point",
        "coordinates": [
          -38.470671522520576,
          -3.8233775
        ]
      }
    },
    {
      "type": "Feature",
      "properties": {
        "rank": 6,
        "name": "CURIÓ",
        "faction": "MASSA",
        "municipality": "Fortaleza",
        "region": "capital",
        "cvli_count": 20,
        "score": 13.718,
        "geometry_type": "Point"
      },
      "geometry": {
        "type": "Point",
        "coordinates": [
          -38.480464801196504,
          -3.8243194999999996
        ]
      }
    },
    {
      "type": "Feature",
      "properties": {
        "rank": 7,
        "name": "CURIÓ",
        "faction": "MASSA",
        "municipality": "Fortaleza",
        "region": "capital",
        "cvli_count": 20,
        "score": 13.714,
        "geometry_type": "Point"
      },
      "geometry": {
        "type": "Point",
        "coordinates": [
          -38.47290001604403,
          -3.8203625
        ]
      }
    },
    {
      "type": "Feature",
      "properties": {
        "rank": 8,
        "name": "CURIÓ",
        "faction": "MASSA",
        "municipality": "Fortaleza",
        "region": "capital",
        "cvli_count": 17,
        "score": 13.11,
        "geometry_type": "Point"
      },
      "geometry": {
        "type": "Point",
        "coordinates": [
          -38.47931675879908,
          -3.819031
        ]
      }
    },
    {
      "type": "Feature",
      "properties": {
        "rank": 9,
        "name": "SÃO MIGUEL",
        "faction": "CV",
        "municipality": "Fortaleza",
        "region": "capital",
        "cvli_count": 20,
        "score": 12.94,
        "geometry_type": "Point"
      },
      "geometry": {
        "type": "Point",
        "coordinates": [
          -38.472461067179665,
          -3.8237829999999997
        ]
      }
    },
    {
      "type": "Feature",
      "properties": {
        "rank": 10,
        "name": "CURIÓ",
        "faction": "MASSA",
        "municipality": "Fortaleza",
        "region": "capital",
        "cvli_count": 18,
        "score": 12.858,
        "geometry_type": "Point"
      },
      "geometry": {
        "type": "Point",
        "coordinates": [
          -38.4762269499836,
          -3.8235105000000003
        ]
      }
    },
    {
      "type": "Feature",
      "properties": {
        "rank": 11,
        "name": "MESSEJANA",
        "faction": "CV",
        "municipality": "Fortaleza",
        "region": "capital",
        "cvli_count": 20,
        "score": 12.68,
        "geometry_type": "Point"
      },
      "geometry": {
        "type": "Point",
        "coordinates": [
          -38.4880188336917,
          -3.8249565
        ]
      }
    },
    {
      "type": "Feature",
      "properties": {
        "rank": 12,
        "name": "CURIÓ",
        "faction": "MASSA",
        "municipality": "Fortaleza",
        "region": "capital",
        "cvli_count": 18,
        "score": 12.468,
        "geometry_type": "Point"
      },
      "geometry": {
        "type": "Point",
        "coordinates": [
          -38.47248938136278,
          -3.8215149999999998
        ]
      }
    },
    {
      "type": "Feature",
      "properties": {
        "rank": 13,
        "name": "JOSÉ DE ALENCAR",
        "faction": "CV",
        "municipality": "Fortaleza",
        "region": "capital",
        "cvli_count": 19,
        "score": 12.3,
        "geometry_type": "Point"
      },
      "geometry": {
        "type": "Point",
        "coordinates": [
          -38.475231743820224,
          -3.8146165
        ]
      }
    },
    {
      "type": "Feature",
      "properties": {
        "rank": 14,
        "name": "MESSEJANA",
        "faction": "MASSA",
        "municipality": "Fortaleza",
        "region": "capital",
        "cvli_count": 16,
        "score": 11.697,
        "geometry_type": "Point"
      },
      "geometry": {
        "type": "Point",
        "coordinates": [
          -38.490376972872994,
          -3.819506
        ]
      }
    },
    {
      "type": "Feature",
      "properties": {
        "rank": 15,
        "name": "JOSÉ DE ALENCAR",
        "faction": "CV",
        "municipality": "Fortaleza",
        "region": "capital",
        "cvli_count": 16,
        "score": 11.073,
        "geometry_type": "Point"
      },
      "geometry": {
        "type": "Point",
        "coordinates": [
          -38.471717170539385,
          -3.816142
        ]
      }
    },
    {
      "type": "Feature",
      "properties": {
        "rank": 16,
        "name": "CURIÓ",
        "faction": "CV",
        "municipality": "Fortaleza",
        "region": "capital",
        "cvli_count": 16,
        "score": 10.811,
        "geometry_type": "Point"
      },
      "geometry": {
        "type": "Point",
        "coordinates": [
          -38.47486274758781,
          -3.825103
        ]
      }
    },
    {
      "type": "Feature",
      "properties": {
        "rank": 17,
        "name": "BARROSO",
        "faction": "CV",
        "municipality": "Fortaleza",
        "region": "capital",
        "cvli_count": 14,
        "score": 9.69,
        "geometry_type": "Point"
      },
      "geometry": {
        "type": "Point",
        "coordinates": [
          -38.51032753790585,
          -3.8180255
        ]
      }
    },
    {
      "type": "Feature",
      "properties": {
        "rank": 18,
        "name": "CAMBEBA",
        "faction": "MASSA",
        "municipality": "Fortaleza",
        "region": "capital",
        "cvli_count": 13,
        "score": 9.387,
        "geometry_type": "Point"
      },
      "geometry": {
        "type": "Point",
        "coordinates": [
          -38.484213193702686,
          -3.8151895
        ]
      }
    },
    {
      "type": "Feature",
      "properties": {
        "rank": 19,
        "name": "LAGOA REDONDA",
        "faction": "CV",
        "municipality": "Fortaleza",
        "region": "capital",
        "cvli_count": 13,
        "score": 8.749,
        "geometry_type": "Point"
      },
      "geometry": {
        "type": "Point",
        "coordinates": [
          -38.46619734003892,
          -3.822155
        ]
      }
    },
    {
      "type": "Feature",
      "properties": {
        "rank": 20,
        "name": "BARROSO",
        "faction": "CV",
        "municipality": "Fortaleza",
        "region": "capital",
        "cvli_count": 13,
        "score": 8.723,
        "geometry_type": "Point"
      },
      "geometry": {
        "type": "Point",
        "coordinates": [
          -38.50933653228371,
          -3.8143835
        ]
      }
    },
    {
      "type": "Feature",
      "properties": {
        "rank": 21,
        "name": "BARROSO",
        "faction": "CV",
        "municipality": "Fortaleza",
        "region": "capital",
        "cvli_count": 12,
        "score": 8.562,
        "geometry_type": "Point"
      },
      "geometry": {
        "type": "Point",
        "coordinates": [
          -38.51075875275362,
          -3.8193865
        ]
      }
    },
    {
      "type": "Feature",
      "properties": {
        "rank": 22,
        "name": "MESSEJANA",
        "faction": "MASSA",
        "municipality": "Fortaleza",
        "region": "capital",
        "cvli_count": 10,
        "score": 8.48,
        "geometry_type": "Point"
      },
      "geometry": {
        "type": "Point",
        "coordinates": [
          -38.49315783526076,
          -3.8208995000000003
        ]
      }
    },
    {
      "type": "Feature",
      "properties": {
        "rank": 23,
        "name": "MESSEJANA",
        "faction": "MASSA",
        "municipality": "Fortaleza",
        "region": "capital",
        "cvli_count": 10,
        "score": 8.284,
        "geometry_type": "Point"
      },
      "geometry": {
        "type": "Point",
        "coordinates": [
          -38.49267784302326,
          -3.818391
        ]
      }
    },
    {
      "type": "Feature",
      "properties": {
        "rank": 24,
        "name": "GUAJERU",
        "faction": "CV",
        "municipality": "Fortaleza",
        "region": "capital",
        "cvli_count": 13,
        "score": 8.228,
        "geometry_type": "Point"
      },
      "geometry": {
        "type": "Point",
        "coordinates": [
          -38.47706401151032,
          -3.828393
        ]
      }
    },
    {
      "type": "Feature",
      "properties": {
        "rank": 25,
        "name": "PARQUE IRACEMA",
        "faction": "MASSA",
        "municipality": "Fortaleza",
        "region": "capital",
        "cvli_count": 11,
        "score": 8.065,
        "geometry_type": "Point"
      },
      "geometry": {
        "type": "Point",
        "coordinates": [
          -38.50382035891089,
          -3.8143025
        ]
      }
    },
    {
      "type": "Feature",
      "properties": {
        "rank": 26,
        "name": "GUAJERU",
        "faction": "CV",
        "municipality": "Fortaleza",
        "region": "capital",
        "cvli_count": 12,
        "score": 7.792,
        "geometry_type": "Point"
      },
      "geometry": {
        "type": "Point",
        "coordinates": [
          -38.48030036716843,
          -3.828634
        ]
      }
    },
    {
      "type": "Feature",
      "properties": {
        "rank": 27,
        "name": "MESSEJANA",
        "faction": "CV",
        "municipality": "Fortaleza",
        "region": "capital",
        "cvli_count": 13,
        "score": 7.776,
        "geometry_type": "Point"
      },
      "geometry": {
        "type": "Point",
        "coordinates": [
          -38.50027342335487,
          -3.8228084
        ]
      }
    },
    {
      "type": "Feature",
      "properties": {
        "rank": 28,
        "name": "MESSEJANA",
        "faction": "MASSA",
        "municipality": "Fortaleza",
        "region": "capital",
        "cvli_count": 10,
        "score": 7.335,
        "geometry_type": "Point"
      },
      "geometry": {
        "type": "Point",
        "coordinates": [
          -38.49369503621208,
          -3.8163400000000003
        ]
      }
    },
    {
      "type": "Feature",
      "properties": {
        "rank": 29,
        "name": "PARQUE IRACEMA",
        "faction": "MASSA",
        "municipality": "Fortaleza",
        "region": "capital",
        "cvli_count": 11,
        "score": 7.235,
        "geometry_type": "Point"
      },
      "geometry": {
        "type": "Point",
        "coordinates": [
          -38.50131848045977,
          -3.816608
        ]
      }
    },
    {
      "type": "Feature",
      "properties": {
        "rank": 30,
        "name": "GUAJERU",
        "faction": "CV",
        "municipality": "Fortaleza",
        "region": "capital",
        "cvli_count": 11,
        "score": 6.836,
        "geometry_type": "Point"
      },
      "geometry": {
        "type": "Point",
        "coordinates": [
          -38.47448493690389,
          -3.8292944999999996
        ]
      }
    },
    {
      "type": "Feature",
      "properties": {
        "rank": 31,
        "name": "PARQUE IRACEMA",
        "faction": "MASSA",
        "municipality": "Fortaleza",
        "region": "capital",
        "cvli_count": 11,
        "score": 6.445,
        "geometry_type": "Point"
      },
      "geometry": {
        "type": "Point",
        "coordinates": [
          -38.49636535699588,
          -3.8141084999999997
        ]
      }
    },
    {
      "type": "Feature",
      "properties": {
        "rank": 32,
        "name": "BARROSO",
        "faction": "CV",
        "municipality": "Fortaleza",
        "region": "capital",
        "cvli_count": 11,
        "score": 6.427,
        "geometry_type": "Point"
      },
      "geometry": {
        "type": "Point",
        "coordinates": [
          -38.51311915932766,
          -3.812763
        ]
      }
    },
    {
      "type": "Feature",
      "properties": {
        "rank": 33,
        "name": "LAGOA REDONDA",
        "faction": "CV",
        "municipality": "Fortaleza",
        "region": "capital",
        "cvli_count": 10,
        "score": 6.371,
        "geometry_type": "Point"
      },
      "geometry": {
        "type": "Point",
        "coordinates": [
          -38.468016700608274,
          -3.8304095
        ]
      }
    },
    {
      "type": "Feature",
      "properties": {
        "rank": 34,
        "name": "LAGOA REDONDA",
        "faction": "CV",
        "municipality": "Fortaleza",
        "region": "capital",
        "cvli_count": 8,
        "score": 6.092,
        "geometry_type": "Point"
      },
      "geometry": {
        "type": "Point",
        "coordinates": [
          -38.46425843954707,
          -3.8248439999999997
        ]
      }
    },
    {
      "type": "Feature",
      "properties": {
        "rank": 35,
        "name": "BARROSO",
        "faction": "CV",
        "municipality": "Fortaleza",
        "region": "capital",
        "cvli_count": 9,
        "score": 6.073,
        "geometry_type": "Point"
      },
      "geometry": {
        "type": "Point",
        "coordinates": [
          -38.51537033470456,
          -3.8167655
        ]
      }
    },
    {
      "type": "Feature",
      "properties": {
        "rank": 36,
        "name": "LAGOA REDONDA",
        "faction": "CV",
        "municipality": "Fortaleza",
        "region": "capital",
        "cvli_count": 8,
        "score": 5.999,
        "geometry_type": "Point"
      },
      "geometry": {
        "type": "Point",
        "coordinates": [
          -38.46303159514332,
          -3.8272685
        ]
      }
    },
    {
      "type": "Feature",
      "properties": {
        "rank": 37,
        "name": "LAGOA REDONDA",
        "faction": "CV",
        "municipality": "Fortaleza",
        "region": "capital",
        "cvli_count": 8,
        "score": 5.987,
        "geometry_type": "Point"
      },
      "geometry": {
        "type": "Point",
        "coordinates": [
          -38.46478618793887,
          -3.828773
        ]
      }
    },
    {
      "type": "Feature",
      "properties": {
        "rank": 38,
        "name": "BARROSO",
        "faction": "CV",
        "municipality": "Fortaleza",
        "region": "capital",
        "cvli_count": 8,
        "score": 5.969,
        "geometry_type": "Point"
      },
      "geometry": {
        "type": "Point",
        "coordinates": [
          -38.51062487723365,
          -3.822139
        ]
      }
    },
    {
      "type": "Feature",
      "properties": {
        "rank": 39,
        "name": "MESSEJANA",
        "faction": "CV",
        "municipality": "Fortaleza",
        "region": "capital",
        "cvli_count": 8,
        "score": 5.729,
        "geometry_type": "Point"
      },
      "geometry": {
        "type": "Point",
        "coordinates": [
          -38.489061798589546,
          -3.829054
        ]
      }
    },
    {
      "type": "Feature",
      "properties": {
        "rank": 40,
        "name": "LAGOA REDONDA",
        "faction": "CV",
        "municipality": "Fortaleza",
        "region": "capital",
        "cvli_count": 8,
        "score": 5.708,
        "geometry_type": "Point"
      },
      "geometry": {
        "type": "Point",
        "coordinates": [
          -38.4630693600693,
          -3.8237705
        ]
      }
    },
    {
      "type": "Feature",
      "properties": {
        "rank": 41,
        "name": "BARROSO",
        "faction": "CV",
        "municipality": "Fortaleza",
        "region": "capital",
        "cvli_count": 7,
        "score": 5.261,
        "geometry_type": "Point"
      },
      "geometry": {
        "type": "Point",
        "coordinates": [
          -38.509224761061944,
          -3.8234364999999997
        ]
      }
    },
    {
      "type": "Feature",
      "properties": {
        "rank": 42,
        "name": "BARROSO",
        "faction": "CV",
        "municipality": "Fortaleza",
        "region": "capital",
        "cvli_count": 7,
        "score": 4.836,
        "geometry_type": "Point"
      },
      "geometry": {
        "type": "Point",
        "coordinates": [
          -38.51772741330451,
          -3.8176769999999998
        ]
      }
    },
    {
      "type": "Feature",
      "properties": {
        "rank": 43,
        "name": "PARQUE IRACEMA",
        "faction": "MASSA",
        "municipality": "Fortaleza",
        "region": "capital",
        "cvli_count": 8,
        "score": 4.781,
        "geometry_type": "Point"
      },
      "geometry": {
        "type": "Point",
        "coordinates": [
          -38.49301125,
          -3.8125999999999998
        ]
      }
    },
    {
      "type": "Feature",
      "properties": {
        "rank": 44,
        "name": "BARROSO",
        "faction": "CV",
        "municipality": "Fortaleza",
        "region": "capital",
        "cvli_count": 7,
        "score": 4.604,
        "geometry_type": "Point"
      },
      "geometry": {
        "type": "Point",
        "coordinates": [
          -38.51127706302712,
          -3.824709
        ]
      }
    },
    {
      "type": "Feature",
      "properties": {
        "rank": 45,
        "name": "BARROSO",
        "faction": "CV",
        "municipality": "Fortaleza",
        "region": "capital",
        "cvli_count": 8,
        "score": 4.566,
        "geometry_type": "Point"
      },
      "geometry": {
        "type": "Point",
        "coordinates": [
          -38.5137156637618,
          -3.8249455
        ]
      }
    },
    {
      "type": "Feature",
      "properties": {
        "rank": 46,
        "name": "GUAJERU",
        "faction": "CV",
        "municipality": "Fortaleza",
        "region": "capital",
        "cvli_count": 6,
        "score": 4.532,
        "geometry_type": "Point"
      },
      "geometry": {
        "type": "Point",
        "coordinates": [
          -38.485782262274085,
          -3.8288785
        ]
      }
    },
    {
      "type": "Feature",
      "properties": {
        "rank": 47,
        "name": "BENFICA",
        "faction": "CV",
        "municipality": "Fortaleza",
        "region": "capital",
        "cvli_count": 7,
        "score": 4.517,
        "geometry_type": "Point"
      },
      "geometry": {
        "type": "Point",
        "coordinates": [
          -38.53629199148983,
          -3.7390645
        ]
      }
    },
    {
      "type": "Feature",
      "properties": {
        "rank": 48,
        "name": "BARROSO",
        "faction": "CV",
        "municipality": "Fortaleza",
        "region": "capital",
        "cvli_count": 8,
        "score": 4.458,
        "geometry_type": "Point"
      },
      "geometry": {
        "type": "Point",
        "coordinates": [
          -38.50883730912162,
          -3.8284455
        ]
      }
    },
    {
      "type": "Feature",
      "properties": {
        "rank": 49,
        "name": "LAGOA REDONDA",
        "faction": "CV",
        "municipality": "Fortaleza",
        "region": "capital",
        "cvli_count": 6,
        "score": 4.336,
        "geometry_type": "Point"
      },
      "geometry": {
        "type": "Point",
        "coordinates": [
          -38.46553716684948,
          -3.8311374999999996
        ]
      }
    },
    {
      "type": "Feature",
      "properties": {
        "rank": 50,
        "name": "BENFICA",
        "faction": "CV",
        "municipality": "Fortaleza",
        "region": "capital",
        "cvli_count": 6,
        "score": 4.309,
        "geometry_type": "Point"
      },
      "geometry": {
        "type": "Point",
        "coordinates": [
          -38.53792724162827,
          -3.7368985
        ]
      }
    }
  ]
}