{
  "type": "FeatureCollection",
  "features": [
    {
      "type": "Feature",
      "properties": {
        "node_id": 1,
        "rank": 1,
        "name": "Levada",
        "bairro": "MESSEJANA",
        "municipality": "Fortaleza",
        "faction": "CV",
        "risk_score": 91.494,
        "score": 91.494,
        "region": "capital",
        "parent_area": "MESSEJANA",
        "parent_risk_score": 94.7,
        "parent_risk_level": "crítico",
        "parent_status": "CRÍTICO",
        "local_street_pressure": 17.115,
        "nearby_streets_count": 67,
        "nearby_streets": [
          "LEVADA",
          "RUA MUNIZ FREIRE",
          "RUA DOUTOR JOAQUIM BENTO"
        ],
        "is_tactical": true,
        "generated_at": "2026-09-24T14:42:49.820787"
      },
      "geometry": {
        "type": "Point",
        "coordinates": [
          -38.48783283333333,
          -3.8251020000000007
        ]
      }
    },
    {
      "type": "Feature",
      "properties": {
        "node_id": 2,
        "rank": 2,
        "name": "Conjunto São Bernardo",
        "bairro": "MESSEJANA",
        "municipality": "Fortaleza",
        "faction": "MASSA",
        "risk_score": 89.688,
        "score": 89.688,
        "region": "capital",
        "parent_area": "MESSEJANA",
        "parent_risk_score": 94.7,
        "parent_risk_level": "crítico",
        "parent_status": "CRÍTICO",
        "local_street_pressure": 15.448,
        "nearby_streets_count": 63,
        "nearby_streets": [
          "CONJUNTO SÃO BERNARDO",
          "RUA CECÍLIA MEIRELES",
          "RUA NICOLAU COELHO"
        ],
        "is_tactical": true,
        "generated_at": "2026-09-24T14:42:49.820787"
      },
      "geometry": {
        "type": "Point",
        "coordinates": [
          -38.49008374999999,
          -3.8185046250000005
        ]
      }
    },
    {
      "type": "Feature",
      "properties": {
        "node_id": 3,
        "rank": 3,
        "name": "Comunidade da Portelinha- Messejana",
        "bairro": "MESSEJANA",
        "municipality": "Fortaleza",
        "faction": "MASSA",
        "risk_score": 87.848,
        "score": 87.848,
        "region": "capital",
        "parent_area": "MESSEJANA",
        "parent_risk_score": 94.7,
        "parent_risk_level": "crítico",
        "parent_status": "CRÍTICO",
        "local_street_pressure": 15.543,
        "nearby_streets_count": 57,
        "nearby_streets": [
          "COMUNIDADE DA PORTELINHA- MESSEJANA",
          "RUA NICOLAU COELHO",
          "RUA VILAMAR DAMASCENO"
        ],
        "is_tactical": true,
        "generated_at": "2026-09-24T14:42:49.820787"
      },
      "geometry": {
        "type": "Point",
        "coordinates": [
          -38.4925862,
          -3.818338
        ]
      }
    },
    {
      "type": "Feature",
      "properties": {
        "node_id": 4,
        "rank": 4,
        "name": "Comunidade da Conquista",
        "bairro": "MESSEJANA",
        "municipality": "Fortaleza",
        "faction": "MASSA",
        "risk_score": 87.499,
        "score": 87.499,
        "region": "capital",
        "parent_area": "MESSEJANA",
        "parent_risk_score": 94.7,
        "parent_risk_level": "crítico",
        "parent_status": "CRÍTICO",
        "local_street_pressure": 14.735,
        "nearby_streets_count": 54,
        "nearby_streets": [
          "RUA LETÍCIA",
          "COMUNIDADE DA CONQUISTA",
          "RUA VILAMAR DAMASCENO"
        ],
        "is_tactical": true,
        "generated_at": "2026-09-24T14:42:49.820787"
      },
      "geometry": {
        "type": "Point",
        "coordinates": [
          -38.493964181818185,
          -3.8212205454545454
        ]
      }
    },
    {
      "type": "Feature",
      "properties": {
        "node_id": 5,
        "rank": 5,
        "name": "Beco da Maravilha",
        "bairro": "MESSEJANA",
        "municipality": "Fortaleza",
        "faction": "CV",
        "risk_score": 87.056,
        "score": 87.056,
        "region": "capital",
        "parent_area": "MESSEJANA",
        "parent_risk_score": 94.7,
        "parent_risk_level": "crítico",
        "parent_status": "CRÍTICO",
        "local_street_pressure": 14.746,
        "nearby_streets_count": 58,
        "nearby_streets": [
          "BECO DA MARAVILHA",
          "RUA DOUTOR JOAQUIM BENTO",
          "RUA SANTO EXPEDITO"
        ],
        "is_tactical": true,
        "generated_at": "2026-09-24T14:42:49.820787"
      },
      "geometry": {
        "type": "Point",
        "coordinates": [
          -38.488959,
          -3.8290662500000003
        ]
      }
    },
    {
      "type": "Feature",
      "properties": {
        "node_id": 6,
        "rank": 6,
        "name": "Parque Iracema I",
        "bairro": "MESSEJANA",
        "municipality": "Fortaleza",
        "faction": "MASSA",
        "risk_score": 87.042,
        "score": 87.042,
        "region": "capital",
        "parent_area": "MESSEJANA",
        "parent_risk_score": 94.7,
        "parent_risk_level": "crítico",
        "parent_status": "CRÍTICO",
        "local_street_pressure": 13.836,
        "nearby_streets_count": 54,
        "nearby_streets": [
          "PARQUE IRACEMA I",
          "COMUNIDADE DA PORTELINHA- MESSEJANA",
          "RUA NICOLAU COELHO"
        ],
        "is_tactical": true,
        "generated_at": "2026-09-24T14:42:49.820787"
      },
      "geometry": {
        "type": "Point",
        "coordinates": [
          -38.49328105882353,
          -3.8167911176470586
        ]
      }
    },
    {
      "type": "Feature",
      "properties": {
        "node_id": 7,
        "rank": 7,
        "name": "LAGOA SECA",
        "bairro": "MESSEJANA",
        "municipality": "Fortaleza",
        "faction": "CV",
        "risk_score": 86.534,
        "score": 86.534,
        "region": "capital",
        "parent_area": "MESSEJANA",
        "parent_risk_score": 94.7,
        "parent_risk_level": "crítico",
        "parent_status": "CRÍTICO",
        "local_street_pressure": 12.249,
        "nearby_streets_count": 55,
        "nearby_streets": [
          "LAGOA SECA",
          "RUA JURITI",
          "TRAVESSA CHICÓ MENDES DA CONQUISTA"
        ],
        "is_tactical": true,
        "generated_at": "2026-09-24T14:42:49.820787"
      },
      "geometry": {
        "type": "Point",
        "coordinates": [
          -38.49977998888889,
          -3.8235137666666668
        ]
      }
    },
    {
      "type": "Feature",
      "properties": {
        "node_id": 8,
        "rank": 8,
        "name": "Cemitério",
        "bairro": "MESSEJANA",
        "municipality": "Fortaleza",
        "faction": "CV",
        "risk_score": 83.201,
        "score": 83.201,
        "region": "capital",
        "parent_area": "MESSEJANA",
        "parent_risk_score": 94.7,
        "parent_risk_level": "crítico",
        "parent_status": "CRÍTICO",
        "local_street_pressure": 10.177,
        "nearby_streets_count": 42,
        "nearby_streets": [
          "RUA COPÉRNICO",
          "CEMITÉRIO",
          "TRAVESSA MARIO BARCELOS"
        ],
        "is_tactical": true,
        "generated_at": "2026-09-24T14:42:49.820787"
      },
      "geometry": {
        "type": "Point",
        "coordinates": [
          -38.4924548,
          -3.836622866666667
        ]
      }
    },
    {
      "type": "Feature",
      "properties": {
        "node_id": 9,
        "rank": 9,
        "name": "Santa Rosa- Messejana",
        "bairro": "COAÇU",
        "municipality": "Messejana",
        "faction": "CV",
        "risk_score": 78.168,
        "score": 78.168,
        "region": "capital",
        "parent_area": "COAÇU",
        "parent_risk_score": 94.7,
        "parent_risk_level": "crítico",
        "parent_status": "CRÍTICO",
        "local_street_pressure": 3.062,
        "nearby_streets_count": 9,
        "nearby_streets": [
          "SANTA ROSA- MESSEJANA",
          "RUA ZUMBI",
          "COMUNIDADE PÔR DO SOL"
        ],
        "is_tactical": true,
        "generated_at": "2026-09-24T14:42:49.820787"
      },
      "geometry": {
        "type": "Point",
        "coordinates": [
          -38.474496326530605,
          -3.8467255510204077
        ]
      }
    },
    {
      "type": "Feature",
      "properties": {
        "node_id": 10,
        "rank": 10,
        "name": "Comunidade do Serrote - Messejana",
        "bairro": "PARQUE SANTA MARIA",
        "municipality": "Messejana",
        "faction": "CV",
        "risk_score": 75.498,
        "score": 75.498,
        "region": "capital",
        "parent_area": "PARQUE SANTA MARIA",
        "parent_risk_score": 94.7,
        "parent_risk_level": "crítico",
        "parent_status": "CRÍTICO",
        "local_street_pressure": 3.594,
        "nearby_streets_count": 13,
        "nearby_streets": [
          "COMUNIDADE DO SERROTE - MESSEJANA",
          "RUA COPÉRNICO",
          "CEMITÉRIO"
        ],
        "is_tactical": true,
        "generated_at": "2026-09-24T14:42:49.820787"
      },
      "geometry": {
        "type": "Point",
        "coordinates": [
          -38.49207783333333,
          -3.842039083333333
        ]
      }
    },
    {
      "type": "Feature",
      "properties": {
        "node_id": 11,
        "rank": 11,
        "name": "Residencial ll",
        "bairro": "MARACANAÚ",
        "municipality": "Fortaleza",
        "faction": "CV",
        "risk_score": 54.93,
        "score": 54.93,
        "region": "capital",
        "parent_area": "MARACANAÚ",
        "parent_risk_score": 61.8,
        "parent_risk_level": "alto",
        "parent_status": "ALTO",
        "local_street_pressure": 2.98,
        "nearby_streets_count": 14,
        "nearby_streets": [
          "RESIDENCIAL LL",
          "RESIDENCIAL/JABUTI - MARACANAÚ",
          "RUA VINTE E UM"
        ],
        "is_tactical": true,
        "generated_at": "2026-09-24T14:42:49.820787"
      },
      "geometry": {
        "type": "Point",
        "coordinates": [
          -38.63555228571428,
          -3.8542941428571424
        ]
      }
    },
    {
      "type": "Feature",
      "properties": {
        "node_id": 12,
        "rank": 12,
        "name": "Jenipapeiro",
        "bairro": "MARACANAÚ",
        "municipality": "Fortaleza",
        "faction": "CV",
        "risk_score": 52.317,
        "score": 52.317,
        "region": "capital",
        "parent_area": "MARACANAÚ",
        "parent_risk_score": 61.8,
        "parent_risk_level": "alto",
        "parent_status": "ALTO",
        "local_street_pressure": 3.788,
        "nearby_streets_count": 17,
        "nearby_streets": [
          "JENIPAPEIRO",
          "NOVO MARACANAÚ",
          "SANTO SATIRO"
        ],
        "is_tactical": true,
        "generated_at": "2026-09-24T14:42:49.820787"
      },
      "geometry": {
        "type": "Point",
        "coordinates": [
          -38.61721165789474,
          -3.85803897368421
        ]
      }
    },
    {
      "type": "Feature",
      "properties": {
        "node_id": 13,
        "rank": 13,
        "name": "Rua da Feira - Antonio Bezerra",
        "bairro": "ANTÔNIO BEZERRA",
        "municipality": "Fortaleza",
        "faction": "CV",
        "risk_score": 47.327,
        "score": 47.327,
        "region": "capital",
        "parent_area": "ANTÔNIO BEZERRA",
        "parent_risk_score": 41.4,
        "parent_risk_level": "moderado",
        "parent_status": "MODERADO",
        "local_street_pressure": 12.121,
        "nearby_streets_count": 50,
        "nearby_streets": [
          "RUA DA FEIRA - ANTONIO BEZERRA",
          "RUA RUI MONTE",
          "RUA PROFESSOR JOAQUIM NOGUEIRA"
        ],
        "is_tactical": true,
        "generated_at": "2026-09-24T14:42:49.820787"
      },
      "geometry": {
        "type": "Point",
        "coordinates": [
          -38.58818917647059,
          -3.7442346470588235
        ]
      }
    },
    {
      "type": "Feature",
      "properties": {
        "node_id": 14,
        "rank": 14,
        "name": "Anario Braga",
        "bairro": "ANTÔNIO BEZERRA",
        "municipality": "Fortaleza",
        "faction": "CV",
        "risk_score": 47.115,
        "score": 47.115,
        "region": "capital",
        "parent_area": "ANTÔNIO BEZERRA",
        "parent_risk_score": 41.4,
        "parent_risk_level": "moderado",
        "parent_status": "MODERADO",
        "local_street_pressure": 12.313,
        "nearby_streets_count": 49,
        "nearby_streets": [
          "RUA PANAMÁ",
          "ANARIO BRAGA",
          "RUA JOSÉ ACIOLY"
        ],
        "is_tactical": true,
        "generated_at": "2026-09-24T14:42:49.820787"
      },
      "geometry": {
        "type": "Point",
        "coordinates": [
          -38.592059444444445,
          -3.736416
        ]
      }
    },
    {
      "type": "Feature",
      "properties": {
        "node_id": 15,
        "rank": 15,
        "name": "Comunidade do Aterro/Ocupação",
        "bairro": "ANTÔNIO BEZERRA",
        "municipality": "Fortaleza",
        "faction": "CV",
        "risk_score": 46.556,
        "score": 46.556,
        "region": "capital",
        "parent_area": "ANTÔNIO BEZERRA",
        "parent_risk_score": 41.4,
        "parent_risk_level": "moderado",
        "parent_status": "MODERADO",
        "local_street_pressure": 11.409,
        "nearby_streets_count": 52,
        "nearby_streets": [
          "COMUNIDADE DO ATERRO/OCUPAÇÃO",
          "AREA SEM NOME",
          "PORTELINHA (ALTO DO BODE)"
        ],
        "is_tactical": true,
        "generated_at": "2026-09-24T14:42:49.820787"
      },
      "geometry": {
        "type": "Point",
        "coordinates": [
          -38.59591828125001,
          -3.7465292812499995
        ]
      }
    },
    {
      "type": "Feature",
      "properties": {
        "node_id": 16,
        "rank": 16,
        "name": "Favela Do Abc",
        "bairro": "LAGOA REDONDA",
        "municipality": "Fortaleza",
        "faction": "CV",
        "risk_score": 45.785,
        "score": 45.785,
        "region": "capital",
        "parent_area": "LAGOA REDONDA",
        "parent_risk_score": 35.3,
        "parent_risk_level": "moderado",
        "parent_status": "MODERADO",
        "local_street_pressure": 15.696,
        "nearby_streets_count": 62,
        "nearby_streets": [
          "FAVELA DO ABC",
          "RUA SANTA ISABEL",
          "RUA PAULO DE TASSO RAMOS"
        ],
        "is_tactical": true,
        "generated_at": "2026-09-24T14:42:49.820787"
      },
      "geometry": {
        "type": "Point",
        "coordinates": [
          -38.466342062500004,
          -3.8221183125
        ]
      }
    },
    {
      "type": "Feature",
      "properties": {
        "node_id": 17,
        "rank": 17,
        "name": "11 De Novembro",
        "bairro": "LAGOA REDONDA",
        "municipality": "Fortaleza",
        "faction": "CV",
        "risk_score": 45.413,
        "score": 45.413,
        "region": "capital",
        "parent_area": "LAGOA REDONDA",
        "parent_risk_score": 35.3,
        "parent_risk_level": "moderado",
        "parent_status": "MODERADO",
        "local_street_pressure": 15.234,
        "nearby_streets_count": 51,
        "nearby_streets": [
          "11 DE NOVEMBRO",
          "RUA MORONI BING TORGAN",
          "AREA SEM NOME"
        ],
        "is_tactical": true,
        "generated_at": "2026-09-24T14:42:49.820787"
      },
      "geometry": {
        "type": "Point",
        "coordinates": [
          -38.464815124999994,
          -3.8283326250000003
        ]
      }
    },
    {
      "type": "Feature",
      "properties": {
        "node_id": 18,
        "rank": 18,
        "name": "Caixa D’água",
        "bairro": "LAGOA REDONDA",
        "municipality": "Fortaleza",
        "faction": "CV",
        "risk_score": 44.425,
        "score": 44.425,
        "region": "capital",
        "parent_area": "LAGOA REDONDA",
        "parent_risk_score": 35.3,
        "parent_risk_level": "moderado",
        "parent_status": "MODERADO",
        "local_street_pressure": 13.923,
        "nearby_streets_count": 50,
        "nearby_streets": [
          "CAIXA D’ÁGUA",
          "RUA ISABEL FERREIRA",
          "11 DE NOVEMBRO"
        ],
        "is_tactical": true,
        "generated_at": "2026-09-24T14:42:49.820787"
      },
      "geometry": {
        "type": "Point",
        "coordinates": [
          -38.465474833333325,
          -3.8305085833333337
        ]
      }
    },
    {
      "type": "Feature",
      "properties": {
        "node_id": 19,
        "rank": 19,
        "name": "Arco Verde",
        "bairro": "LAGOA REDONDA",
        "municipality": "Fortaleza",
        "faction": "CV",
        "risk_score": 44.325,
        "score": 44.325,
        "region": "capital",
        "parent_area": "LAGOA REDONDA",
        "parent_risk_score": 35.3,
        "parent_risk_level": "moderado",
        "parent_status": "MODERADO",
        "local_street_pressure": 14.28,
        "nearby_streets_count": 55,
        "nearby_streets": [
          "ARCO VERDE",
          "RUA ISABEL FERREIRA",
          "CAIXA D’ÁGUA"
        ],
        "is_tactical": true,
        "generated_at": "2026-09-24T14:42:49.820787"
      },
      "geometry": {
        "type": "Point",
        "coordinates": [
          -38.468442058823534,
          -3.830220647058824
        ]
      }
    },
    {
      "type": "Feature",
      "properties": {
        "node_id": 20,
        "rank": 20,
        "name": "AP",
        "bairro": "LAGOA REDONDA",
        "municipality": "Fortaleza",
        "faction": "CV",
        "risk_score": 44.234,
        "score": 44.234,
        "region": "capital",
        "parent_area": "LAGOA REDONDA",
        "parent_risk_score": 35.3,
        "parent_risk_level": "moderado",
        "parent_status": "MODERADO",
        "local_street_pressure": 14.5,
        "nearby_streets_count": 50,
        "nearby_streets": [
          "AP",
          "FINAL FELIZ",
          "RUA SETE"
        ],
        "is_tactical": true,
        "generated_at": "2026-09-24T14:42:49.820787"
      },
      "geometry": {
        "type": "Point",
        "coordinates": [
          -38.463950857142855,
          -3.824943714285714
        ]
      }
    },
    {
      "type": "Feature",
      "properties": {
        "node_id": 21,
        "rank": 21,
        "name": "Favela Do Pó",
        "bairro": "LAGOA REDONDA",
        "municipality": "Fortaleza",
        "faction": "CV",
        "risk_score": 43.952,
        "score": 43.952,
        "region": "capital",
        "parent_area": "LAGOA REDONDA",
        "parent_risk_score": 35.3,
        "parent_risk_level": "moderado",
        "parent_status": "MODERADO",
        "local_street_pressure": 13.985,
        "nearby_streets_count": 44,
        "nearby_streets": [
          "FAVELA DO PÓ",
          "RUA SETE",
          "RUA MORONI BING TORGAN"
        ],
        "is_tactical": true,
        "generated_at": "2026-09-24T14:42:49.820787"
      },
      "geometry": {
        "type": "Point",
        "coordinates": [
          -38.4628983076923,
          -3.827295999999999
        ]
      }
    },
    {
      "type": "Feature",
      "properties": {
        "node_id": 22,
        "rank": 22,
        "name": "Final Feliz",
        "bairro": "LAGOA REDONDA",
        "municipality": "Fortaleza",
        "faction": "CV",
        "risk_score": 43.142,
        "score": 43.142,
        "region": "capital",
        "parent_area": "LAGOA REDONDA",
        "parent_risk_score": 35.3,
        "parent_risk_level": "moderado",
        "parent_status": "MODERADO",
        "local_street_pressure": 12.967,
        "nearby_streets_count": 47,
        "nearby_streets": [
          "FINAL FELIZ",
          "AP",
          "RUA SETE"
        ],
        "is_tactical": true,
        "generated_at": "2026-09-24T14:42:49.820787"
      },
      "geometry": {
        "type": "Point",
        "coordinates": [
          -38.46298031578948,
          -3.823481736842106
        ]
      }
    },
    {
      "type": "Feature",
      "properties": {
        "node_id": 23,
        "rank": 23,
        "name": "ÁREA DE GUERRA",
        "bairro": "CONJUNTO PALMEIRAS",
        "municipality": "Fortaleza",
        "faction": "CV",
        "risk_score": 42.36,
        "score": 42.36,
        "region": "capital",
        "parent_area": "CONJUNTO PALMEIRAS",
        "parent_risk_score": 32.4,
        "parent_risk_level": "moderado",
        "parent_status": "MODERADO",
        "local_street_pressure": 12.845,
        "nearby_streets_count": 46,
        "nearby_streets": [
          "ÁREA DE GUERRA",
          "RUA CODÓ",
          "RUA DA FEIRA"
        ],
        "is_tactical": true,
        "generated_at": "2026-09-24T14:42:49.820787"
      },
      "geometry": {
        "type": "Point",
        "coordinates": [
          -38.52384677777778,
          -3.8479865555555555
        ]
      }
    },
    {
      "type": "Feature",
      "properties": {
        "node_id": 24,
        "rank": 24,
        "name": "Palmeiras1",
        "bairro": "CONJUNTO PALMEIRAS",
        "municipality": "Fortaleza",
        "faction": "CV",
        "risk_score": 41.828,
        "score": 41.828,
        "region": "capital",
        "parent_area": "CONJUNTO PALMEIRAS",
        "parent_risk_score": 32.4,
        "parent_risk_level": "moderado",
        "parent_status": "MODERADO",
        "local_street_pressure": 12.968,
        "nearby_streets_count": 49,
        "nearby_streets": [
          "PALMEIRAS1",
          "CJ PALMEIRAS L",
          "RUA DA FEIRA"
        ],
        "is_tactical": true,
        "generated_at": "2026-09-24T14:42:49.820787"
      },
      "geometry": {
        "type": "Point",
        "coordinates": [
          -38.52552871428572,
          -3.843301285714286
        ]
      }
    },
    {
      "type": "Feature",
      "properties": {
        "node_id": 25,
        "rank": 25,
        "name": "Palmeiras 2",
        "bairro": "CONJUNTO PALMEIRAS",
        "municipality": "Fortaleza",
        "faction": "CV",
        "risk_score": 41.819,
        "score": 41.819,
        "region": "capital",
        "parent_area": "CONJUNTO PALMEIRAS",
        "parent_risk_score": 32.4,
        "parent_risk_level": "moderado",
        "parent_status": "MODERADO",
        "local_street_pressure": 10.847,
        "nearby_streets_count": 45,
        "nearby_streets": [
          "PALMEIRAS 2",
          "RUA JOSÉ DO CRATO",
          "AVENIDA VALPARAÍSO"
        ],
        "is_tactical": true,
        "generated_at": "2026-09-24T14:42:49.820787"
      },
      "geometry": {
        "type": "Point",
        "coordinates": [
          -38.52976605263157,
          -3.837266736842105
        ]
      }
    },
    {
      "type": "Feature",
      "properties": {
        "node_id": 26,
        "rank": 26,
        "name": "Cj Palmeiras l",
        "bairro": "CONJUNTO PALMEIRAS",
        "municipality": "Fortaleza",
        "faction": "CV",
        "risk_score": 41.647,
        "score": 41.647,
        "region": "capital",
        "parent_area": "CONJUNTO PALMEIRAS",
        "parent_risk_score": 32.4,
        "parent_risk_level": "moderado",
        "parent_status": "MODERADO",
        "local_street_pressure": 12.453,
        "nearby_streets_count": 42,
        "nearby_streets": [
          "CJ PALMEIRAS L",
          "RUA DA FEIRA",
          "CANAL - CONJ. PALMEIRAS I"
        ],
        "is_tactical": true,
        "generated_at": "2026-09-24T14:42:49.820787"
      },
      "geometry": {
        "type": "Point",
        "coordinates": [
          -38.528010357142854,
          -3.8455535714285713
        ]
      }
    },
    {
      "type": "Feature",
      "properties": {
        "node_id": 27,
        "rank": 27,
        "name": "Rua da Feira",
        "bairro": "CONJUNTO PALMEIRAS",
        "municipality": "Fortaleza",
        "faction": "CV",
        "risk_score": 41.098,
        "score": 41.098,
        "region": "capital",
        "parent_area": "CONJUNTO PALMEIRAS",
        "parent_risk_score": 32.4,
        "parent_risk_level": "moderado",
        "parent_status": "MODERADO",
        "local_street_pressure": 12.72,
        "nearby_streets_count": 43,
        "nearby_streets": [
          "RUA DA FEIRA",
          "CJ PALMEIRAS L",
          "ÁREA DE GUERRA"
        ],
        "is_tactical": true,
        "generated_at": "2026-09-24T14:42:49.820787"
      },
      "geometry": {
        "type": "Point",
        "coordinates": [
          -38.5266295,
          -3.846913875
        ]
      }
    },
    {
      "type": "Feature",
      "properties": {
        "node_id": 28,
        "rank": 28,
        "name": "Comunidade Do Brooklyn",
        "bairro": "LAGOA REDONDA",
        "municipality": "Fortaleza",
        "faction": "CV",
        "risk_score": 40.891,
        "score": 40.891,
        "region": "capital",
        "parent_area": "LAGOA REDONDA",
        "parent_risk_score": 35.3,
        "parent_risk_level": "moderado",
        "parent_status": "MODERADO",
        "local_street_pressure": 10.49,
        "nearby_streets_count": 37,
        "nearby_streets": [
          "COMUNIDADE DO BROOKLYN",
          "FAVELA DO PÓ",
          "RUA MORONI BING TORGAN"
        ],
        "is_tactical": true,
        "generated_at": "2026-09-24T14:42:49.820787"
      },
      "geometry": {
        "type": "Point",
        "coordinates": [
          -38.46124333333334,
          -3.830110444444445
        ]
      }
    },
    {
      "type": "Feature",
      "properties": {
        "node_id": 29,
        "rank": 29,
        "name": "Comunidade do Sossego - Quintino Cunha",
        "bairro": "ANTÔNIO BEZERRA",
        "municipality": "Quintino Cunha",
        "faction": "CV",
        "risk_score": 40.647,
        "score": 40.647,
        "region": "capital",
        "parent_area": "ANTÔNIO BEZERRA",
        "parent_risk_score": 41.4,
        "parent_risk_level": "moderado",
        "parent_status": "MODERADO",
        "local_street_pressure": 6.572,
        "nearby_streets_count": 15,
        "nearby_streets": [
          "COMUNIDADE DO SOSSEGO - QUINTINO CUNHA",
          "RUA ANÁRIO BRAGA",
          "COMUNIDADE DOS PLÁSTICOS - QUINTINO CUNHA"
        ],
        "is_tactical": true,
        "generated_at": "2026-09-24T14:42:49.820787"
      },
      "geometry": {
        "type": "Point",
        "coordinates": [
          -38.597297125000004,
          -3.736254041666667
        ]
      }
    },
    {
      "type": "Feature",
      "properties": {
        "node_id": 30,
        "rank": 30,
        "name": "Rua Codó",
        "bairro": "CONJUNTO PALMEIRAS",
        "municipality": "Fortaleza",
        "faction": "CV",
        "risk_score": 40.566,
        "score": 40.566,
        "region": "capital",
        "parent_area": "CONJUNTO PALMEIRAS",
        "parent_risk_score": 32.4,
        "parent_risk_level": "moderado",
        "parent_status": "MODERADO",
        "local_street_pressure": 11.421,
        "nearby_streets_count": 42,
        "nearby_streets": [
          "RUA CODÓ",
          "JAGATÁ",
          "FAVELINHA"
        ],
        "is_tactical": true,
        "generated_at": "2026-09-24T14:42:49.820787"
      },
      "geometry": {
        "type": "Point",
        "coordinates": [
          -38.522435428571434,
          -3.8506085000000003
        ]
      }
    },
    {
      "type": "Feature",
      "properties": {
        "node_id": 31,
        "rank": 31,
        "name": "Comunidade Carandiru",
        "bairro": "LAGOA REDONDA",
        "municipality": "Fortaleza",
        "faction": "CV",
        "risk_score": 40.543,
        "score": 40.543,
        "region": "capital",
        "parent_area": "LAGOA REDONDA",
        "parent_risk_score": 35.3,
        "parent_risk_level": "moderado",
        "parent_status": "MODERADO",
        "local_street_pressure": 10.396,
        "nearby_streets_count": 41,
        "nearby_streets": [
          "COMUNIDADE CARANDIRU",
          "CAIXA D’ÁGUA",
          "SERROTE - CURIÓ"
        ],
        "is_tactical": true,
        "generated_at": "2026-09-24T14:42:49.820787"
      },
      "geometry": {
        "type": "Point",
        "coordinates": [
          -38.46487625714285,
          -3.833965514285716
        ]
      }
    },
    {
      "type": "Feature",
      "properties": {
        "node_id": 32,
        "rank": 32,
        "name": "Favelinha do Palmeiras",
        "bairro": "CONJUNTO PALMEIRAS",
        "municipality": "Fortaleza",
        "faction": "CV",
        "risk_score": 39.518,
        "score": 39.518,
        "region": "capital",
        "parent_area": "CONJUNTO PALMEIRAS",
        "parent_risk_score": 32.4,
        "parent_risk_level": "moderado",
        "parent_status": "MODERADO",
        "local_street_pressure": 12.147,
        "nearby_streets_count": 40,
        "nearby_streets": [
          "FAVELINHA DO PALMEIRAS",
          "RUA DA FEIRA",
          "FAVELINHA"
        ],
        "is_tactical": true,
        "generated_at": "2026-09-24T14:42:49.820787"
      },
      "geometry": {
        "type": "Point",
        "coordinates": [
          -38.5265412,
          -3.8493798000000004
        ]
      }
    },
    {
      "type": "Feature",
      "properties": {
        "node_id": 33,
        "rank": 33,
        "name": "Jagatá",
        "bairro": "CONJUNTO PALMEIRAS",
        "municipality": "Fortaleza",
        "faction": "CV",
        "risk_score": 39.498,
        "score": 39.498,
        "region": "capital",
        "parent_area": "CONJUNTO PALMEIRAS",
        "parent_risk_score": 32.4,
        "parent_risk_level": "moderado",
        "parent_status": "MODERADO",
        "local_street_pressure": 11.069,
        "nearby_streets_count": 43,
        "nearby_streets": [
          "JAGATÁ",
          "FAVELINHA",
          "RUA CODÓ"
        ],
        "is_tactical": true,
        "generated_at": "2026-09-24T14:42:49.820787"
      },
      "geometry": {
        "type": "Point",
        "coordinates": [
          -38.521445500000006,
          -3.853028214285714
        ]
      }
    },
    {
      "type": "Feature",
      "properties": {
        "node_id": 34,
        "rank": 34,
        "name": "Favelinha",
        "bairro": "CONJUNTO PALMEIRAS",
        "municipality": "Fortaleza",
        "faction": "CV",
        "risk_score": 38.923,
        "score": 38.923,
        "region": "capital",
        "parent_area": "CONJUNTO PALMEIRAS",
        "parent_risk_score": 32.4,
        "parent_risk_level": "moderado",
        "parent_status": "MODERADO",
        "local_street_pressure": 11.564,
        "nearby_streets_count": 40,
        "nearby_streets": [
          "FAVELINHA",
          "LOTEAMENTO",
          "FAVELINHA DO PALMEIRAS"
        ],
        "is_tactical": true,
        "generated_at": "2026-09-24T14:42:49.820787"
      },
      "geometry": {
        "type": "Point",
        "coordinates": [
          -38.52515184210526,
          -3.8519862631578943
        ]
      }
    },
    {
      "type": "Feature",
      "properties": {
        "node_id": 35,
        "rank": 35,
        "name": "Loteamento",
        "bairro": "CONJUNTO PALMEIRAS",
        "municipality": "Fortaleza",
        "faction": "CV",
        "risk_score": 38.544,
        "score": 38.544,
        "region": "capital",
        "parent_area": "CONJUNTO PALMEIRAS",
        "parent_risk_score": 32.4,
        "parent_risk_level": "moderado",
        "parent_status": "MODERADO",
        "local_street_pressure": 10.317,
        "nearby_streets_count": 38,
        "nearby_streets": [
          "LOTEAMENTO",
          "FAVELINHA",
          "RUA PATATIVA DO ASSARÉ"
        ],
        "is_tactical": true,
        "generated_at": "2026-09-24T14:42:49.820787"
      },
      "geometry": {
        "type": "Point",
        "coordinates": [
          -38.52610515384616,
          -3.8536137692307695
        ]
      }
    },
    {
      "type": "Feature",
      "properties": {
        "node_id": 36,
        "rank": 36,
        "name": "Palmeirinha",
        "bairro": "LAGOA REDONDA",
        "municipality": "Fortaleza",
        "faction": "CV",
        "risk_score": 37.68,
        "score": 37.68,
        "region": "capital",
        "parent_area": "LAGOA REDONDA",
        "parent_risk_score": 35.3,
        "parent_risk_level": "moderado",
        "parent_status": "MODERADO",
        "local_street_pressure": 7.688,
        "nearby_streets_count": 24,
        "nearby_streets": [
          "PALMEIRINHA",
          "AVENIDA PROFESSOR JOSÉ ARTHUR DE CARVALHO",
          "COMUNIDADE ISABELZINHA"
        ],
        "is_tactical": true,
        "generated_at": "2026-09-24T14:42:49.820787"
      },
      "geometry": {
        "type": "Point",
        "coordinates": [
          -38.45670834782608,
          -3.826025
        ]
      }
    },
    {
      "type": "Feature",
      "properties": {
        "node_id": 37,
        "rank": 37,
        "name": "Comunidade Isabelzinha",
        "bairro": "LAGOA REDONDA",
        "municipality": "Fortaleza",
        "faction": "CV",
        "risk_score": 37.657,
        "score": 37.657,
        "region": "capital",
        "parent_area": "LAGOA REDONDA",
        "parent_risk_score": 35.3,
        "parent_risk_level": "moderado",
        "parent_status": "MODERADO",
        "local_street_pressure": 7.732,
        "nearby_streets_count": 31,
        "nearby_streets": [
          "COMUNIDADE ISABELZINHA",
          "AVENIDA PROFESSOR JOSÉ ARTHUR DE CARVALHO",
          "PALMEIRINHA"
        ],
        "is_tactical": true,
        "generated_at": "2026-09-24T14:42:49.820787"
      },
      "geometry": {
        "type": "Point",
        "coordinates": [
          -38.457125166666664,
          -3.8222726
        ]
      }
    },
    {
      "type": "Feature",
      "properties": {
        "node_id": 38,
        "rank": 38,
        "name": "Beira Rio - Conj. Palmeiras I",
        "bairro": "CONJUNTO PALMEIRAS",
        "municipality": "Conj. Palmeiras I",
        "faction": "CV",
        "risk_score": 37.319,
        "score": 37.319,
        "region": "capital",
        "parent_area": "CONJUNTO PALMEIRAS",
        "parent_risk_score": 32.4,
        "parent_risk_level": "moderado",
        "parent_status": "MODERADO",
        "local_street_pressure": 8.65,
        "nearby_streets_count": 21,
        "nearby_streets": [
          "BEIRA RIO - CONJ. PALMEIRAS I",
          "RUA VALPARAÍSO",
          "AVENIDA VALPARAÍSO"
        ],
        "is_tactical": true,
        "generated_at": "2026-09-24T14:42:49.820787"
      },
      "geometry": {
        "type": "Point",
        "coordinates": [
          -38.531143875000005,
          -3.8424397499999996
        ]
      }
    },
    {
      "type": "Feature",
      "properties": {
        "node_id": 39,
        "rank": 39,
        "name": "Canal - Conj. Palmeiras I",
        "bairro": "CONJUNTO PALMEIRAS",
        "municipality": "Conj. Palmeiras I",
        "faction": "CV",
        "risk_score": 36.896,
        "score": 36.896,
        "region": "capital",
        "parent_area": "CONJUNTO PALMEIRAS",
        "parent_risk_score": 32.4,
        "parent_risk_level": "moderado",
        "parent_status": "MODERADO",
        "local_street_pressure": 9.295,
        "nearby_streets_count": 22,
        "nearby_streets": [
          "CANAL - CONJ. PALMEIRAS I",
          "BECO - CONJ. PALMEIRAS",
          "PISSAREIRA - CONJ. PALMEIRAS I"
        ],
        "is_tactical": true,
        "generated_at": "2026-09-24T14:42:49.820787"
      },
      "geometry": {
        "type": "Point",
        "coordinates": [
          -38.530499444444445,
          -3.8462358888888892
        ]
      }
    },
    {
      "type": "Feature",
      "properties": {
        "node_id": 40,
        "rank": 40,
        "name": "Pissareira - Conj. Palmeiras I",
        "bairro": "CONJUNTO PALMEIRAS",
        "municipality": "Conj. Palmeiras I",
        "faction": "CV",
        "risk_score": 36.735,
        "score": 36.735,
        "region": "capital",
        "parent_area": "CONJUNTO PALMEIRAS",
        "parent_risk_score": 32.4,
        "parent_risk_level": "moderado",
        "parent_status": "MODERADO",
        "local_street_pressure": 9.082,
        "nearby_streets_count": 22,
        "nearby_streets": [
          "PISSAREIRA - CONJ. PALMEIRAS I",
          "AREA SEM NOME",
          "CANAL - CONJ. PALMEIRAS I"
        ],
        "is_tactical": true,
        "generated_at": "2026-09-24T14:42:49.820787"
      },
      "geometry": {
        "type": "Point",
        "coordinates": [
          -38.52996855555555,
          -3.847995166666666
        ]
      }
    },
    {
      "type": "Feature",
      "properties": {
        "node_id": 41,
        "rank": 41,
        "name": "Serrote - Curió",
        "bairro": "LAGOA REDONDA",
        "municipality": "Curió",
        "faction": "CV",
        "risk_score": 35.996,
        "score": 35.996,
        "region": "capital",
        "parent_area": "LAGOA REDONDA",
        "parent_risk_score": 35.3,
        "parent_risk_level": "moderado",
        "parent_status": "MODERADO",
        "local_street_pressure": 5.959,
        "nearby_streets_count": 21,
        "nearby_streets": [
          "SERROTE - CURIÓ",
          "COMUNIDADE CARANDIRU",
          "COMUNIDADE DO BROOKLYN"
        ],
        "is_tactical": true,
        "generated_at": "2026-09-24T14:42:49.820787"
      },
      "geometry": {
        "type": "Point",
        "coordinates": [
          -38.4605327631579,
          -3.835901236842105
        ]
      }
    },
    {
      "type": "Feature",
      "properties": {
        "node_id": 42,
        "rank": 42,
        "name": "Beco - Conj. Palmeiras",
        "bairro": "CONJUNTO PALMEIRAS",
        "municipality": "Conj. Palmeiras",
        "faction": "CV",
        "risk_score": 35.676,
        "score": 35.676,
        "region": "capital",
        "parent_area": "CONJUNTO PALMEIRAS",
        "parent_risk_score": 32.4,
        "parent_risk_level": "moderado",
        "parent_status": "MODERADO",
        "local_street_pressure": 8.077,
        "nearby_streets_count": 21,
        "nearby_streets": [
          "BECO - CONJ. PALMEIRAS",
          "CANAL - CONJ. PALMEIRAS I",
          "BEIRA RIO - CONJ. PALMEIRAS I"
        ],
        "is_tactical": true,
        "generated_at": "2026-09-24T14:42:49.820787"
      },
      "geometry": {
        "type": "Point",
        "coordinates": [
          -38.53253993333333,
          -3.844583333333333
        ]
      }
    },
    {
      "type": "Feature",
      "properties": {
        "node_id": 43,
        "rank": 43,
        "name": "Sorriso - São Cristóvão",
        "bairro": "CONJUNTO PALMEIRAS",
        "municipality": "São Cristóvão",
        "faction": "CV",
        "risk_score": 35.07,
        "score": 35.07,
        "region": "capital",
        "parent_area": "CONJUNTO PALMEIRAS",
        "parent_risk_score": 32.4,
        "parent_risk_level": "moderado",
        "parent_status": "MODERADO",
        "local_street_pressure": 7.128,
        "nearby_streets_count": 22,
        "nearby_streets": [
          "SORRISO - SÃO CRISTÓVÃO",
          "RUA JOSÉ DO CRATO",
          "RUA ABENÇOADA"
        ],
        "is_tactical": true,
        "generated_at": "2026-09-24T14:42:49.820787"
      },
      "geometry": {
        "type": "Point",
        "coordinates": [
          -38.52812833333334,
          -3.8341267142857136
        ]
      }
    },
    {
      "type": "Feature",
      "properties": {
        "node_id": 44,
        "rank": 44,
        "name": "Beco do 12",
        "bairro": "LAGOA REDONDA",
        "municipality": "Fortaleza",
        "faction": "CV",
        "risk_score": 32.031,
        "score": 32.031,
        "region": "capital",
        "parent_area": "LAGOA REDONDA",
        "parent_risk_score": 35.3,
        "parent_risk_level": "moderado",
        "parent_status": "MODERADO",
        "local_street_pressure": 2.532,
        "nearby_streets_count": 11,
        "nearby_streets": [
          "BECO DO 12",
          "ALDEIA",
          "BARRO DURO"
        ],
        "is_tactical": true,
        "generated_at": "2026-09-24T14:42:49.820787"
      },
      "geometry": {
        "type": "Point",
        "coordinates": [
          -38.45145,
          -3.80948352173913
        ]
      }
    }
  ],
  "metadata": {
    "total": 44,
    "source": "Sentinela Micronodes Dynamic Overlay",
    "threshold_min_score": 31.0,
    "generated_at": "2026-09-24T14:42:49.820787",
    "region": "capital"
  }
}