{
  "type": "FeatureCollection",
  "features": [
    {
      "type": "Feature",
      "properties": {
        "node_id": 1,
        "rank": 1,
        "name": "Sítios Novos- Caucaia",
        "bairro": "CAUCAIA",
        "municipality": "Caucaia",
        "faction": "CV",
        "risk_score": 79.379,
        "score": 79.379,
        "region": "rmf",
        "parent_area": "CAUCAIA",
        "parent_risk_score": 96.2,
        "parent_risk_level": "crítico",
        "parent_status": "CRÍTICO",
        "local_street_pressure": 2.021,
        "nearby_streets_count": 4,
        "nearby_streets": [
          "SÍTIOS NOVOS- CAUCAIA",
          "RUA BOA ESPERANÇA",
          "ESTRADA PARÁ AGRIVILA"
        ],
        "is_tactical": true,
        "generated_at": "2026-09-24T14:42:50.046626"
      },
      "geometry": {
        "type": "Point",
        "coordinates": [
          -38.95021675,
          -3.7455504687499994
        ]
      }
    },
    {
      "type": "Feature",
      "properties": {
        "node_id": 2,
        "rank": 2,
        "name": "Coité Pedreira",
        "bairro": "CAUCAIA",
        "municipality": "CAUCAIA",
        "faction": "CV",
        "risk_score": 79.158,
        "score": 79.158,
        "region": "rmf",
        "parent_area": "CAUCAIA",
        "parent_risk_score": 96.2,
        "parent_risk_level": "crítico",
        "parent_status": "CRÍTICO",
        "local_street_pressure": 3.092,
        "nearby_streets_count": 5,
        "nearby_streets": [
          "COITÉ PEDREIRA",
          "TRAVESSA DO PROFESSOR",
          "RUA MARIA DO PATROCÍNIO"
        ],
        "is_tactical": true,
        "generated_at": "2026-09-24T14:42:50.046626"
      },
      "geometry": {
        "type": "Point",
        "coordinates": [
          -38.744439309523806,
          -3.7462188095238096
        ]
      }
    },
    {
      "type": "Feature",
      "properties": {
        "node_id": 3,
        "rank": 3,
        "name": "Planalto Caucaia",
        "bairro": "PARQUE SOLEDADE",
        "municipality": "CAUCAIA",
        "faction": "CV",
        "risk_score": 79.044,
        "score": 79.044,
        "region": "rmf",
        "parent_area": "PARQUE SOLEDADE",
        "parent_risk_score": 96.2,
        "parent_risk_level": "crítico",
        "parent_status": "CRÍTICO",
        "local_street_pressure": 3.343,
        "nearby_streets_count": 8,
        "nearby_streets": [
          "RUA 114",
          "AVENIDA CONTÔRNO NORTE",
          "CONDOMÍNIO PABUSSU"
        ],
        "is_tactical": true,
        "generated_at": "2026-09-24T14:42:50.046626"
      },
      "geometry": {
        "type": "Point",
        "coordinates": [
          -38.6664246,
          -3.7444564999999996
        ]
      }
    },
    {
      "type": "Feature",
      "properties": {
        "node_id": 4,
        "rank": 4,
        "name": "Comunidade dos Cariocas - Caucaia",
        "bairro": "MARECHAL RONDON",
        "municipality": "Caucaia",
        "faction": "CV",
        "risk_score": 78.987,
        "score": 78.987,
        "region": "rmf",
        "parent_area": "MARECHAL RONDON",
        "parent_risk_score": 96.2,
        "parent_risk_level": "crítico",
        "parent_status": "CRÍTICO",
        "local_street_pressure": 3.429,
        "nearby_streets_count": 8,
        "nearby_streets": [
          "COMUNIDADE DOS CARIOCAS - CAUCAIA",
          "CONDOMÍNIOS",
          "CAJUEIROS"
        ],
        "is_tactical": true,
        "generated_at": "2026-09-24T14:42:50.046626"
      },
      "geometry": {
        "type": "Point",
        "coordinates": [
          -38.63100255555556,
          -3.7793906666666666
        ]
      }
    },
    {
      "type": "Feature",
      "properties": {
        "node_id": 5,
        "rank": 5,
        "name": "Japuara- Caucaia",
        "bairro": "PARQUE SOLEDADE",
        "municipality": "Caucaia",
        "faction": "CV",
        "risk_score": 78.985,
        "score": 78.985,
        "region": "rmf",
        "parent_area": "PARQUE SOLEDADE",
        "parent_risk_score": 96.2,
        "parent_risk_level": "crítico",
        "parent_status": "CRÍTICO",
        "local_street_pressure": 1.572,
        "nearby_streets_count": 4,
        "nearby_streets": [
          "AVENIDA RAPOSO TAVARES",
          "JAPUARA- CAUCAIA",
          "RUA MARIA LUIZA SOARES"
        ],
        "is_tactical": true,
        "generated_at": "2026-09-24T14:42:50.046626"
      },
      "geometry": {
        "type": "Point",
        "coordinates": [
          -38.747452042553206,
          -3.682344829787234
        ]
      }
    },
    {
      "type": "Feature",
      "properties": {
        "node_id": 6,
        "rank": 6,
        "name": "Planalto Caucaia",
        "bairro": "PARQUE SOLEDADE",
        "municipality": "CAUCAIA",
        "faction": "CV",
        "risk_score": 78.697,
        "score": 78.697,
        "region": "rmf",
        "parent_area": "PARQUE SOLEDADE",
        "parent_risk_score": 96.2,
        "parent_risk_level": "crítico",
        "parent_status": "CRÍTICO",
        "local_street_pressure": 3.089,
        "nearby_streets_count": 8,
        "nearby_streets": [
          "PLANALTO CAUCAIA",
          "RUA 107",
          "RUA 114"
        ],
        "is_tactical": true,
        "generated_at": "2026-09-24T14:42:50.046626"
      },
      "geometry": {
        "type": "Point",
        "coordinates": [
          -38.662789479999994,
          -3.7458330000000006
        ]
      }
    },
    {
      "type": "Feature",
      "properties": {
        "node_id": 7,
        "rank": 7,
        "name": "Tanubapa",
        "bairro": "CAUCAIA",
        "municipality": "CAUCAIA",
        "faction": "CV",
        "risk_score": 78.392,
        "score": 78.392,
        "region": "rmf",
        "parent_area": "CAUCAIA",
        "parent_risk_score": 96.2,
        "parent_risk_level": "crítico",
        "parent_status": "CRÍTICO",
        "local_street_pressure": 2.3,
        "nearby_streets_count": 3,
        "nearby_streets": [
          "TANUBAPA",
          "TRAVESSA JEOVÁ",
          "RUA FCO. JEOVÁ DA MOTA"
        ],
        "is_tactical": true,
        "generated_at": "2026-09-24T14:42:50.046626"
      },
      "geometry": {
        "type": "Point",
        "coordinates": [
          -38.7704654054054,
          -3.6430006756756748
        ]
      }
    },
    {
      "type": "Feature",
      "properties": {
        "node_id": 8,
        "rank": 8,
        "name": "Taquara - Caucaia",
        "bairro": "URUCUTUBA",
        "municipality": "Caucaia",
        "faction": "CV",
        "risk_score": 78.361,
        "score": 78.361,
        "region": "rmf",
        "parent_area": "URUCUTUBA",
        "parent_risk_score": 96.2,
        "parent_risk_level": "crítico",
        "parent_status": "CRÍTICO",
        "local_street_pressure": 0.964,
        "nearby_streets_count": 2,
        "nearby_streets": [
          "RODOVIA RAIMUNDO PESSOA DE ARAÚJO",
          "TAQUARA - CAUCAIA"
        ],
        "is_tactical": true,
        "generated_at": "2026-09-24T14:42:50.046626"
      },
      "geometry": {
        "type": "Point",
        "coordinates": [
          -38.663501657142845,
          -3.822248923809524
        ]
      }
    },
    {
      "type": "Feature",
      "properties": {
        "node_id": 9,
        "rank": 9,
        "name": "Primavera",
        "bairro": "CAUCAIA",
        "municipality": "CAUCAIA",
        "faction": "CV",
        "risk_score": 78.352,
        "score": 78.352,
        "region": "rmf",
        "parent_area": "CAUCAIA",
        "parent_risk_score": 96.2,
        "parent_risk_level": "crítico",
        "parent_status": "CRÍTICO",
        "local_street_pressure": 2.793,
        "nearby_streets_count": 4,
        "nearby_streets": [
          "PRIMAVERA",
          "RUA VALESCA",
          "RUA ANTÔNIO BRASILEIRO"
        ],
        "is_tactical": true,
        "generated_at": "2026-09-24T14:42:50.046626"
      },
      "geometry": {
        "type": "Point",
        "coordinates": [
          -38.82577786363637,
          -3.7108689090909093
        ]
      }
    },
    {
      "type": "Feature",
      "properties": {
        "node_id": 10,
        "rank": 10,
        "name": "Mingau - Caucaia",
        "bairro": "CAUCAIA",
        "municipality": "Caucaia",
        "faction": "CV",
        "risk_score": 77.35,
        "score": 77.35,
        "region": "rmf",
        "parent_area": "CAUCAIA",
        "parent_risk_score": 96.2,
        "parent_risk_level": "crítico",
        "parent_status": "CRÍTICO",
        "local_street_pressure": 2.447,
        "nearby_streets_count": 4,
        "nearby_streets": [
          "MINGAU - CAUCAIA",
          "RUA MINGUAU",
          "RUA ALTO DAS CAMPINAS"
        ],
        "is_tactical": true,
        "generated_at": "2026-09-24T14:42:50.046626"
      },
      "geometry": {
        "type": "Point",
        "coordinates": [
          -38.737788392857134,
          -3.825179428571428
        ]
      }
    },
    {
      "type": "Feature",
      "properties": {
        "node_id": 11,
        "rank": 11,
        "name": "Boqueirão- Caucaia",
        "bairro": "CAUCAIA",
        "municipality": "Caucaia",
        "faction": "CV",
        "risk_score": 76.988,
        "score": 76.988,
        "region": "rmf",
        "parent_area": "CAUCAIA",
        "parent_risk_score": 96.2,
        "parent_risk_level": "crítico",
        "parent_status": "CRÍTICO",
        "local_street_pressure": 2.068,
        "nearby_streets_count": 3,
        "nearby_streets": [
          "BOQUEIRÃO- CAUCAIA",
          "RUA JOSÉ ROCHA CRISÓSTOMO",
          "RUA MANOEL RODRIGUES DE LIMA"
        ],
        "is_tactical": true,
        "generated_at": "2026-09-24T14:42:50.046626"
      },
      "geometry": {
        "type": "Point",
        "coordinates": [
          -38.766643676470586,
          -3.725872588235294
        ]
      }
    },
    {
      "type": "Feature",
      "properties": {
        "node_id": 12,
        "rank": 12,
        "name": "Cipó - Caucaia",
        "bairro": "PARQUE SOLEDADE",
        "municipality": "Caucaia",
        "faction": "CV",
        "risk_score": 76.686,
        "score": 76.686,
        "region": "rmf",
        "parent_area": "PARQUE SOLEDADE",
        "parent_risk_score": 96.2,
        "parent_risk_level": "crítico",
        "parent_status": "CRÍTICO",
        "local_street_pressure": 1.993,
        "nearby_streets_count": 4,
        "nearby_streets": [
          "CIPÓ - CAUCAIA",
          "AVENIDA AMARO RODRIGUES DOS SANTOS",
          "RUA JOSÉ ALVES BEZERRA"
        ],
        "is_tactical": true,
        "generated_at": "2026-09-24T14:42:50.046626"
      },
      "geometry": {
        "type": "Point",
        "coordinates": [
          -38.69940679310345,
          -3.7020965517241384
        ]
      }
    },
    {
      "type": "Feature",
      "properties": {
        "node_id": 13,
        "rank": 13,
        "name": "Arianópolis - Caucaia",
        "bairro": "URUCUTUBA",
        "municipality": "Caucaia",
        "faction": "CV",
        "risk_score": 76.304,
        "score": 76.304,
        "region": "rmf",
        "parent_area": "URUCUTUBA",
        "parent_risk_score": 96.2,
        "parent_risk_level": "crítico",
        "parent_status": "CRÍTICO",
        "local_street_pressure": 0.707,
        "nearby_streets_count": 2,
        "nearby_streets": [
          "ARIANÓPOLIS - CAUCAIA",
          "COMUNIDADE DA VACARIA - ARATURI"
        ],
        "is_tactical": true,
        "generated_at": "2026-09-24T14:42:50.046626"
      },
      "geometry": {
        "type": "Point",
        "coordinates": [
          -38.64739823809524,
          -3.767287619047619
        ]
      }
    },
    {
      "type": "Feature",
      "properties": {
        "node_id": 14,
        "rank": 14,
        "name": "Mangabeira- Caucaia",
        "bairro": "CAUCAIA",
        "municipality": "Caucaia",
        "faction": "CV",
        "risk_score": 76.249,
        "score": 76.249,
        "region": "rmf",
        "parent_area": "CAUCAIA",
        "parent_risk_score": 96.2,
        "parent_risk_level": "crítico",
        "parent_status": "CRÍTICO",
        "local_street_pressure": 0.488,
        "nearby_streets_count": 1,
        "nearby_streets": [
          "MANGABEIRA- CAUCAIA"
        ],
        "is_tactical": true,
        "generated_at": "2026-09-24T14:42:50.046626"
      },
      "geometry": {
        "type": "Point",
        "coordinates": [
          -38.753065533333334,
          -3.6610709333333338
        ]
      }
    },
    {
      "type": "Feature",
      "properties": {
        "node_id": 15,
        "rank": 15,
        "name": "Alto do Garrote - Caucaia",
        "bairro": "PARQUE SOLEDADE",
        "municipality": "Caucaia",
        "faction": "CV",
        "risk_score": 76.18,
        "score": 76.18,
        "region": "rmf",
        "parent_area": "PARQUE SOLEDADE",
        "parent_risk_score": 96.2,
        "parent_risk_level": "crítico",
        "parent_status": "CRÍTICO",
        "local_street_pressure": 1.715,
        "nearby_streets_count": 3,
        "nearby_streets": [
          "RUA JOAQUIM GADELHA",
          "ALTO DO GARROTE - CAUCAIA",
          "RUA ZEZITO PONTES"
        ],
        "is_tactical": true,
        "generated_at": "2026-09-24T14:42:50.046626"
      },
      "geometry": {
        "type": "Point",
        "coordinates": [
          -38.70540721428572,
          -3.6928268571428573
        ]
      }
    },
    {
      "type": "Feature",
      "properties": {
        "node_id": 16,
        "rank": 16,
        "name": "JARANDRAGOEIRA",
        "bairro": "CAUCAIA",
        "municipality": "CAUCAIA",
        "faction": "CV",
        "risk_score": 76.164,
        "score": 76.164,
        "region": "rmf",
        "parent_area": "CAUCAIA",
        "parent_risk_score": 96.2,
        "parent_risk_level": "crítico",
        "parent_status": "CRÍTICO",
        "local_street_pressure": 1.683,
        "nearby_streets_count": 2,
        "nearby_streets": [
          "JARANDRAGOEIRA",
          "POVOADO JARANDRAGOEIRA"
        ],
        "is_tactical": true,
        "generated_at": "2026-09-24T14:42:50.046626"
      },
      "geometry": {
        "type": "Point",
        "coordinates": [
          -38.74641870588235,
          -3.8078237176470586
        ]
      }
    },
    {
      "type": "Feature",
      "properties": {
        "node_id": 17,
        "rank": 17,
        "name": "Alto da Raposa",
        "bairro": "CAUCAIA",
        "municipality": "CAUCAIA",
        "faction": "CV",
        "risk_score": 76.157,
        "score": 76.157,
        "region": "rmf",
        "parent_area": "CAUCAIA",
        "parent_risk_score": 96.2,
        "parent_risk_level": "crítico",
        "parent_status": "CRÍTICO",
        "local_street_pressure": 1.9,
        "nearby_streets_count": 3,
        "nearby_streets": [
          "ALTO DA RAPOSA",
          "RUA CAMARÁ 2",
          "CAMARÁ"
        ],
        "is_tactical": true,
        "generated_at": "2026-09-24T14:42:50.046626"
      },
      "geometry": {
        "type": "Point",
        "coordinates": [
          -38.759018437499996,
          -3.7043610624999994
        ]
      }
    },
    {
      "type": "Feature",
      "properties": {
        "node_id": 18,
        "rank": 18,
        "name": "Camará",
        "bairro": "CAUCAIA",
        "municipality": "CAUCAIA",
        "faction": "CV",
        "risk_score": 76.089,
        "score": 76.089,
        "region": "rmf",
        "parent_area": "CAUCAIA",
        "parent_risk_score": 96.2,
        "parent_risk_level": "crítico",
        "parent_status": "CRÍTICO",
        "local_street_pressure": 0.825,
        "nearby_streets_count": 2,
        "nearby_streets": [
          "CAMARÁ",
          "ALTO DA RAPOSA"
        ],
        "is_tactical": true,
        "generated_at": "2026-09-24T14:42:50.046626"
      },
      "geometry": {
        "type": "Point",
        "coordinates": [
          -38.74877465,
          -3.6997147499999996
        ]
      }
    },
    {
      "type": "Feature",
      "properties": {
        "node_id": 19,
        "rank": 19,
        "name": "Campo do Urubu - Caucaia",
        "bairro": "PARQUE SOLEDADE",
        "municipality": "Caucaia",
        "faction": "CV",
        "risk_score": 76.021,
        "score": 76.021,
        "region": "rmf",
        "parent_area": "PARQUE SOLEDADE",
        "parent_risk_score": 96.2,
        "parent_risk_level": "crítico",
        "parent_status": "CRÍTICO",
        "local_street_pressure": 1.789,
        "nearby_streets_count": 4,
        "nearby_streets": [
          "CAMPO DO URUBU - CAUCAIA",
          "ITAPOA",
          "RUA JOAO DE SALES FILHO"
        ],
        "is_tactical": true,
        "generated_at": "2026-09-24T14:42:50.046626"
      },
      "geometry": {
        "type": "Point",
        "coordinates": [
          -38.667880000000004,
          -3.7186306
        ]
      }
    },
    {
      "type": "Feature",
      "properties": {
        "node_id": 20,
        "rank": 20,
        "name": "Comunidade Madureira - Caucaia",
        "bairro": "PARQUE SOLEDADE",
        "municipality": "Caucaia",
        "faction": "CV",
        "risk_score": 75.494,
        "score": 75.494,
        "region": "rmf",
        "parent_area": "PARQUE SOLEDADE",
        "parent_risk_score": 96.2,
        "parent_risk_level": "crítico",
        "parent_status": "CRÍTICO",
        "local_street_pressure": 1.548,
        "nearby_streets_count": 3,
        "nearby_streets": [
          "COMUNIDADE MADUREIRA - CAUCAIA",
          "PADRE ROMUALDO",
          "RUA ITAMBE"
        ],
        "is_tactical": true,
        "generated_at": "2026-09-24T14:42:50.046626"
      },
      "geometry": {
        "type": "Point",
        "coordinates": [
          -38.652227875,
          -3.719691125
        ]
      }
    },
    {
      "type": "Feature",
      "properties": {
        "node_id": 21,
        "rank": 21,
        "name": "Mingau ll",
        "bairro": "CAUCAIA",
        "municipality": "CAUCAIA",
        "faction": "CV",
        "risk_score": 75.413,
        "score": 75.413,
        "region": "rmf",
        "parent_area": "CAUCAIA",
        "parent_risk_score": 96.2,
        "parent_risk_level": "crítico",
        "parent_status": "CRÍTICO",
        "local_street_pressure": 1.211,
        "nearby_streets_count": 2,
        "nearby_streets": [
          "MINGAU LL",
          "MINGAU - CAUCAIA"
        ],
        "is_tactical": true,
        "generated_at": "2026-09-24T14:42:50.046626"
      },
      "geometry": {
        "type": "Point",
        "coordinates": [
          -38.72749604761904,
          -3.8136852380952373
        ]
      }
    },
    {
      "type": "Feature",
      "properties": {
        "node_id": 22,
        "rank": 22,
        "name": "Santa Rosa- Caucaia",
        "bairro": "CAUCAIA",
        "municipality": "Caucaia",
        "faction": "CV",
        "risk_score": 75.411,
        "score": 75.411,
        "region": "rmf",
        "parent_area": "CAUCAIA",
        "parent_risk_score": 96.2,
        "parent_risk_level": "crítico",
        "parent_status": "CRÍTICO",
        "local_street_pressure": 1.161,
        "nearby_streets_count": 1,
        "nearby_streets": [
          "SANTA ROSA- CAUCAIA"
        ],
        "is_tactical": true,
        "generated_at": "2026-09-24T14:42:50.046626"
      },
      "geometry": {
        "type": "Point",
        "coordinates": [
          -38.78958215094341,
          -3.694259094339621
        ]
      }
    },
    {
      "type": "Feature",
      "properties": {
        "node_id": 23,
        "rank": 23,
        "name": "Parque Veraneio - Caucaia",
        "bairro": "IPARANA",
        "municipality": "Caucaia",
        "faction": "CV",
        "risk_score": 75.141,
        "score": 75.141,
        "region": "rmf",
        "parent_area": "IPARANA",
        "parent_risk_score": 96.2,
        "parent_risk_level": "crítico",
        "parent_status": "CRÍTICO",
        "local_street_pressure": 1.314,
        "nearby_streets_count": 2,
        "nearby_streets": [
          "PARQUE VERANEIO - CAUCAIA",
          "CONDOMÍNIO SÃO PAULO E SÃO PEDRO"
        ],
        "is_tactical": true,
        "generated_at": "2026-09-24T14:42:50.046626"
      },
      "geometry": {
        "type": "Point",
        "coordinates": [
          -38.65913514285713,
          -3.684865
        ]
      }
    },
    {
      "type": "Feature",
      "properties": {
        "node_id": 24,
        "rank": 24,
        "name": "Boqueirão - Caucaia",
        "bairro": "CAUCAIA",
        "municipality": "Caucaia",
        "faction": "CV",
        "risk_score": 74.969,
        "score": 74.969,
        "region": "rmf",
        "parent_area": "CAUCAIA",
        "parent_risk_score": 96.2,
        "parent_risk_level": "crítico",
        "parent_status": "CRÍTICO",
        "local_street_pressure": 1.226,
        "nearby_streets_count": 1,
        "nearby_streets": [
          "BOQUEIRÃO - CAUCAIA"
        ],
        "is_tactical": true,
        "generated_at": "2026-09-24T14:42:50.046626"
      },
      "geometry": {
        "type": "Point",
        "coordinates": [
          -38.87538952941177,
          -3.7468802352941175
        ]
      }
    },
    {
      "type": "Feature",
      "properties": {
        "node_id": 25,
        "rank": 25,
        "name": "Distrito de Bolso",
        "bairro": "CAUCAIA",
        "municipality": "CAUCAIA",
        "faction": "CV",
        "risk_score": 74.797,
        "score": 74.797,
        "region": "rmf",
        "parent_area": "CAUCAIA",
        "parent_risk_score": 96.2,
        "parent_risk_level": "crítico",
        "parent_status": "CRÍTICO",
        "local_street_pressure": 0.554,
        "nearby_streets_count": 1,
        "nearby_streets": [
          "DISTRITO DE BOLSO"
        ],
        "is_tactical": true,
        "generated_at": "2026-09-24T14:42:50.046626"
      },
      "geometry": {
        "type": "Point",
        "coordinates": [
          -38.85515045161291,
          -3.619330677419356
        ]
      }
    },
    {
      "type": "Feature",
      "properties": {
        "node_id": 26,
        "rank": 26,
        "name": "Tucunduba",
        "bairro": "CAUCAIA",
        "municipality": "CAUCAIA",
        "faction": "CV",
        "risk_score": 74.73,
        "score": 74.73,
        "region": "rmf",
        "parent_area": "CAUCAIA",
        "parent_risk_score": 96.2,
        "parent_risk_level": "crítico",
        "parent_status": "CRÍTICO",
        "local_street_pressure": 0.984,
        "nearby_streets_count": 1,
        "nearby_streets": [
          "TUCUNDUBA"
        ],
        "is_tactical": true,
        "generated_at": "2026-09-24T14:42:50.046626"
      },
      "geometry": {
        "type": "Point",
        "coordinates": [
          -38.753029229166664,
          -3.8719210208333323
        ]
      }
    },
    {
      "type": "Feature",
      "properties": {
        "node_id": 27,
        "rank": 27,
        "name": "Toco- Caucaia",
        "bairro": "URUCUTUBA",
        "municipality": "Caucaia",
        "faction": "CV",
        "risk_score": 74.723,
        "score": 74.723,
        "region": "rmf",
        "parent_area": "URUCUTUBA",
        "parent_risk_score": 96.2,
        "parent_risk_level": "crítico",
        "parent_status": "CRÍTICO",
        "local_street_pressure": 0.308,
        "nearby_streets_count": 1,
        "nearby_streets": [
          "TOCO- CAUCAIA"
        ],
        "is_tactical": true,
        "generated_at": "2026-09-24T14:42:50.046626"
      },
      "geometry": {
        "type": "Point",
        "coordinates": [
          -38.67696664583333,
          -3.7788568333333337
        ]
      }
    },
    {
      "type": "Feature",
      "properties": {
        "node_id": 28,
        "rank": 28,
        "name": "Carrapicho- Caucaia",
        "bairro": "URUCUTUBA",
        "municipality": "Caucaia",
        "faction": "CV",
        "risk_score": 74.438,
        "score": 74.438,
        "region": "rmf",
        "parent_area": "URUCUTUBA",
        "parent_risk_score": 96.2,
        "parent_risk_level": "crítico",
        "parent_status": "CRÍTICO",
        "local_street_pressure": 0.625,
        "nearby_streets_count": 1,
        "nearby_streets": [
          "CARRAPICHO- CAUCAIA"
        ],
        "is_tactical": true,
        "generated_at": "2026-09-24T14:42:50.046626"
      },
      "geometry": {
        "type": "Point",
        "coordinates": [
          -38.686855,
          -3.782990586206896
        ]
      }
    },
    {
      "type": "Feature",
      "properties": {
        "node_id": 29,
        "rank": 29,
        "name": "Língua da Cobra",
        "bairro": "CAUCAIA",
        "municipality": "CAUCAIA",
        "faction": "CV",
        "risk_score": 74.421,
        "score": 74.421,
        "region": "rmf",
        "parent_area": "CAUCAIA",
        "parent_risk_score": 96.2,
        "parent_risk_level": "crítico",
        "parent_status": "CRÍTICO",
        "local_street_pressure": 0.766,
        "nearby_streets_count": 1,
        "nearby_streets": [
          "LÍNGUA DA COBRA"
        ],
        "is_tactical": true,
        "generated_at": "2026-09-24T14:42:50.046626"
      },
      "geometry": {
        "type": "Point",
        "coordinates": [
          -38.78185689189189,
          -3.841368378378378
        ]
      }
    },
    {
      "type": "Feature",
      "properties": {
        "node_id": 30,
        "rank": 30,
        "name": "Bom Jesus - Caucaia",
        "bairro": "PARQUE SOLEDADE",
        "municipality": "Caucaia",
        "faction": "CV",
        "risk_score": 73.826,
        "score": 73.826,
        "region": "rmf",
        "parent_area": "PARQUE SOLEDADE",
        "parent_risk_score": 96.2,
        "parent_risk_level": "crítico",
        "parent_status": "CRÍTICO",
        "local_street_pressure": 0.522,
        "nearby_streets_count": 1,
        "nearby_streets": [
          "BOM JESUS - CAUCAIA"
        ],
        "is_tactical": true,
        "generated_at": "2026-09-24T14:42:50.046626"
      },
      "geometry": {
        "type": "Point",
        "coordinates": [
          -38.67954290909092,
          -3.714925909090909
        ]
      }
    },
    {
      "type": "Feature",
      "properties": {
        "node_id": 31,
        "rank": 31,
        "name": "Guabiraba",
        "bairro": "MARACANAÚ",
        "municipality": "MARACANAU",
        "faction": "CV",
        "risk_score": 66.145,
        "score": 66.145,
        "region": "rmf",
        "parent_area": "MARACANAÚ",
        "parent_risk_score": 61.8,
        "parent_risk_level": "alto",
        "parent_status": "ALTO",
        "local_street_pressure": 9.662,
        "nearby_streets_count": 24,
        "nearby_streets": [
          "GUABIRABA",
          "RUA ENÓI DE ABREU BRAGA",
          "BECO DO BURACO - VILA SÃO JOSÉ - ALTO DO CAJUEIRO"
        ],
        "is_tactical": true,
        "generated_at": "2026-09-24T14:42:50.046626"
      },
      "geometry": {
        "type": "Point",
        "coordinates": [
          -38.688817368421056,
          -3.8961198947368425
        ]
      }
    },
    {
      "type": "Feature",
      "properties": {
        "node_id": 32,
        "rank": 32,
        "name": "Mororó",
        "bairro": "MARACANAÚ",
        "municipality": "MARACANAU",
        "faction": "CV",
        "risk_score": 65.832,
        "score": 65.832,
        "region": "rmf",
        "parent_area": "MARACANAÚ",
        "parent_risk_score": 61.8,
        "parent_risk_level": "alto",
        "parent_status": "ALTO",
        "local_street_pressure": 9.644,
        "nearby_streets_count": 22,
        "nearby_streets": [
          "MORORÓ",
          "RUA RAIMUNDO JUSTINI DE MORAIS",
          "RUA MARIA ESTRELA"
        ],
        "is_tactical": true,
        "generated_at": "2026-09-24T14:42:50.046626"
      },
      "geometry": {
        "type": "Point",
        "coordinates": [
          -38.67521514285715,
          -3.886540071428571
        ]
      }
    },
    {
      "type": "Feature",
      "properties": {
        "node_id": 33,
        "rank": 33,
        "name": "Rodoviária - Maranguape",
        "bairro": "MARACANAÚ",
        "municipality": "Maranguape",
        "faction": "CV",
        "risk_score": 65.452,
        "score": 65.452,
        "region": "rmf",
        "parent_area": "MARACANAÚ",
        "parent_risk_score": 61.8,
        "parent_risk_level": "alto",
        "parent_status": "ALTO",
        "local_street_pressure": 9.399,
        "nearby_streets_count": 30,
        "nearby_streets": [
          "RODOVIÁRIA - MARANGUAPE",
          "RUA CHICÓ ANÍSIO",
          "TANGUEIRA"
        ],
        "is_tactical": true,
        "generated_at": "2026-09-24T14:42:50.046626"
      },
      "geometry": {
        "type": "Point",
        "coordinates": [
          -38.680890857142856,
          -3.8962617857142847
        ]
      }
    },
    {
      "type": "Feature",
      "properties": {
        "node_id": 34,
        "rank": 34,
        "name": "Alto Cemitério",
        "bairro": "MARACANAÚ",
        "municipality": "MARACANAU",
        "faction": "CV",
        "risk_score": 64.747,
        "score": 64.747,
        "region": "rmf",
        "parent_area": "MARACANAÚ",
        "parent_risk_score": 61.8,
        "parent_risk_level": "alto",
        "parent_status": "ALTO",
        "local_street_pressure": 9.033,
        "nearby_streets_count": 29,
        "nearby_streets": [
          "ALTO CEMITÉRIO",
          "RUA CHICÓ AMADOR",
          "RUA RAIMUNDO HERBSTER"
        ],
        "is_tactical": true,
        "generated_at": "2026-09-24T14:42:50.046626"
      },
      "geometry": {
        "type": "Point",
        "coordinates": [
          -38.685423351351346,
          -3.887221891891892
        ]
      }
    },
    {
      "type": "Feature",
      "properties": {
        "node_id": 35,
        "rank": 35,
        "name": "Coité",
        "bairro": "MARACANAÚ",
        "municipality": "MARACANAU",
        "faction": "CV",
        "risk_score": 64.471,
        "score": 64.471,
        "region": "rmf",
        "parent_area": "MARACANAÚ",
        "parent_risk_score": 61.8,
        "parent_risk_level": "alto",
        "parent_status": "ALTO",
        "local_street_pressure": 8.874,
        "nearby_streets_count": 18,
        "nearby_streets": [
          "COITÉ",
          "RUA MANOEL QUEIRÓS DE OLIVEIRA",
          "RUA OLÍMPIO MIGUEL DOS SANTOS"
        ],
        "is_tactical": true,
        "generated_at": "2026-09-24T14:42:50.046626"
      },
      "geometry": {
        "type": "Point",
        "coordinates": [
          -38.67582890625,
          -3.907433
        ]
      }
    },
    {
      "type": "Feature",
      "properties": {
        "node_id": 36,
        "rank": 36,
        "name": "Outra Banda",
        "bairro": "MARACANAÚ",
        "municipality": "MARACANAU",
        "faction": "CV",
        "risk_score": 64.446,
        "score": 64.446,
        "region": "rmf",
        "parent_area": "MARACANAÚ",
        "parent_risk_score": 61.8,
        "parent_risk_level": "alto",
        "parent_status": "ALTO",
        "local_street_pressure": 8.679,
        "nearby_streets_count": 24,
        "nearby_streets": [
          "RUA GONTRAN NASCIMENTO",
          "OUTRA BANDA",
          "RUA DOUTOR ARGEU BRAGA HERBSTER"
        ],
        "is_tactical": true,
        "generated_at": "2026-09-24T14:42:50.046626"
      },
      "geometry": {
        "type": "Point",
        "coordinates": [
          -38.679789529411764,
          -3.8816516960784324
        ]
      }
    },
    {
      "type": "Feature",
      "properties": {
        "node_id": 37,
        "rank": 37,
        "name": "Jereissati Setor H - Pacatuba",
        "bairro": "MARACANAÚ",
        "municipality": "Pacatuba",
        "faction": "CV",
        "risk_score": 63.436,
        "score": 63.436,
        "region": "rmf",
        "parent_area": "MARACANAÚ",
        "parent_risk_score": 61.8,
        "parent_risk_level": "alto",
        "parent_status": "ALTO",
        "local_street_pressure": 7.551,
        "nearby_streets_count": 22,
        "nearby_streets": [
          "JEREISSATI SETOR H - PACATUBA",
          "AVENIDA XVII",
          "JEREISSATI SETOR E - MARACANAÚ"
        ],
        "is_tactical": true,
        "generated_at": "2026-09-24T14:42:50.046626"
      },
      "geometry": {
        "type": "Point",
        "coordinates": [
          -38.614602777777776,
          -3.8890546296296313
        ]
      }
    },
    {
      "type": "Feature",
      "properties": {
        "node_id": 38,
        "rank": 38,
        "name": "Parque São João",
        "bairro": "MARACANAÚ",
        "municipality": "MARACANAU",
        "faction": "CV",
        "risk_score": 63.042,
        "score": 63.042,
        "region": "rmf",
        "parent_area": "MARACANAÚ",
        "parent_risk_score": 61.8,
        "parent_risk_level": "alto",
        "parent_status": "ALTO",
        "local_street_pressure": 8.086,
        "nearby_streets_count": 23,
        "nearby_streets": [
          "PARQUE SÃO JOÃO",
          "RUA CÔNEGO HEITOR VIÊIRA CAVALCANTE",
          "TANGUEIRA"
        ],
        "is_tactical": true,
        "generated_at": "2026-09-24T14:42:50.046626"
      },
      "geometry": {
        "type": "Point",
        "coordinates": [
          -38.67814661111111,
          -3.9002411666666665
        ]
      }
    },
    {
      "type": "Feature",
      "properties": {
        "node_id": 39,
        "rank": 39,
        "name": "Jereissati Setor D - Maracanaú",
        "bairro": "MARACANAÚ",
        "municipality": "Maracanaú",
        "faction": "CV",
        "risk_score": 63.038,
        "score": 63.038,
        "region": "rmf",
        "parent_area": "MARACANAÚ",
        "parent_risk_score": 61.8,
        "parent_risk_level": "alto",
        "parent_status": "ALTO",
        "local_street_pressure": 7.421,
        "nearby_streets_count": 25,
        "nearby_streets": [
          "JEREISSATI SETOR D - MARACANAÚ",
          "JEREISSATI SETOR E - MARACANAÚ",
          "JEREISSATI SETOR A - MARACANAÚ"
        ],
        "is_tactical": true,
        "generated_at": "2026-09-24T14:42:50.046626"
      },
      "geometry": {
        "type": "Point",
        "coordinates": [
          -38.618326520000004,
          -3.8813451199999998
        ]
      }
    },
    {
      "type": "Feature",
      "properties": {
        "node_id": 40,
        "rank": 40,
        "name": "Rua do trilho",
        "bairro": "MARACANAÚ",
        "municipality": "MARACANAU",
        "faction": "CV",
        "risk_score": 62.624,
        "score": 62.624,
        "region": "rmf",
        "parent_area": "MARACANAÚ",
        "parent_risk_score": 61.8,
        "parent_risk_level": "alto",
        "parent_status": "ALTO",
        "local_street_pressure": 7.942,
        "nearby_streets_count": 25,
        "nearby_streets": [
          "RUA DO TRILHO",
          "PASSARELA",
          "RUA 15"
        ],
        "is_tactical": true,
        "generated_at": "2026-09-24T14:42:50.046626"
      },
      "geometry": {
        "type": "Point",
        "coordinates": [
          -38.62686676923076,
          -3.881599692307692
        ]
      }
    },
    {
      "type": "Feature",
      "properties": {
        "node_id": 41,
        "rank": 41,
        "name": "Parque Santa Fé",
        "bairro": "MARACANAÚ",
        "municipality": "MARACANAU",
        "faction": "CV",
        "risk_score": 62.534,
        "score": 62.534,
        "region": "rmf",
        "parent_area": "MARACANAÚ",
        "parent_risk_score": 61.8,
        "parent_risk_level": "alto",
        "parent_status": "ALTO",
        "local_street_pressure": 7.625,
        "nearby_streets_count": 21,
        "nearby_streets": [
          "PARQUE SANTA FÉ",
          "TRAVESSA VALTER PIMENTA LÍRA",
          "RUA AGOSTINHO FERNANDES"
        ],
        "is_tactical": true,
        "generated_at": "2026-09-24T14:42:50.046626"
      },
      "geometry": {
        "type": "Point",
        "coordinates": [
          -38.685771823529414,
          -3.899302823529411
        ]
      }
    },
    {
      "type": "Feature",
      "properties": {
        "node_id": 42,
        "rank": 42,
        "name": "Comunidade do Prourb",
        "bairro": "MARACANAÚ",
        "municipality": "MARACANAU",
        "faction": "CV",
        "risk_score": 62.525,
        "score": 62.525,
        "region": "rmf",
        "parent_area": "MARACANAÚ",
        "parent_risk_score": 61.8,
        "parent_risk_level": "alto",
        "parent_status": "ALTO",
        "local_street_pressure": 7.768,
        "nearby_streets_count": 21,
        "nearby_streets": [
          "COMUNIDADE DO PROURB",
          "CONDOMÍNIO DA PALMEIRINHA",
          "MORORÓ"
        ],
        "is_tactical": true,
        "generated_at": "2026-09-24T14:42:50.046626"
      },
      "geometry": {
        "type": "Point",
        "coordinates": [
          -38.67169216666666,
          -3.885003133333333
        ]
      }
    },
    {
      "type": "Feature",
      "properties": {
        "node_id": 43,
        "rank": 43,
        "name": "Tangueira",
        "bairro": "MARACANAÚ",
        "municipality": "MARACANAU",
        "faction": "CV",
        "risk_score": 62.402,
        "score": 62.402,
        "region": "rmf",
        "parent_area": "MARACANAÚ",
        "parent_risk_score": 61.8,
        "parent_risk_level": "alto",
        "parent_status": "ALTO",
        "local_street_pressure": 7.722,
        "nearby_streets_count": 23,
        "nearby_streets": [
          "TANGUEIRA",
          "PARQUE SÃO JOÃO",
          "RUA RAIMUNDO BONIFÁCIO DA SILVA"
        ],
        "is_tactical": true,
        "generated_at": "2026-09-24T14:42:50.046626"
      },
      "geometry": {
        "type": "Point",
        "coordinates": [
          -38.677139933333336,
          -3.896820333333333
        ]
      }
    },
    {
      "type": "Feature",
      "properties": {
        "node_id": 44,
        "rank": 44,
        "name": "Jereissati Setor F - Pacatuba",
        "bairro": "MARACANAÚ",
        "municipality": "Pacatuba",
        "faction": "CV",
        "risk_score": 62.179,
        "score": 62.179,
        "region": "rmf",
        "parent_area": "MARACANAÚ",
        "parent_risk_score": 61.8,
        "parent_risk_level": "alto",
        "parent_status": "ALTO",
        "local_street_pressure": 7.21,
        "nearby_streets_count": 19,
        "nearby_streets": [
          "JEREISSATI SETOR F - PACATUBA",
          "RESIDENCIAL PACATUBA 1",
          "RESIDENCIAL PACATUBA 2"
        ],
        "is_tactical": true,
        "generated_at": "2026-09-24T14:42:50.046626"
      },
      "geometry": {
        "type": "Point",
        "coordinates": [
          -38.609832,
          -3.8931822857142855
        ]
      }
    },
    {
      "type": "Feature",
      "properties": {
        "node_id": 45,
        "rank": 45,
        "name": "Jereissati Setor E - Maracanaú",
        "bairro": "MARACANAÚ",
        "municipality": "Maracanaú",
        "faction": "CV",
        "risk_score": 62.113,
        "score": 62.113,
        "region": "rmf",
        "parent_area": "MARACANAÚ",
        "parent_risk_score": 61.8,
        "parent_risk_level": "alto",
        "parent_status": "ALTO",
        "local_street_pressure": 7.462,
        "nearby_streets_count": 23,
        "nearby_streets": [
          "JEREISSATI SETOR E - MARACANAÚ",
          "BOA VISTA - MARACANAÚ",
          "JEREISSATI SETOR H - PACATUBA"
        ],
        "is_tactical": true,
        "generated_at": "2026-09-24T14:42:50.046626"
      },
      "geometry": {
        "type": "Point",
        "coordinates": [
          -38.619134352941174,
          -3.887311470588235
        ]
      }
    },
    {
      "type": "Feature",
      "properties": {
        "node_id": 46,
        "rank": 46,
        "name": "Planalto Benjamin",
        "bairro": "MARACANAÚ",
        "municipality": "MARACANAU",
        "faction": "CV",
        "risk_score": 62.083,
        "score": 62.083,
        "region": "rmf",
        "parent_area": "MARACANAÚ",
        "parent_risk_score": 61.8,
        "parent_risk_level": "alto",
        "parent_status": "ALTO",
        "local_street_pressure": 7.408,
        "nearby_streets_count": 21,
        "nearby_streets": [
          "PLANALTO BENJAMIN",
          "VILA DAS FLORES",
          "AVENIDA XVII"
        ],
        "is_tactical": true,
        "generated_at": "2026-09-24T14:42:50.046626"
      },
      "geometry": {
        "type": "Point",
        "coordinates": [
          -38.61897728571429,
          -3.893911428571429
        ]
      }
    },
    {
      "type": "Feature",
      "properties": {
        "node_id": 47,
        "rank": 47,
        "name": "Jereissati Setor C - Maracanaú",
        "bairro": "MARACANAÚ",
        "municipality": "Maracanaú",
        "faction": "CV",
        "risk_score": 62.067,
        "score": 62.067,
        "region": "rmf",
        "parent_area": "MARACANAÚ",
        "parent_risk_score": 61.8,
        "parent_risk_level": "alto",
        "parent_status": "ALTO",
        "local_street_pressure": 7.275,
        "nearby_streets_count": 25,
        "nearby_streets": [
          "JEREISSATI SETOR C - MARACANAÚ",
          "RUA 31",
          "JEREISSATI SETOR B - MARACANAÚ"
        ],
        "is_tactical": true,
        "generated_at": "2026-09-24T14:42:50.046626"
      },
      "geometry": {
        "type": "Point",
        "coordinates": [
          -38.610529,
          -3.880414538461539
        ]
      }
    },
    {
      "type": "Feature",
      "properties": {
        "node_id": 48,
        "rank": 48,
        "name": "Alta Delta",
        "bairro": "MARACANAÚ",
        "municipality": "MARACANAU",
        "faction": "CV",
        "risk_score": 61.997,
        "score": 61.997,
        "region": "rmf",
        "parent_area": "MARACANAÚ",
        "parent_risk_score": 61.8,
        "parent_risk_level": "alto",
        "parent_status": "ALTO",
        "local_street_pressure": 7.334,
        "nearby_streets_count": 15,
        "nearby_streets": [
          "ALTA DELTA",
          "RUA MANOEL NUNES DO NASCIMENTO",
          "RUA MUNDINHO CARLOS"
        ],
        "is_tactical": true,
        "generated_at": "2026-09-24T14:42:50.046626"
      },
      "geometry": {
        "type": "Point",
        "coordinates": [
          -38.691858624999995,
          -3.920908125
        ]
      }
    },
    {
      "type": "Feature",
      "properties": {
        "node_id": 49,
        "rank": 49,
        "name": "Passarela",
        "bairro": "MARACANAÚ",
        "municipality": "MARACANAU",
        "faction": "CV",
        "risk_score": 61.834,
        "score": 61.834,
        "region": "rmf",
        "parent_area": "MARACANAÚ",
        "parent_risk_score": 61.8,
        "parent_risk_level": "alto",
        "parent_status": "ALTO",
        "local_street_pressure": 7.242,
        "nearby_streets_count": 23,
        "nearby_streets": [
          "PASSARELA",
          "RUA DO TRILHO",
          "RUA 15"
        ],
        "is_tactical": true,
        "generated_at": "2026-09-24T14:42:50.046626"
      },
      "geometry": {
        "type": "Point",
        "coordinates": [
          -38.62390864516128,
          -3.8811986774193548
        ]
      }
    },
    {
      "type": "Feature",
      "properties": {
        "node_id": 50,
        "rank": 50,
        "name": "Residencial Pacatuba 1",
        "bairro": "MARACANAÚ",
        "municipality": "MARACANAU",
        "faction": "CV",
        "risk_score": 61.463,
        "score": 61.463,
        "region": "rmf",
        "parent_area": "MARACANAÚ",
        "parent_risk_score": 61.8,
        "parent_risk_level": "alto",
        "parent_status": "ALTO",
        "local_street_pressure": 7.318,
        "nearby_streets_count": 19,
        "nearby_streets": [
          "RESIDENCIAL PACATUBA 1",
          "RESIDENCIAL PACATUBA 2",
          "JEREISSATI SETOR F - PACATUBA"
        ],
        "is_tactical": true,
        "generated_at": "2026-09-24T14:42:50.046626"
      },
      "geometry": {
        "type": "Point",
        "coordinates": [
          -38.60664216666667,
          -3.8910968333333336
        ]
      }
    },
    {
      "type": "Feature",
      "properties": {
        "node_id": 51,
        "rank": 51,
        "name": "Condomínio da Santa",
        "bairro": "MARACANAÚ",
        "municipality": "MARACANAU",
        "faction": "CV",
        "risk_score": 61.363,
        "score": 61.363,
        "region": "rmf",
        "parent_area": "MARACANAÚ",
        "parent_risk_score": 61.8,
        "parent_risk_level": "alto",
        "parent_status": "ALTO",
        "local_street_pressure": 7.252,
        "nearby_streets_count": 19,
        "nearby_streets": [
          "CONDOMÍNIO DA SANTA",
          "RUA GONÇALO CÂNDIDO",
          "RUA LOTEAMENTO"
        ],
        "is_tactical": true,
        "generated_at": "2026-09-24T14:42:50.046626"
      },
      "geometry": {
        "type": "Point",
        "coordinates": [
          -38.67920781818182,
          -3.874911727272728
        ]
      }
    },
    {
      "type": "Feature",
      "properties": {
        "node_id": 52,
        "rank": 52,
        "name": "Jereissati Setor G - Pacatuba",
        "bairro": "MARACANAÚ",
        "municipality": "Pacatuba",
        "faction": "CV",
        "risk_score": 61.336,
        "score": 61.336,
        "region": "rmf",
        "parent_area": "MARACANAÚ",
        "parent_risk_score": 61.8,
        "parent_risk_level": "alto",
        "parent_status": "ALTO",
        "local_street_pressure": 6.878,
        "nearby_streets_count": 23,
        "nearby_streets": [
          "JEREISSATI SETOR G - PACATUBA",
          "RESIDENCIAL PACATUBA 2",
          "CAMPOS DO JORDÃO"
        ],
        "is_tactical": true,
        "generated_at": "2026-09-24T14:42:50.046626"
      },
      "geometry": {
        "type": "Point",
        "coordinates": [
          -38.60721523529413,
          -3.8852174117647063
        ]
      }
    },
    {
      "type": "Feature",
      "properties": {
        "node_id": 53,
        "rank": 53,
        "name": "Residencial Pacatuba 2",
        "bairro": "MARACANAÚ",
        "municipality": "MARACANAU",
        "faction": "CV",
        "risk_score": 61.212,
        "score": 61.212,
        "region": "rmf",
        "parent_area": "MARACANAÚ",
        "parent_risk_score": 61.8,
        "parent_risk_level": "alto",
        "parent_status": "ALTO",
        "local_street_pressure": 7.178,
        "nearby_streets_count": 18,
        "nearby_streets": [
          "RESIDENCIAL PACATUBA 2",
          "RESIDENCIAL PACATUBA 1",
          "JEREISSATI SETOR G - PACATUBA"
        ],
        "is_tactical": true,
        "generated_at": "2026-09-24T14:42:50.046626"
      },
      "geometry": {
        "type": "Point",
        "coordinates": [
          -38.606330428571425,
          -3.890242
        ]
      }
    },
    {
      "type": "Feature",
      "properties": {
        "node_id": 54,
        "rank": 54,
        "name": "Boa Vista - Maracanaú",
        "bairro": "MARACANAÚ",
        "municipality": "Maracanaú",
        "faction": "CV",
        "risk_score": 60.969,
        "score": 60.969,
        "region": "rmf",
        "parent_area": "MARACANAÚ",
        "parent_risk_score": 61.8,
        "parent_risk_level": "alto",
        "parent_status": "ALTO",
        "local_street_pressure": 6.954,
        "nearby_streets_count": 22,
        "nearby_streets": [
          "BOA VISTA - MARACANAÚ",
          "ESTAÇÃO - BOA VISTA",
          "JEREISSATI SETOR E - MARACANAÚ"
        ],
        "is_tactical": true,
        "generated_at": "2026-09-24T14:42:50.046626"
      },
      "geometry": {
        "type": "Point",
        "coordinates": [
          -38.623106285714286,
          -3.8887884285714276
        ]
      }
    },
    {
      "type": "Feature",
      "properties": {
        "node_id": 55,
        "rank": 55,
        "name": "Campo do Palmeiras",
        "bairro": "MARACANAÚ",
        "municipality": "MARACANAU",
        "faction": "CV",
        "risk_score": 60.764,
        "score": 60.764,
        "region": "rmf",
        "parent_area": "MARACANAÚ",
        "parent_risk_score": 61.8,
        "parent_risk_level": "alto",
        "parent_status": "ALTO",
        "local_street_pressure": 6.58,
        "nearby_streets_count": 16,
        "nearby_streets": [
          "CAMPO DO PALMEIRAS",
          "CONDOMÍNIO DA PALMEIRINHA",
          "ILHA"
        ],
        "is_tactical": true,
        "generated_at": "2026-09-24T14:42:50.046626"
      },
      "geometry": {
        "type": "Point",
        "coordinates": [
          -38.6711151,
          -3.88047445
        ]
      }
    },
    {
      "type": "Feature",
      "properties": {
        "node_id": 56,
        "rank": 56,
        "name": "Área Seca",
        "bairro": "MARACANAÚ",
        "municipality": "MARACANAU",
        "faction": "CV",
        "risk_score": 60.674,
        "score": 60.674,
        "region": "rmf",
        "parent_area": "MARACANAÚ",
        "parent_risk_score": 61.8,
        "parent_risk_level": "alto",
        "parent_status": "ALTO",
        "local_street_pressure": 6.522,
        "nearby_streets_count": 16,
        "nearby_streets": [
          "ÁREA SECA",
          "RUA RAIMUNDO PACHÊCO",
          "CIDADE DE DEUS - ÁREA SECA"
        ],
        "is_tactical": true,
        "generated_at": "2026-09-24T14:42:50.046626"
      },
      "geometry": {
        "type": "Point",
        "coordinates": [
          -38.6646286521739,
          -3.876095521739131
        ]
      }
    },
    {
      "type": "Feature",
      "properties": {
        "node_id": 57,
        "rank": 57,
        "name": "Piratininga",
        "bairro": "MARACANAÚ",
        "municipality": "MARACANAU",
        "faction": "CV",
        "risk_score": 60.296,
        "score": 60.296,
        "region": "rmf",
        "parent_area": "MARACANAÚ",
        "parent_risk_score": 61.8,
        "parent_risk_level": "alto",
        "parent_status": "ALTO",
        "local_street_pressure": 6.16,
        "nearby_streets_count": 20,
        "nearby_streets": [
          "PIRATININGA",
          "COQUEIRAL - MARACANAÚ",
          "RUA ARI LOBO"
        ],
        "is_tactical": true,
        "generated_at": "2026-09-24T14:42:50.046626"
      },
      "geometry": {
        "type": "Point",
        "coordinates": [
          -38.62739308333334,
          -3.869460666666667
        ]
      }
    },
    {
      "type": "Feature",
      "properties": {
        "node_id": 58,
        "rank": 58,
        "name": "Favela Da Lagoa",
        "bairro": "MARACANAÚ",
        "municipality": "MARACANAU",
        "faction": "CV",
        "risk_score": 60.218,
        "score": 60.218,
        "region": "rmf",
        "parent_area": "MARACANAÚ",
        "parent_risk_score": 61.8,
        "parent_risk_level": "alto",
        "parent_status": "ALTO",
        "local_street_pressure": 6.612,
        "nearby_streets_count": 20,
        "nearby_streets": [
          "FAVELA DA LAGOA",
          "RUA 15",
          "RUA DO TRILHO"
        ],
        "is_tactical": true,
        "generated_at": "2026-09-24T14:42:50.046626"
      },
      "geometry": {
        "type": "Point",
        "coordinates": [
          -38.626757722222216,
          -3.876714611111111
        ]
      }
    },
    {
      "type": "Feature",
      "properties": {
        "node_id": 59,
        "rank": 59,
        "name": "Condomínio da Palmeirinha",
        "bairro": "MARACANAÚ",
        "municipality": "MARACANAU",
        "faction": "CV",
        "risk_score": 60.174,
        "score": 60.174,
        "region": "rmf",
        "parent_area": "MARACANAÚ",
        "parent_risk_score": 61.8,
        "parent_risk_level": "alto",
        "parent_status": "ALTO",
        "local_street_pressure": 6.57,
        "nearby_streets_count": 16,
        "nearby_streets": [
          "CONDOMÍNIO DA PALMEIRINHA",
          "ILHA",
          "COMUNIDADE DO PROURB"
        ],
        "is_tactical": true,
        "generated_at": "2026-09-24T14:42:50.046626"
      },
      "geometry": {
        "type": "Point",
        "coordinates": [
          -38.669548500000005,
          -3.8824635
        ]
      }
    },
    {
      "type": "Feature",
      "properties": {
        "node_id": 60,
        "rank": 60,
        "name": "Santos Dumont",
        "bairro": "MARACANAÚ",
        "municipality": "MARACANAU",
        "faction": "CV",
        "risk_score": 60.025,
        "score": 60.025,
        "region": "rmf",
        "parent_area": "MARACANAÚ",
        "parent_risk_score": 61.8,
        "parent_risk_level": "alto",
        "parent_status": "ALTO",
        "local_street_pressure": 6.218,
        "nearby_streets_count": 19,
        "nearby_streets": [
          "SANTOS DUMONT",
          "RUA GUIOMAR CÂMARA",
          "RUA VALDECY SOUSA DE OLIVEIRA"
        ],
        "is_tactical": true,
        "generated_at": "2026-09-24T14:42:50.046626"
      },
      "geometry": {
        "type": "Point",
        "coordinates": [
          -38.687354595238105,
          -3.9059278095238095
        ]
      }
    },
    {
      "type": "Feature",
      "properties": {
        "node_id": 61,
        "rank": 61,
        "name": "Alto da Mangueira - Maracanaú",
        "bairro": "MARACANAÚ",
        "municipality": "Maracanaú",
        "faction": "CV",
        "risk_score": 59.887,
        "score": 59.887,
        "region": "rmf",
        "parent_area": "MARACANAÚ",
        "parent_risk_score": 61.8,
        "parent_risk_level": "alto",
        "parent_status": "ALTO",
        "local_street_pressure": 5.91,
        "nearby_streets_count": 19,
        "nearby_streets": [
          "ALTO DA MANGUEIRA - MARACANAÚ",
          "RUA LUIS GIRÃO",
          "COLÔNIA - (EM DISPUTA)"
        ],
        "is_tactical": true,
        "generated_at": "2026-09-24T14:42:50.046626"
      },
      "geometry": {
        "type": "Point",
        "coordinates": [
          -38.62994783333333,
          -3.8872123333333337
        ]
      }
    },
    {
      "type": "Feature",
      "properties": {
        "node_id": 62,
        "rank": 62,
        "name": "Ilha",
        "bairro": "MARACANAÚ",
        "municipality": "MARACANAU",
        "faction": "CV",
        "risk_score": 59.869,
        "score": 59.869,
        "region": "rmf",
        "parent_area": "MARACANAÚ",
        "parent_risk_score": 61.8,
        "parent_risk_level": "alto",
        "parent_status": "ALTO",
        "local_street_pressure": 6.432,
        "nearby_streets_count": 16,
        "nearby_streets": [
          "ILHA",
          "CONDOMÍNIO DA PALMEIRINHA",
          "CAMPO DO PALMEIRAS"
        ],
        "is_tactical": true,
        "generated_at": "2026-09-24T14:42:50.046626"
      },
      "geometry": {
        "type": "Point",
        "coordinates": [
          -38.667613214285716,
          -3.8808333571428575
        ]
      }
    },
    {
      "type": "Feature",
      "properties": {
        "node_id": 63,
        "rank": 63,
        "name": "Timbó",
        "bairro": "MARACANAÚ",
        "municipality": "MARACANAU",
        "faction": "CV",
        "risk_score": 59.816,
        "score": 59.816,
        "region": "rmf",
        "parent_area": "MARACANAÚ",
        "parent_risk_score": 61.8,
        "parent_risk_level": "alto",
        "parent_status": "ALTO",
        "local_street_pressure": 5.646,
        "nearby_streets_count": 19,
        "nearby_streets": [
          "RUA 125",
          "TIMBÓ",
          "JEREISSATI SETOR C - MARACANAÚ"
        ],
        "is_tactical": true,
        "generated_at": "2026-09-24T14:42:50.046626"
      },
      "geometry": {
        "type": "Point",
        "coordinates": [
          -38.60467241176471,
          -3.8787646764705888
        ]
      }
    },
    {
      "type": "Feature",
      "properties": {
        "node_id": 64,
        "rank": 64,
        "name": "Jereissati Setor A - Maracanaú",
        "bairro": "MARACANAÚ",
        "municipality": "Maracanaú",
        "faction": "CV",
        "risk_score": 59.731,
        "score": 59.731,
        "region": "rmf",
        "parent_area": "MARACANAÚ",
        "parent_risk_score": 61.8,
        "parent_risk_level": "alto",
        "parent_status": "ALTO",
        "local_street_pressure": 5.899,
        "nearby_streets_count": 20,
        "nearby_streets": [
          "JEREISSATI SETOR A - MARACANAÚ",
          "OURO PRETO",
          "RUA 15"
        ],
        "is_tactical": true,
        "generated_at": "2026-09-24T14:42:50.046626"
      },
      "geometry": {
        "type": "Point",
        "coordinates": [
          -38.620903479999996,
          -3.87406864
        ]
      }
    },
    {
      "type": "Feature",
      "properties": {
        "node_id": 65,
        "rank": 65,
        "name": "Ouro preto",
        "bairro": "MARACANAÚ",
        "municipality": "MARACANAU",
        "faction": "CV",
        "risk_score": 59.678,
        "score": 59.678,
        "region": "rmf",
        "parent_area": "MARACANAÚ",
        "parent_risk_score": 61.8,
        "parent_risk_level": "alto",
        "parent_status": "ALTO",
        "local_street_pressure": 6.304,
        "nearby_streets_count": 20,
        "nearby_streets": [
          "OURO PRETO",
          "JEREISSATI SETOR A - MARACANAÚ",
          "NOVO MARACANAÚ"
        ],
        "is_tactical": true,
        "generated_at": "2026-09-24T14:42:50.046626"
      },
      "geometry": {
        "type": "Point",
        "coordinates": [
          -38.621796791666675,
          -3.8714770416666666
        ]
      }
    },
    {
      "type": "Feature",
      "properties": {
        "node_id": 66,
        "rank": 66,
        "name": "Vila das Flores",
        "bairro": "MARACANAÚ",
        "municipality": "MARACANAU",
        "faction": "CV",
        "risk_score": 59.591,
        "score": 59.591,
        "region": "rmf",
        "parent_area": "MARACANAÚ",
        "parent_risk_score": 61.8,
        "parent_risk_level": "alto",
        "parent_status": "ALTO",
        "local_street_pressure": 6.008,
        "nearby_streets_count": 18,
        "nearby_streets": [
          "VILA DAS FLORES",
          "PLANALTO BENJAMIN",
          "PLANALTO VERDE"
        ],
        "is_tactical": true,
        "generated_at": "2026-09-24T14:42:50.046626"
      },
      "geometry": {
        "type": "Point",
        "coordinates": [
          -38.62182189285715,
          -3.8962576428571425
        ]
      }
    },
    {
      "type": "Feature",
      "properties": {
        "node_id": 67,
        "rank": 67,
        "name": "Pato Selvagem",
        "bairro": "MARACANAÚ",
        "municipality": "MARACANAU",
        "faction": "CV",
        "risk_score": 59.464,
        "score": 59.464,
        "region": "rmf",
        "parent_area": "MARACANAÚ",
        "parent_risk_score": 61.8,
        "parent_risk_level": "alto",
        "parent_status": "ALTO",
        "local_street_pressure": 5.942,
        "nearby_streets_count": 12,
        "nearby_streets": [
          "PATO SELVAGEM",
          "RUA FLÔR PRIMAVERA",
          "RUA FLÔR MARGARIDA"
        ],
        "is_tactical": true,
        "generated_at": "2026-09-24T14:42:50.046626"
      },
      "geometry": {
        "type": "Point",
        "coordinates": [
          -38.675674307692304,
          -3.9126038076923075
        ]
      }
    },
    {
      "type": "Feature",
      "properties": {
        "node_id": 68,
        "rank": 68,
        "name": "Coqueiral - Maracanaú",
        "bairro": "MARACANAÚ",
        "municipality": "Maracanaú",
        "faction": "CV",
        "risk_score": 59.306,
        "score": 59.306,
        "region": "rmf",
        "parent_area": "MARACANAÚ",
        "parent_risk_score": 61.8,
        "parent_risk_level": "alto",
        "parent_status": "ALTO",
        "local_street_pressure": 5.865,
        "nearby_streets_count": 17,
        "nearby_streets": [
          "COQUEIRAL - MARACANAÚ",
          "RUA CINCO",
          "RUA ARI LOBO"
        ],
        "is_tactical": true,
        "generated_at": "2026-09-24T14:42:50.046626"
      },
      "geometry": {
        "type": "Point",
        "coordinates": [
          -38.626063411764704,
          -3.8662988235294127
        ]
      }
    },
    {
      "type": "Feature",
      "properties": {
        "node_id": 69,
        "rank": 69,
        "name": "Jereissati Setor B - Maracanaú",
        "bairro": "MARACANAÚ",
        "municipality": "Maracanaú",
        "faction": "CV",
        "risk_score": 58.732,
        "score": 58.732,
        "region": "rmf",
        "parent_area": "MARACANAÚ",
        "parent_risk_score": 61.8,
        "parent_risk_level": "alto",
        "parent_status": "ALTO",
        "local_street_pressure": 5.583,
        "nearby_streets_count": 22,
        "nearby_streets": [
          "JEREISSATI SETOR B - MARACANAÚ",
          "JEREISSATI SETOR C - MARACANAÚ",
          "JEREISSATI SETOR A - MARACANAÚ"
        ],
        "is_tactical": true,
        "generated_at": "2026-09-24T14:42:50.046626"
      },
      "geometry": {
        "type": "Point",
        "coordinates": [
          -38.613721125,
          -3.876170125
        ]
      }
    },
    {
      "type": "Feature",
      "properties": {
        "node_id": 70,
        "rank": 70,
        "name": "Campos do Jordão",
        "bairro": "MARACANAÚ",
        "municipality": "MARACANAU",
        "faction": "CV",
        "risk_score": 58.707,
        "score": 58.707,
        "region": "rmf",
        "parent_area": "MARACANAÚ",
        "parent_risk_score": 61.8,
        "parent_risk_level": "alto",
        "parent_status": "ALTO",
        "local_street_pressure": 5.643,
        "nearby_streets_count": 16,
        "nearby_streets": [
          "CAMPOS DO JORDÃO",
          "RESIDENCIAL PACATUBA 2",
          "RESIDENCIAL PACATUBA 1"
        ],
        "is_tactical": true,
        "generated_at": "2026-09-24T14:42:50.046626"
      },
      "geometry": {
        "type": "Point",
        "coordinates": [
          -38.602475000000005,
          -3.8897672666666665
        ]
      }
    },
    {
      "type": "Feature",
      "properties": {
        "node_id": 71,
        "rank": 71,
        "name": "Residencial Dummar 1",
        "bairro": "MARACANAÚ",
        "municipality": "MARACANAU",
        "faction": "CV",
        "risk_score": 58.539,
        "score": 58.539,
        "region": "rmf",
        "parent_area": "MARACANAÚ",
        "parent_risk_score": 61.8,
        "parent_risk_level": "alto",
        "parent_status": "ALTO",
        "local_street_pressure": 5.743,
        "nearby_streets_count": 15,
        "nearby_streets": [
          "RESIDENCIAL DUMMAR 1",
          "RESIDENCIAL DUMMAR 2",
          "RESIDENCIAL DUMMAR 3"
        ],
        "is_tactical": true,
        "generated_at": "2026-09-24T14:42:50.046626"
      },
      "geometry": {
        "type": "Point",
        "coordinates": [
          -38.598757000000006,
          -3.8808097777777775
        ]
      }
    },
    {
      "type": "Feature",
      "properties": {
        "node_id": 72,
        "rank": 72,
        "name": "Residencial Dummar 2",
        "bairro": "MARACANAÚ",
        "municipality": "MARACANAU",
        "faction": "CV",
        "risk_score": 57.702,
        "score": 57.702,
        "region": "rmf",
        "parent_area": "MARACANAÚ",
        "parent_risk_score": 61.8,
        "parent_risk_level": "alto",
        "parent_status": "ALTO",
        "local_street_pressure": 5.296,
        "nearby_streets_count": 12,
        "nearby_streets": [
          "RESIDENCIAL DUMMAR 2",
          "RESIDENCIAL DUMMAR 1",
          "RESIDENCIAL DUMMAR 3"
        ],
        "is_tactical": true,
        "generated_at": "2026-09-24T14:42:50.046626"
      },
      "geometry": {
        "type": "Point",
        "coordinates": [
          -38.5976572,
          -3.8809238
        ]
      }
    },
    {
      "type": "Feature",
      "properties": {
        "node_id": 73,
        "rank": 73,
        "name": "Luzardo Viana",
        "bairro": "MARACANAÚ",
        "municipality": "MARACANAU",
        "faction": "CV",
        "risk_score": 57.636,
        "score": 57.636,
        "region": "rmf",
        "parent_area": "MARACANAÚ",
        "parent_risk_score": 61.8,
        "parent_risk_level": "alto",
        "parent_status": "ALTO",
        "local_street_pressure": 3.978,
        "nearby_streets_count": 10,
        "nearby_streets": [
          "MUTIRÃO",
          "LUZARDO VIANA",
          "RUA JOSEFINA LIBERATO RODRIGUES"
        ],
        "is_tactical": true,
        "generated_at": "2026-09-24T14:42:50.046626"
      },
      "geometry": {
        "type": "Point",
        "coordinates": [
          -38.64944326470587,
          -3.861614058823529
        ]
      }
    },
    {
      "type": "Feature",
      "properties": {
        "node_id": 74,
        "rank": 74,
        "name": "Novo Maracanaú",
        "bairro": "MARACANAÚ",
        "municipality": "MARACANAU",
        "faction": "CV",
        "risk_score": 57.053,
        "score": 57.053,
        "region": "rmf",
        "parent_area": "MARACANAÚ",
        "parent_risk_score": 61.8,
        "parent_risk_level": "alto",
        "parent_status": "ALTO",
        "local_street_pressure": 4.513,
        "nearby_streets_count": 14,
        "nearby_streets": [
          "NOVO MARACANAÚ",
          "COQUEIRAL - MARACANAÚ",
          "RUA CINCO"
        ],
        "is_tactical": true,
        "generated_at": "2026-09-24T14:42:50.046626"
      },
      "geometry": {
        "type": "Point",
        "coordinates": [
          -38.62261466666667,
          -3.8651738333333334
        ]
      }
    },
    {
      "type": "Feature",
      "properties": {
        "node_id": 75,
        "rank": 75,
        "name": "Residencial Dummar 3",
        "bairro": "MARACANAÚ",
        "municipality": "MARACANAU",
        "faction": "CV",
        "risk_score": 56.917,
        "score": 56.917,
        "region": "rmf",
        "parent_area": "MARACANAÚ",
        "parent_risk_score": 61.8,
        "parent_risk_level": "alto",
        "parent_status": "ALTO",
        "local_street_pressure": 4.879,
        "nearby_streets_count": 12,
        "nearby_streets": [
          "RESIDENCIAL DUMMAR 3",
          "RESIDENCIAL DUMMAR 2",
          "RESIDENCIAL DUMMAR 1"
        ],
        "is_tactical": true,
        "generated_at": "2026-09-24T14:42:50.046626"
      },
      "geometry": {
        "type": "Point",
        "coordinates": [
          -38.59718,
          -3.8795730000000006
        ]
      }
    },
    {
      "type": "Feature",
      "properties": {
        "node_id": 76,
        "rank": 76,
        "name": "Alvorada (Maracanaú)",
        "bairro": "MARACANAÚ",
        "municipality": "MARACANAU",
        "faction": "CV",
        "risk_score": 56.581,
        "score": 56.581,
        "region": "rmf",
        "parent_area": "MARACANAÚ",
        "parent_risk_score": 61.8,
        "parent_risk_level": "alto",
        "parent_status": "ALTO",
        "local_street_pressure": 3.263,
        "nearby_streets_count": 12,
        "nearby_streets": [
          "ALVORADA (MARACANAÚ)",
          "RUA SABINO CHAGAS",
          "RUA PADRE CÍCERO ROMÃO"
        ],
        "is_tactical": true,
        "generated_at": "2026-09-24T14:42:50.046626"
      },
      "geometry": {
        "type": "Point",
        "coordinates": [
          -38.59164499999999,
          -3.8898429473684217
        ]
      }
    },
    {
      "type": "Feature",
      "properties": {
        "node_id": 77,
        "rank": 77,
        "name": "Planalto Verde",
        "bairro": "MARACANAÚ",
        "municipality": "MARACANAU",
        "faction": "CV",
        "risk_score": 56.487,
        "score": 56.487,
        "region": "rmf",
        "parent_area": "MARACANAÚ",
        "parent_risk_score": 61.8,
        "parent_risk_level": "alto",
        "parent_status": "ALTO",
        "local_street_pressure": 4.389,
        "nearby_streets_count": 12,
        "nearby_streets": [
          "PLANALTO VERDE",
          "HORTO",
          "VILA DAS FLORES"
        ],
        "is_tactical": true,
        "generated_at": "2026-09-24T14:42:50.046626"
      },
      "geometry": {
        "type": "Point",
        "coordinates": [
          -38.620563,
          -3.9014924166666667
        ]
      }
    },
    {
      "type": "Feature",
      "properties": {
        "node_id": 78,
        "rank": 78,
        "name": "Portelinha",
        "bairro": "MARACANAÚ",
        "municipality": "MARACANAU",
        "faction": "CV",
        "risk_score": 56.396,
        "score": 56.396,
        "region": "rmf",
        "parent_area": "MARACANAÚ",
        "parent_risk_score": 61.8,
        "parent_risk_level": "alto",
        "parent_status": "ALTO",
        "local_street_pressure": 4.605,
        "nearby_streets_count": 12,
        "nearby_streets": [
          "PORTELINHA",
          "ÁREA VERDE - NOVO MARANGUAPE I",
          "RODOVIA SENADOR ALMIR PINTO"
        ],
        "is_tactical": true,
        "generated_at": "2026-09-24T14:42:50.046626"
      },
      "geometry": {
        "type": "Point",
        "coordinates": [
          -38.669094090909084,
          -3.866796590909091
        ]
      }
    },
    {
      "type": "Feature",
      "properties": {
        "node_id": 79,
        "rank": 79,
        "name": "Comunidade do Pau Serrado",
        "bairro": "MARACANAÚ",
        "municipality": "MARACANAU",
        "faction": "CV",
        "risk_score": 56.249,
        "score": 56.249,
        "region": "rmf",
        "parent_area": "MARACANAÚ",
        "parent_risk_score": 61.8,
        "parent_risk_level": "alto",
        "parent_status": "ALTO",
        "local_street_pressure": 4.317,
        "nearby_streets_count": 12,
        "nearby_streets": [
          "COMUNIDADE DO PAU SERRADO",
          "MUTIRÃO",
          "RUA PEDRO ALVES DA CUNHA"
        ],
        "is_tactical": true,
        "generated_at": "2026-09-24T14:42:50.046626"
      },
      "geometry": {
        "type": "Point",
        "coordinates": [
          -38.65339042307692,
          -3.864550807692308
        ]
      }
    },
    {
      "type": "Feature",
      "properties": {
        "node_id": 80,
        "rank": 80,
        "name": "Mutirão",
        "bairro": "MARACANAÚ",
        "municipality": "MARACANAU",
        "faction": "CV",
        "risk_score": 55.952,
        "score": 55.952,
        "region": "rmf",
        "parent_area": "MARACANAÚ",
        "parent_risk_score": 61.8,
        "parent_risk_level": "alto",
        "parent_status": "ALTO",
        "local_street_pressure": 4.272,
        "nearby_streets_count": 9,
        "nearby_streets": [
          "MUTIRÃO",
          "COMUNIDADE DO PAU SERRADO",
          "LUZARDO VIANA"
        ],
        "is_tactical": true,
        "generated_at": "2026-09-24T14:42:50.046626"
      },
      "geometry": {
        "type": "Point",
        "coordinates": [
          -38.65055952173912,
          -3.8635063478260885
        ]
      }
    },
    {
      "type": "Feature",
      "properties": {
        "node_id": 81,
        "rank": 81,
        "name": "Urucara",
        "bairro": "MARACANAÚ",
        "municipality": "MARACANAU",
        "faction": "CV",
        "risk_score": 55.506,
        "score": 55.506,
        "region": "rmf",
        "parent_area": "MARACANAÚ",
        "parent_risk_score": 61.8,
        "parent_risk_level": "alto",
        "parent_status": "ALTO",
        "local_street_pressure": 4.078,
        "nearby_streets_count": 9,
        "nearby_streets": [
          "URUCARA",
          "RUA ALBERTO LOPES",
          "ALTA DELTA"
        ],
        "is_tactical": true,
        "generated_at": "2026-09-24T14:42:50.046626"
      },
      "geometry": {
        "type": "Point",
        "coordinates": [
          -38.69336123255813,
          -3.92572665116279
        ]
      }
    },
    {
      "type": "Feature",
      "properties": {
        "node_id": 82,
        "rank": 82,
        "name": "Piraporã",
        "bairro": "MARACANAÚ",
        "municipality": "MARACANAU",
        "faction": "CV",
        "risk_score": 55.418,
        "score": 55.418,
        "region": "rmf",
        "parent_area": "MARACANAÚ",
        "parent_risk_score": 61.8,
        "parent_risk_level": "alto",
        "parent_status": "ALTO",
        "local_street_pressure": 4.068,
        "nearby_streets_count": 9,
        "nearby_streets": [
          "PIRAPORÃ",
          "BECO DO BURACO - VILA SÃO JOSÉ - ALTO DO CAJUEIRO",
          "VILA SÃO JOSÉ"
        ],
        "is_tactical": true,
        "generated_at": "2026-09-24T14:42:50.046626"
      },
      "geometry": {
        "type": "Point",
        "coordinates": [
          -38.695714363636355,
          -3.8916036818181823
        ]
      }
    },
    {
      "type": "Feature",
      "properties": {
        "node_id": 83,
        "rank": 83,
        "name": "Quadras do Luzardo Viana",
        "bairro": "MARACANAÚ",
        "municipality": "MARACANAU",
        "faction": "CV",
        "risk_score": 55.04,
        "score": 55.04,
        "region": "rmf",
        "parent_area": "MARACANAÚ",
        "parent_risk_score": 61.8,
        "parent_risk_level": "alto",
        "parent_status": "ALTO",
        "local_street_pressure": 3.816,
        "nearby_streets_count": 11,
        "nearby_streets": [
          "QUADRAS DO LUZARDO VIANA",
          "MUTIRÃO",
          "COMUNIDADE DO PAU SERRADO"
        ],
        "is_tactical": true,
        "generated_at": "2026-09-24T14:42:50.046626"
      },
      "geometry": {
        "type": "Point",
        "coordinates": [
          -38.64728139999999,
          -3.8665042400000003
        ]
      }
    },
    {
      "type": "Feature",
      "properties": {
        "node_id": 84,
        "rank": 84,
        "name": "Maracananzinho",
        "bairro": "MARACANAÚ",
        "municipality": "MARACANAU",
        "faction": "CV",
        "risk_score": 54.856,
        "score": 54.856,
        "region": "rmf",
        "parent_area": "MARACANAÚ",
        "parent_risk_score": 61.8,
        "parent_risk_level": "alto",
        "parent_status": "ALTO",
        "local_street_pressure": 3.717,
        "nearby_streets_count": 13,
        "nearby_streets": [
          "MARACANANZINHO",
          "RESIDENCIAL/JABUTI - MARACANAÚ",
          "PIRATININGA"
        ],
        "is_tactical": true,
        "generated_at": "2026-09-24T14:42:50.046626"
      },
      "geometry": {
        "type": "Point",
        "coordinates": [
          -38.634940125,
          -3.86622125
        ]
      }
    },
    {
      "type": "Feature",
      "properties": {
        "node_id": 85,
        "rank": 85,
        "name": "Multirão - Maracanaú",
        "bairro": "MARACANAÚ",
        "municipality": "Maracanaú",
        "faction": "CV",
        "risk_score": 54.628,
        "score": 54.628,
        "region": "rmf",
        "parent_area": "MARACANAÚ",
        "parent_risk_score": 61.8,
        "parent_risk_level": "alto",
        "parent_status": "ALTO",
        "local_street_pressure": 3.621,
        "nearby_streets_count": 11,
        "nearby_streets": [
          "MULTIRÃO - MARACANAÚ",
          "RUA LUIS GIRÃO",
          "GRUTA - COLÔNIA"
        ],
        "is_tactical": true,
        "generated_at": "2026-09-24T14:42:50.046626"
      },
      "geometry": {
        "type": "Point",
        "coordinates": [
          -38.6379594,
          -3.8894543999999995
        ]
      }
    },
    {
      "type": "Feature",
      "properties": {
        "node_id": 86,
        "rank": 86,
        "name": "Horto",
        "bairro": "MARACANAÚ",
        "municipality": "MARACANAU",
        "faction": "CV",
        "risk_score": 54.174,
        "score": 54.174,
        "region": "rmf",
        "parent_area": "MARACANAÚ",
        "parent_risk_score": 61.8,
        "parent_risk_level": "alto",
        "parent_status": "ALTO",
        "local_street_pressure": 2.894,
        "nearby_streets_count": 7,
        "nearby_streets": [
          "HORTO",
          "RUA ANTÔNIO FRANCISCO",
          "PLANALTO VERDE"
        ],
        "is_tactical": true,
        "generated_at": "2026-09-24T14:42:50.046626"
      },
      "geometry": {
        "type": "Point",
        "coordinates": [
          -38.62115735294117,
          -3.9076130000000004
        ]
      }
    },
    {
      "type": "Feature",
      "properties": {
        "node_id": 87,
        "rank": 87,
        "name": "Residencial/Jabuti - Maracanaú",
        "bairro": "MARACANAÚ",
        "municipality": "Maracanaú",
        "faction": "CV",
        "risk_score": 54.011,
        "score": 54.011,
        "region": "rmf",
        "parent_area": "MARACANAÚ",
        "parent_risk_score": 61.8,
        "parent_risk_level": "alto",
        "parent_status": "ALTO",
        "local_street_pressure": 2.481,
        "nearby_streets_count": 8,
        "nearby_streets": [
          "RESIDENCIAL/JABUTI - MARACANAÚ",
          "RESIDENCIAL LL",
          "RUA VINTE E UM"
        ],
        "is_tactical": true,
        "generated_at": "2026-09-24T14:42:50.046626"
      },
      "geometry": {
        "type": "Point",
        "coordinates": [
          -38.631274937499995,
          -3.8572706875
        ]
      }
    },
    {
      "type": "Feature",
      "properties": {
        "node_id": 88,
        "rank": 88,
        "name": "Serra Pelada",
        "bairro": "MARACANAÚ",
        "municipality": "MARACANAU",
        "faction": "CV",
        "risk_score": 53.69,
        "score": 53.69,
        "region": "rmf",
        "parent_area": "MARACANAÚ",
        "parent_risk_score": 61.8,
        "parent_risk_level": "alto",
        "parent_status": "ALTO",
        "local_street_pressure": 3.143,
        "nearby_streets_count": 8,
        "nearby_streets": [
          "SERRA PELADA",
          "NOVO PARQUE IRACEMA - ALTO DO JOÃO GRANDE",
          "ALTA DELTA"
        ],
        "is_tactical": true,
        "generated_at": "2026-09-24T14:42:50.046626"
      },
      "geometry": {
        "type": "Point",
        "coordinates": [
          -38.69774353125,
          -3.9165278437500004
        ]
      }
    },
    {
      "type": "Feature",
      "properties": {
        "node_id": 89,
        "rank": 89,
        "name": "Mucunã - Maracanaú",
        "bairro": "MARACANAÚ",
        "municipality": "Maracanaú",
        "faction": "CV",
        "risk_score": 53.429,
        "score": 53.429,
        "region": "rmf",
        "parent_area": "MARACANAÚ",
        "parent_risk_score": 61.8,
        "parent_risk_level": "alto",
        "parent_status": "ALTO",
        "local_street_pressure": 2.544,
        "nearby_streets_count": 8,
        "nearby_streets": [
          "MUCUNÃ - MARACANAÚ",
          "ALTO DA ALVORADA - MUCUNÃ",
          "PAPOCO - MUCUNÃ"
        ],
        "is_tactical": true,
        "generated_at": "2026-09-24T14:42:50.046626"
      },
      "geometry": {
        "type": "Point",
        "coordinates": [
          -38.65635572549021,
          -3.8460578431372547
        ]
      }
    },
    {
      "type": "Feature",
      "properties": {
        "node_id": 90,
        "rank": 90,
        "name": "Velho Timbó",
        "bairro": "MARACANAÚ",
        "municipality": "MARACANAU",
        "faction": "CV",
        "risk_score": 52.275,
        "score": 52.275,
        "region": "rmf",
        "parent_area": "MARACANAÚ",
        "parent_risk_score": 61.8,
        "parent_risk_level": "alto",
        "parent_status": "ALTO",
        "local_street_pressure": 1.362,
        "nearby_streets_count": 4,
        "nearby_streets": [
          "VELHO TIMBÓ",
          "AVENIDA JOSÉ GUILHERME",
          "AVENIDA B"
        ],
        "is_tactical": true,
        "generated_at": "2026-09-24T14:42:50.046626"
      },
      "geometry": {
        "type": "Point",
        "coordinates": [
          -38.59954907692308,
          -3.9067746923076925
        ]
      }
    },
    {
      "type": "Feature",
      "properties": {
        "node_id": 91,
        "rank": 91,
        "name": "Olho D’Água",
        "bairro": "MARACANAÚ",
        "municipality": "MARACANAU",
        "faction": "CV",
        "risk_score": 51.561,
        "score": 51.561,
        "region": "rmf",
        "parent_area": "MARACANAÚ",
        "parent_risk_score": 61.8,
        "parent_risk_level": "alto",
        "parent_status": "ALTO",
        "local_street_pressure": 1.546,
        "nearby_streets_count": 5,
        "nearby_streets": [
          "OLHO D’ÁGUA",
          "RUA ANTÔNIO FRANCISCO",
          "HORTO"
        ],
        "is_tactical": true,
        "generated_at": "2026-09-24T14:42:50.046626"
      },
      "geometry": {
        "type": "Point",
        "coordinates": [
          -38.62399946875,
          -3.916878375
        ]
      }
    },
    {
      "type": "Feature",
      "properties": {
        "node_id": 92,
        "rank": 92,
        "name": "Jagatá - Maracanaú",
        "bairro": "ALTO ALEGRE II",
        "municipality": "Maracanaú",
        "faction": "CV",
        "risk_score": 50.969,
        "score": 50.969,
        "region": "rmf",
        "parent_area": "ALTO ALEGRE II",
        "parent_risk_score": 61.8,
        "parent_risk_level": "alto",
        "parent_status": "ALTO",
        "local_street_pressure": 1.546,
        "nearby_streets_count": 4,
        "nearby_streets": [
          "JAGATÁ - MARACANAÚ",
          "SANTA MARTA",
          "AREA SEM NOME"
        ],
        "is_tactical": true,
        "generated_at": "2026-09-24T14:42:50.046626"
      },
      "geometry": {
        "type": "Point",
        "coordinates": [
          -38.62173174999999,
          -3.8341934583333326
        ]
      }
    },
    {
      "type": "Feature",
      "properties": {
        "node_id": 93,
        "rank": 93,
        "name": "Vila Nova - Maracanaú",
        "bairro": "ALTO ALEGRE II",
        "municipality": "Maracanaú",
        "faction": "CV",
        "risk_score": 50.478,
        "score": 50.478,
        "region": "rmf",
        "parent_area": "ALTO ALEGRE II",
        "parent_risk_score": 61.8,
        "parent_risk_level": "alto",
        "parent_status": "ALTO",
        "local_street_pressure": 1.39,
        "nearby_streets_count": 3,
        "nearby_streets": [
          "VILA NOVA - MARACANAÚ",
          "COMUNIDADE DA CENTRAL  - JAÇANAÚ",
          "FAVELA DO MAGALHÃES - JAÇANAÚ"
        ],
        "is_tactical": true,
        "generated_at": "2026-09-24T14:42:50.046626"
      },
      "geometry": {
        "type": "Point",
        "coordinates": [
          -38.638551875,
          -3.8343103125
        ]
      }
    },
    {
      "type": "Feature",
      "properties": {
        "node_id": 94,
        "rank": 94,
        "name": "Gereraú",
        "bairro": "MARACANAÚ",
        "municipality": "MARACANAU",
        "faction": "CV",
        "risk_score": 50.291,
        "score": 50.291,
        "region": "rmf",
        "parent_area": "MARACANAÚ",
        "parent_risk_score": 61.8,
        "parent_risk_level": "alto",
        "parent_status": "ALTO",
        "local_street_pressure": 1.17,
        "nearby_streets_count": 4,
        "nearby_streets": [
          "GERERAÚ",
          "RUA MARIA GERALDA",
          "TV JOÃO FERREIRA DE ALENCAR 2"
        ],
        "is_tactical": true,
        "generated_at": "2026-09-24T14:42:50.046626"
      },
      "geometry": {
        "type": "Point",
        "coordinates": [
          -38.693862947368416,
          -3.942389631578947
        ]
      }
    },
    {
      "type": "Feature",
      "properties": {
        "node_id": 95,
        "rank": 95,
        "name": "Cruzeiro - Itapipoca",
        "bairro": "ITAPIPOCA",
        "municipality": "Itapipoca",
        "faction": "PCC",
        "risk_score": 44.908,
        "score": 44.908,
        "region": "rmf",
        "parent_area": "ITAPIPOCA",
        "parent_risk_score": 32.7,
        "parent_risk_level": "moderado",
        "parent_status": "MODERADO",
        "local_street_pressure": 9.406,
        "nearby_streets_count": 25,
        "nearby_streets": [
          "CRUZEIRO - ITAPIPOCA",
          "RUA FRANCISCO DOMINGOS BRAGA FILHO",
          "RUA OSVALDO CRUZ"
        ],
        "is_tactical": true,
        "generated_at": "2026-09-24T14:42:50.046626"
      },
      "geometry": {
        "type": "Point",
        "coordinates": [
          -39.57847400000001,
          -3.487507611111111
        ]
      }
    },
    {
      "type": "Feature",
      "properties": {
        "node_id": 96,
        "rank": 96,
        "name": "Maranhão - Itapipoca",
        "bairro": "ITAPIPOCA",
        "municipality": "Itapipoca",
        "faction": "PCC",
        "risk_score": 42.953,
        "score": 42.953,
        "region": "rmf",
        "parent_area": "ITAPIPOCA",
        "parent_risk_score": 32.7,
        "parent_risk_level": "moderado",
        "parent_status": "MODERADO",
        "local_street_pressure": 8.268,
        "nearby_streets_count": 22,
        "nearby_streets": [
          "MARANHÃO - ITAPIPOCA",
          "RUA JOAO BATISTA BARROSO",
          "RUA SEBASTIÃO GONÇALVES"
        ],
        "is_tactical": true,
        "generated_at": "2026-09-24T14:42:50.046626"
      },
      "geometry": {
        "type": "Point",
        "coordinates": [
          -39.58304249999998,
          -3.4827459615384617
        ]
      }
    },
    {
      "type": "Feature",
      "properties": {
        "node_id": 97,
        "rank": 97,
        "name": "São Francisco - Itapipoca",
        "bairro": "ITAPIPOCA",
        "municipality": "Itapipoca",
        "faction": "PCC",
        "risk_score": 42.858,
        "score": 42.858,
        "region": "rmf",
        "parent_area": "ITAPIPOCA",
        "parent_risk_score": 32.7,
        "parent_risk_level": "moderado",
        "parent_status": "MODERADO",
        "local_street_pressure": 8.355,
        "nearby_streets_count": 21,
        "nearby_streets": [
          "SÃO FRANCISCO - ITAPIPOCA",
          "RUA DOM ORIONE",
          "RUA JOAQUIM RODRIGUES TEIXEIRA DE MENEZES"
        ],
        "is_tactical": true,
        "generated_at": "2026-09-24T14:42:50.046626"
      },
      "geometry": {
        "type": "Point",
        "coordinates": [
          -39.5964408,
          -3.4982444
        ]
      }
    },
    {
      "type": "Feature",
      "properties": {
        "node_id": 98,
        "rank": 98,
        "name": "Estação - Itapipoca",
        "bairro": "ITAPIPOCA",
        "municipality": "Itapipoca",
        "faction": "PCC",
        "risk_score": 42.604,
        "score": 42.604,
        "region": "rmf",
        "parent_area": "ITAPIPOCA",
        "parent_risk_score": 32.7,
        "parent_risk_level": "moderado",
        "parent_status": "MODERADO",
        "local_street_pressure": 8.369,
        "nearby_streets_count": 24,
        "nearby_streets": [
          "ESTAÇÃO - ITAPIPOCA",
          "RUA JOSÉ ROMERO",
          "RUA JOSÉ AIRTON TEIXEIRA"
        ],
        "is_tactical": true,
        "generated_at": "2026-09-24T14:42:50.046626"
      },
      "geometry": {
        "type": "Point",
        "coordinates": [
          -39.58351389189188,
          -3.495506
        ]
      }
    },
    {
      "type": "Feature",
      "properties": {
        "node_id": 99,
        "rank": 99,
        "name": "Alto Alegre - Itapipoca",
        "bairro": "ITAPIPOCA",
        "municipality": "Itapipoca",
        "faction": "PCC",
        "risk_score": 42.512,
        "score": 42.512,
        "region": "rmf",
        "parent_area": "ITAPIPOCA",
        "parent_risk_score": 32.7,
        "parent_risk_level": "moderado",
        "parent_status": "MODERADO",
        "local_street_pressure": 8.313,
        "nearby_streets_count": 23,
        "nearby_streets": [
          "ALTO ALEGRE - ITAPIPOCA",
          "RUA CAPITÃO MANOEL ALVES",
          "RUA MANOEL MOURA NEGRÃO"
        ],
        "is_tactical": true,
        "generated_at": "2026-09-24T14:42:50.046626"
      },
      "geometry": {
        "type": "Point",
        "coordinates": [
          -39.5907952173913,
          -3.5009805217391308
        ]
      }
    },
    {
      "type": "Feature",
      "properties": {
        "node_id": 100,
        "rank": 100,
        "name": "Novo Horizonte - Itapipoca",
        "bairro": "ITAPIPOCA",
        "municipality": "Itapipoca",
        "faction": "PCC",
        "risk_score": 41.758,
        "score": 41.758,
        "region": "rmf",
        "parent_area": "ITAPIPOCA",
        "parent_risk_score": 32.7,
        "parent_risk_level": "moderado",
        "parent_status": "MODERADO",
        "local_street_pressure": 7.873,
        "nearby_streets_count": 20,
        "nearby_streets": [
          "NOVO HORIZONTE - ITAPIPOCA",
          "RUA GUSTAVO H DE OLIVEIRA",
          "SÃO FRANCISCO - ITAPIPOCA"
        ],
        "is_tactical": true,
        "generated_at": "2026-09-24T14:42:50.046626"
      },
      "geometry": {
        "type": "Point",
        "coordinates": [
          -39.5945752,
          -3.49359244
        ]
      }
    },
    {
      "type": "Feature",
      "properties": {
        "node_id": 101,
        "rank": 101,
        "name": "Sanharão - Itapipoca",
        "bairro": "ITAPIPOCA",
        "municipality": "Itapipoca",
        "faction": "PCC",
        "risk_score": 41.301,
        "score": 41.301,
        "region": "rmf",
        "parent_area": "ITAPIPOCA",
        "parent_risk_score": 32.7,
        "parent_risk_level": "moderado",
        "parent_status": "MODERADO",
        "local_street_pressure": 7.609,
        "nearby_streets_count": 22,
        "nearby_streets": [
          "SANHARÃO - ITAPIPOCA",
          "TRAVESSA MARECHAL HERMES",
          "BOA VISTA - ITAPIPOCA"
        ],
        "is_tactical": true,
        "generated_at": "2026-09-24T14:42:50.046626"
      },
      "geometry": {
        "type": "Point",
        "coordinates": [
          -39.58459654054054,
          -3.5041568108108105
        ]
      }
    },
    {
      "type": "Feature",
      "properties": {
        "node_id": 102,
        "rank": 102,
        "name": "Amontada - Itapipoca",
        "bairro": "ITAPIPOCA",
        "municipality": "Itapipoca",
        "faction": "PCC",
        "risk_score": 40.753,
        "score": 40.753,
        "region": "rmf",
        "parent_area": "ITAPIPOCA",
        "parent_risk_score": 32.7,
        "parent_risk_level": "moderado",
        "parent_status": "MODERADO",
        "local_street_pressure": 7.333,
        "nearby_streets_count": 21,
        "nearby_streets": [
          "AMONTADA - ITAPIPOCA",
          "CRUZEIRO - ITAPIPOCA",
          "RUA FIRMINO MARTINS"
        ],
        "is_tactical": true,
        "generated_at": "2026-09-24T14:42:50.046626"
      },
      "geometry": {
        "type": "Point",
        "coordinates": [
          -39.57767826666667,
          -3.4915281999999994
        ]
      }
    },
    {
      "type": "Feature",
      "properties": {
        "node_id": 103,
        "rank": 103,
        "name": "Conj. Geraldo G. Azavedo - Itapipoca",
        "bairro": "ITAPIPOCA",
        "municipality": "Itapipoca",
        "faction": "PCC",
        "risk_score": 40.091,
        "score": 40.091,
        "region": "rmf",
        "parent_area": "ITAPIPOCA",
        "parent_risk_score": 32.7,
        "parent_risk_level": "moderado",
        "parent_status": "MODERADO",
        "local_street_pressure": 6.886,
        "nearby_streets_count": 18,
        "nearby_streets": [
          "CONJ. GERALDO G. AZAVEDO - ITAPIPOCA",
          "RUA ANTÔNIO CARVALHO",
          "SÃO FRANCISCO - ITAPIPOCA"
        ],
        "is_tactical": true,
        "generated_at": "2026-09-24T14:42:50.046626"
      },
      "geometry": {
        "type": "Point",
        "coordinates": [
          -39.59952513636364,
          -3.497073636363637
        ]
      }
    },
    {
      "type": "Feature",
      "properties": {
        "node_id": 104,
        "rank": 104,
        "name": "Boa Vista - Itapipoca",
        "bairro": "ITAPIPOCA",
        "municipality": "Itapipoca",
        "faction": "PCC",
        "risk_score": 40.032,
        "score": 40.032,
        "region": "rmf",
        "parent_area": "ITAPIPOCA",
        "parent_risk_score": 32.7,
        "parent_risk_level": "moderado",
        "parent_status": "MODERADO",
        "local_street_pressure": 6.964,
        "nearby_streets_count": 19,
        "nearby_streets": [
          "BOA VISTA - ITAPIPOCA",
          "RUA MARECHAL HERMES DA FONSECA",
          "RUA CHICO DE SOUSA"
        ],
        "is_tactical": true,
        "generated_at": "2026-09-24T14:42:50.046626"
      },
      "geometry": {
        "type": "Point",
        "coordinates": [
          -39.58143185714286,
          -3.5051849523809517
        ]
      }
    },
    {
      "type": "Feature",
      "properties": {
        "node_id": 105,
        "rank": 105,
        "name": "Violete - Itapipoca",
        "bairro": "ITAPIPOCA",
        "municipality": "Itapipoca",
        "faction": "PCC",
        "risk_score": 39.971,
        "score": 39.971,
        "region": "rmf",
        "parent_area": "ITAPIPOCA",
        "parent_risk_score": 32.7,
        "parent_risk_level": "moderado",
        "parent_status": "MODERADO",
        "local_street_pressure": 6.683,
        "nearby_streets_count": 19,
        "nearby_streets": [
          "VIOLETE - ITAPIPOCA",
          "RUA SEVERIANO MOREIRA",
          "NOVO AMERICA"
        ],
        "is_tactical": true,
        "generated_at": "2026-09-24T14:42:50.046626"
      },
      "geometry": {
        "type": "Point",
        "coordinates": [
          -39.57427470588235,
          -3.483843294117647
        ]
      }
    },
    {
      "type": "Feature",
      "properties": {
        "node_id": 106,
        "rank": 106,
        "name": "Mourão - Itapipoca",
        "bairro": "ITAPIPOCA",
        "municipality": "Itapipoca",
        "faction": "PCC",
        "risk_score": 38.784,
        "score": 38.784,
        "region": "rmf",
        "parent_area": "ITAPIPOCA",
        "parent_risk_score": 32.7,
        "parent_risk_level": "moderado",
        "parent_status": "MODERADO",
        "local_street_pressure": 6.262,
        "nearby_streets_count": 18,
        "nearby_streets": [
          "MOURÃO - ITAPIPOCA",
          "RUA JOAQUIM RODRIGUES TEIXEIRA DE MENEZES",
          "SÃO FRANCISCO - ITAPIPOCA"
        ],
        "is_tactical": true,
        "generated_at": "2026-09-24T14:42:50.046626"
      },
      "geometry": {
        "type": "Point",
        "coordinates": [
          -39.596624000000006,
          -3.5015279
        ]
      }
    },
    {
      "type": "Feature",
      "properties": {
        "node_id": 107,
        "rank": 107,
        "name": "Urbano Teixeira - Itapipoca",
        "bairro": "ITAPIPOCA",
        "municipality": "Itapipoca",
        "faction": "PCC",
        "risk_score": 35.191,
        "score": 35.191,
        "region": "rmf",
        "parent_area": "ITAPIPOCA",
        "parent_risk_score": 32.7,
        "parent_risk_level": "moderado",
        "parent_status": "MODERADO",
        "local_street_pressure": 4.336,
        "nearby_streets_count": 11,
        "nearby_streets": [
          "URBANO TEIXEIRA - ITAPIPOCA",
          "RUA CENTO E DOIS",
          "RUA VICENTE MOURA VIANA"
        ],
        "is_tactical": true,
        "generated_at": "2026-09-24T14:42:50.046626"
      },
      "geometry": {
        "type": "Point",
        "coordinates": [
          -39.59940095238095,
          -3.4902690952380957
        ]
      }
    },
    {
      "type": "Feature",
      "properties": {
        "node_id": 108,
        "rank": 108,
        "name": "Dos Pico - Itapipoca",
        "bairro": "URUBURETAMA",
        "municipality": "Itapipoca",
        "faction": "PCC",
        "risk_score": 29.506,
        "score": 29.506,
        "region": "rmf",
        "parent_area": "URUBURETAMA",
        "parent_risk_score": 32.7,
        "parent_risk_level": "moderado",
        "parent_status": "MODERADO",
        "local_street_pressure": 0.528,
        "nearby_streets_count": 1,
        "nearby_streets": [
          "DOS PICO - ITAPIPOCA"
        ],
        "is_tactical": true,
        "generated_at": "2026-09-24T14:42:50.046626"
      },
      "geometry": {
        "type": "Point",
        "coordinates": [
          -39.563363633928574,
          -3.515288535714285
        ]
      }
    }
  ],
  "metadata": {
    "total": 108,
    "source": "Sentinela Micronodes Dynamic Overlay",
    "threshold_min_score": 31.0,
    "generated_at": "2026-09-24T14:42:50.046626",
    "region": "rmf"
  }
}